{"type":"FeatureCollection","features":[{"type":"Feature","id":0,"geometry":{"type":"Polygon","coordinates":[[[57.883778719663674,23.6395119607343],[57.885009934058452,23.639302158321733],[57.885464721357259,23.641224248701381],[57.884216343529516,23.641427896507391],[57.883778719663674,23.6395119607343]]]},"properties":{"FID":0,"Governorat":"North Al Batinah","Wilayat":"Barka","Land_Cover":"Agricultural","Latitude":23.639299640000001,"Longitude":57.884618349999997,"Farm_ID":"F_001","Land_Cov_1":"LC_001","Shape_Leng":691.62332169399997,"Shape_Area":27911.425664800001}},{"type":"Feature","id":1,"geometry":{"type":"Polygon","coordinates":[[[57.884112367144645,23.641463642662703],[57.882688816135548,23.641657332805568],[57.882395569458666,23.639690028815227],[57.883714921687179,23.639532788930062],[57.884112367144645,23.641463642662703]],[[57.882597671838653,23.63977197569384],[57.882457841369146,23.639787226183049],[57.882472655810261,23.639895407304945],[57.882472691408545,23.639900717002263],[57.88261281685655,23.63988162984047],[57.882597671838653,23.63977197569384]]]},"properties":{"FID":1,"Governorat":"North Al Batinah","Wilayat":"Barka","Land_Cover":"Agricultural","Latitude":23.639530600000001,"Longitude":57.883232909999997,"Farm_ID":"F_002","Land_Cov_1":"LC_002","Shape_Leng":773.64560159799998,"Shape_Area":30694.0943482}},{"type":"Feature","id":2,"geometry":{"type":"Polygon","coordinates":[[[57.883836678344835,23.639433298821881],[57.882947852198377,23.635652254095529],[57.884250668357296,23.635340659642658],[57.885012680711249,23.639243046438768],[57.883836678344835,23.639433298821881]]]},"properties":{"FID":2,"Governorat":"North Al Batinah","Wilayat":"Barka","Land_Cover":"Agricultural","Latitude":23.635336460000001,"Longitude":57.884006300000003,"Farm_ID":"F_003","Land_Cov_1":"LC_003","Shape_Leng":1126.44000951,"Shape_Area":56114.5905824}},{"type":"Feature","id":3,"geometry":{"type":"Polygon","coordinates":[[[57.882888208647266,23.635667077291441],[57.883708024059651,23.639454426162203],[57.882407275324489,23.639649087090774],[57.882384129859744,23.63953918218651],[57.882517301940275,23.639518909944435],[57.882500469786464,23.639411153064373],[57.8824712448748,23.639398339503732],[57.882356765752242,23.639409227705062],[57.881632491751503,23.635969702156515],[57.882888208647266,23.635667077291441]]]},"properties":{"FID":3,"Governorat":"North Al Batinah","Wilayat":"Barka","Land_Cover":"Agricultural","Latitude":23.635662549999999,"Longitude":57.882664089999999,"Farm_ID":"F_004","Land_Cov_1":"LC_004","Shape_Leng":1135.5918678099999,"Shape_Area":55936.298226899999}},{"type":"Feature","id":4,"geometry":{"type":"Polygon","coordinates":[[[57.88287130986614,23.635608693201956],[57.881619442935545,23.63592867718674],[57.881036594858607,23.633937484413593],[57.882398032038097,23.63360710509297],[57.88287130986614,23.635608693201956]]]},"properties":{"FID":4,"Governorat":"North Al Batinah","Wilayat":"Barka","Land_Cover":"Agricultural","Latitude":23.63360449,"Longitude":57.88197693,"Farm_ID":"F_005","Land_Cov_1":"LC_005","Shape_Leng":731.28690820099996,"Shape_Area":31401.0583959}},{"type":"Feature","id":5,"geometry":{"type":"Polygon","coordinates":[[[57.882488121626807,23.633590297980657],[57.883840701693025,23.633269407610406],[57.88423567673518,23.635280953397125],[57.882949584624583,23.635591757049593],[57.882488121626807,23.633590297980657]]]},"properties":{"FID":5,"Governorat":"North Al Batinah","Wilayat":"Barka","Land_Cover":"Agricultural","Latitude":23.633267230000001,"Longitude":57.88337645,"Farm_ID":"F_006","Land_Cov_1":"LC_006","Shape_Leng":730.97947485999998,"Shape_Area":31425.9874399}},{"type":"Feature","id":6,"geometry":{"type":"Polygon","coordinates":[[[57.880956920792016,23.633908402332178],[57.88092376684434,23.633083657621974],[57.883673958295901,23.632329649354638],[57.883851357273663,23.633232500017446],[57.880956920792016,23.633908402332178]]]},"properties":{"FID":6,"Governorat":"North Al Batinah","Wilayat":"Barka","Land_Cover":"Agricultural","Latitude":23.63232867,"Longitude":57.882382190000001,"Farm_ID":"F_007","Land_Cov_1":"LC_007","Shape_Leng":790.25528271400003,"Shape_Area":28384.449929800001}},{"type":"Feature","id":7,"geometry":{"type":"Polygon","coordinates":[[[57.880892893815151,23.633038639585696],[57.880750931408251,23.631181596113862],[57.883179398054075,23.630157310574212],[57.883665343308117,23.632281323120374],[57.880892893815151,23.633038639585696]],[[57.882384237834692,23.63210769412029],[57.882299714547138,23.632125813451648],[57.8822035061877,23.632150152684492],[57.882227931337532,23.632229339912442],[57.882405545908746,23.63218458234422],[57.882390183555415,23.632130663867322],[57.882384237834692,23.63210769412029]],[[57.88251207292992,23.632071706940639],[57.882476430930609,23.632080611121253],[57.88248437722919,23.632110851071293],[57.88251813915079,23.632102998972702],[57.88251207292992,23.632071706940639]],[[57.882611479955187,23.632047362867539],[57.882547306166458,23.63206046850253],[57.882564818784438,23.632124822931534],[57.882629795493429,23.632109962321241],[57.882611479955187,23.632047362867539]],[[57.883135904473207,23.630282015357214],[57.882905071178982,23.63032266266196],[57.882937553383258,23.630498168928824],[57.883174130650488,23.630464829165344],[57.883135904473207,23.630282015357214]]]},"properties":{"FID":7,"Governorat":"North Al Batinah","Wilayat":"Barka","Land_Cover":"Agricultural","Latitude":23.630154619999999,"Longitude":57.882156969999997,"Farm_ID":"F_008","Land_Cov_1":"LC_008","Shape_Leng":1200.66017947,"Shape_Area":60901.277635999999}},{"type":"Feature","id":8,"geometry":{"type":"Polygon","coordinates":[[[57.886571982049148,23.633809894847481],[57.88433779950703,23.634192626258443],[57.883927999986106,23.632325178974842],[57.886183607511612,23.631922439690737],[57.886571982049148,23.633809894847481]],[[57.885890202744655,23.633503196563051],[57.885785278960689,23.633526818271736],[57.885824784943885,23.633684804051938],[57.885927256692,23.633664340350546],[57.885890202744655,23.633503196563051]],[[57.884226413795943,23.633274610219775],[57.884196824924018,23.633279532415091],[57.884213069680982,23.633365011530056],[57.884241885453825,23.633358684748966],[57.884243364474564,23.633379804834586],[57.884289951553846,23.633372850174784],[57.884263950543357,23.633286369040345],[57.884229575406913,23.633290086563779],[57.884226413795943,23.633274610219775]],[[57.885807226513414,23.633157812429122],[57.885464525410129,23.633241714391801],[57.885544766337667,23.633601047073984],[57.885842267599614,23.633408567692925],[57.885807226513414,23.633157812429122]],[[57.884249498392457,23.633031933764254],[57.88420432124019,23.633043572487725],[57.88421134972473,23.6330703538008],[57.884255802688855,23.633060069484749],[57.884249498392457,23.633031933764254]]]},"properties":{"FID":8,"Governorat":"North Al Batinah","Wilayat":"Barka","Land_Cover":"Agricultural","Latitude":23.63192029,"Longitude":57.885245980000001,"Farm_ID":"F_009","Land_Cov_1":"LC_009","Shape_Leng":1143.35128358,"Shape_Area":47898.325635599998}},{"type":"Feature","id":9,"geometry":{"type":"Polygon","coordinates":[[[57.884038284170998,23.632245419494438],[57.884037792548483,23.632243742347111],[57.884027367691367,23.632195408385801],[57.884047537360907,23.632190640162818],[57.884024020994275,23.632110739960876],[57.883933493924317,23.632130101064615],[57.883940497718136,23.632157747800353],[57.883874094572519,23.632171703047508],[57.883251953797703,23.629730903782349],[57.88532939476724,23.629234759052078],[57.886156116327797,23.631842055852296],[57.884038284170998,23.632245419494438]]]},"properties":{"FID":9,"Governorat":"North Al Batinah","Wilayat":"Barka","Land_Cover":"Agricultural","Latitude":23.629230140000001,"Longitude":57.884672690000002,"Farm_ID":"F_010","Land_Cov_1":"LC_010","Shape_Leng":1054.38112903,"Shape_Area":66644.9821314}},{"type":"Feature","id":10,"geometry":{"type":"Polygon","coordinates":[[[57.887260509573615,23.634100348982585],[57.887351354684192,23.635073096080877],[57.884634867268971,23.635559211391563],[57.884318267575075,23.634499063579728],[57.884468271808515,23.634331121183067],[57.886956488692043,23.633839522691204],[57.887260509573615,23.634100348982585]]]},"properties":{"FID":10,"Governorat":"North Al Batinah","Wilayat":"Barka","Land_Cover":"Agricultural","Latitude":23.633837310000001,"Longitude":57.885872110000001,"Farm_ID":"F_011","Land_Cov_1":"LC_011","Shape_Leng":838.1608612,"Shape_Area":40460.292646399997}},{"type":"Feature","id":11,"geometry":{"type":"Polygon","coordinates":[[[57.884747998439707,23.636412747443575],[57.884631099199204,23.635598666504016],[57.88733235831954,23.635092429313524],[57.887291710560561,23.635321620609009],[57.887301754379635,23.63573517793084],[57.887565794491465,23.636956583820805],[57.884988381732924,23.637441217449549],[57.884747998439707,23.636412747443575]],[[57.887064174731499,23.635612092483665],[57.886680517060292,23.635699248150729],[57.886188692368833,23.635808290322757],[57.88632027900556,23.636389903105005],[57.887195343223517,23.636192219273678],[57.887064174731499,23.635612092483665]]]},"properties":{"FID":11,"Governorat":"North Al Batinah","Wilayat":"Barka","Land_Cover":"Agricultural","Latitude":23.635091169999999,"Longitude":57.886016410000003,"Farm_ID":"F_012","Land_Cov_1":"LC_012","Shape_Leng":1281.5247188200001,"Shape_Area":50018.884933399997}},{"type":"Feature","id":12,"geometry":{"type":"Polygon","coordinates":[[[57.887923361634329,23.638906270331432],[57.885507899194046,23.63931392782888],[57.885142584364836,23.63748922216395],[57.887497564072198,23.637084278107608],[57.887923361634329,23.638906270331432]]]},"properties":{"FID":12,"Governorat":"North Al Batinah","Wilayat":"Barka","Land_Cover":"Agricultural","Latitude":23.637081909999999,"Longitude":57.886519460000002,"Farm_ID":"F_013","Land_Cov_1":"LC_013","Shape_Leng":906.64368171800004,"Shape_Area":50933.026110799998}},{"type":"Feature","id":13,"geometry":{"type":"Polygon","coordinates":[[[57.888508527457844,23.639233114283591],[57.888760170319344,23.640687713183492],[57.888574652107962,23.640712645942031],[57.88585710491995,23.641153866991313],[57.885547377623034,23.639405201725772],[57.888273177006369,23.638912223442787],[57.888508527457844,23.639233114283591]]]},"properties":{"FID":13,"Governorat":"North Al Batinah","Wilayat":"Barka","Land_Cover":"Agricultural","Latitude":23.6389095,"Longitude":57.887152499999999,"Farm_ID":"F_014","Land_Cov_1":"LC_014","Shape_Leng":986.07382601300003,"Shape_Area":59563.308115100001}},{"type":"Feature","id":14,"geometry":{"type":"Polygon","coordinates":[[[57.883036239255084,23.643576800801149],[57.882673724201638,23.641751386478369],[57.88547498397341,23.641310053444158],[57.885823073180575,23.643155124121609],[57.883036239255084,23.643576800801149]]]},"properties":{"FID":14,"Governorat":"North Al Batinah","Wilayat":"Barka","Land_Cover":"Agricultural","Latitude":23.64130814,"Longitude":57.884253970000003,"Farm_ID":"F_015","Land_Cov_1":"LC_015","Shape_Leng":990.757319403,"Shape_Area":59641.589071000002}},{"type":"Feature","id":15,"geometry":{"type":"Polygon","coordinates":[[[57.883298777330872,23.644487008154723],[57.883027451089951,23.643592331646847],[57.885864974911449,23.643151756985088],[57.885992122684428,23.643803745623494],[57.883298777330872,23.644487008154723]],[[57.884431014357034,23.6435184598818],[57.88423025560261,23.643547924525201],[57.884255678031884,23.643688331476362],[57.884454734666022,23.643659402164552],[57.884431014357034,23.6435184598818]]]},"properties":{"FID":15,"Governorat":"North Al Batinah","Wilayat":"Barka","Land_Cover":"Agricultural","Latitude":23.643151060000001,"Longitude":57.884469979999999,"Farm_ID":"F_016","Land_Cov_1":"LC_016","Shape_Leng":827.49116146100005,"Shape_Area":25090.634997599998}},{"type":"Feature","id":16,"geometry":{"type":"Polygon","coordinates":[[[57.88600515988324,23.643876063257402],[57.88625951708061,23.645121866491944],[57.88477065932689,23.645463998206779],[57.884669835858425,23.645223079422081],[57.884423016761964,23.644621582707277],[57.884291022259589,23.644330640811766],[57.88600515988324,23.643876063257402]]]},"properties":{"FID":16,"Governorat":"North Al Batinah","Wilayat":"Barka","Land_Cover":"Agricultural","Latitude":23.643874660000002,"Longitude":57.885334710000002,"Farm_ID":"F_017","Land_Cov_1":"LC_017","Shape_Leng":613.50748856300004,"Shape_Area":23115.8838034}},{"type":"Feature","id":17,"geometry":{"type":"Polygon","coordinates":[[[57.884910899331189,23.64775146827855],[57.884004141855989,23.645808027228227],[57.886234360049599,23.645179332551407],[57.886673324067999,23.647320990496002],[57.884910899331189,23.64775146827855]],[[57.885366074314817,23.646047308917488],[57.885316669603881,23.646057560494889],[57.885332150890385,23.646118361101298],[57.885383096468054,23.646107030432006],[57.885366074314817,23.646047308917488]],[[57.885357239913027,23.645940540102551],[57.885287022070763,23.645959456556366],[57.885305328014823,23.646038043948341],[57.885372858722924,23.646021633845425],[57.885357239913027,23.645940540102551]],[[57.88506113521418,23.645900727763681],[57.884993472911496,23.645917977551296],[57.885020872778846,23.646019683684806],[57.885024327878654,23.64601852503284],[57.88508633624172,23.646006548754965],[57.88506113521418,23.645900727763681]],[[57.884834639719777,23.645720399313198],[57.884649691426858,23.645776890120935],[57.884721894290657,23.645970678109055],[57.884898652458453,23.645927189405327],[57.884834639719777,23.645720399313198]]]},"properties":{"FID":17,"Governorat":"North Al Batinah","Wilayat":"Barka","Land_Cover":"Agricultural","Latitude":23.64517691,"Longitude":57.885454439999997,"Farm_ID":"F_018","Land_Cov_1":"LC_018","Shape_Leng":1078.8787341499999,"Shape_Area":49441.415029600001}},{"type":"Feature","id":18,"geometry":{"type":"Polygon","coordinates":[[[57.889607851775999,23.644337701814234],[57.889812995872759,23.645482862037582],[57.88735602833993,23.645989840695986],[57.887301710828034,23.645680350680664],[57.886659685313795,23.645778995298524],[57.886527143206798,23.64486863380483],[57.887923106675373,23.644629045198975],[57.889607851775999,23.644337701814234]],[[57.887024697965458,23.645466117739623],[57.886718134924678,23.645508253072109],[57.886727233092188,23.645591589558581],[57.887031574821499,23.645557331042337],[57.887024697965458,23.645466117739623]],[[57.887301820501676,23.645339944376293],[57.887198800771678,23.645353288797093],[57.887209447835147,23.645419686874341],[57.887307733300865,23.645406368633605],[57.887301820501676,23.645339944376293]],[[57.887962037221399,23.645023660866499],[57.887616323730533,23.645069070425677],[57.887642331615893,23.645266615871005],[57.887657647562747,23.645265409133273],[57.887925634195796,23.645240043941559],[57.887915608489855,23.645129635025814],[57.887968943760541,23.645124412603565],[57.887962037221399,23.645023660866499]]]},"properties":{"FID":18,"Governorat":"North Al Batinah","Wilayat":"Barka","Land_Cover":"Agricultural","Latitude":23.64433657,"Longitude":57.888231259999998,"Farm_ID":"F_019","Land_Cov_1":"LC_019","Shape_Leng":1141.2540685500001,"Shape_Area":39605.895970999998}},{"type":"Feature","id":19,"geometry":{"type":"Polygon","coordinates":[[[57.893135532834741,23.645849223712226],[57.892769538572004,23.643530567785426],[57.892825680232711,23.643519327625555],[57.89280535161371,23.643385398689553],[57.892748340832348,23.643396271727909],[57.892747701514637,23.643392211931129],[57.892666476652025,23.642927712562322],[57.893018002579481,23.642866178842169],[57.893156162756846,23.64336341426409],[57.893110890521804,23.643369378694715],[57.893118183556275,23.64340719142583],[57.893164583026937,23.643401478814077],[57.89317018745902,23.643415549029889],[57.893519796225867,23.643328093544103],[57.89347478732347,23.643208213419172],[57.893685132828971,23.643136920562679],[57.893676081823727,23.643084244167216],[57.893754005863016,23.643063605033753],[57.893779441420357,23.643141674264065],[57.894008958567689,23.643099679422278],[57.894044843456776,23.643216274679769],[57.894096829968404,23.643203460268481],[57.894375425570757,23.643220624805657],[57.894569786810948,23.643668983384792],[57.894678316780649,23.643647499755595],[57.894901646077408,23.644141836765591],[57.895162008947359,23.644858613451923],[57.895377355413565,23.64534238947228],[57.895168815118623,23.64546640277463],[57.894937443433818,23.645535816668556],[57.894449246221669,23.64566077539045],[57.894085293452179,23.645730952769703],[57.893507661036914,23.645809036289425],[57.893135532834741,23.645849223712226]],[[57.894628465055341,23.643672363318512],[57.894530139185342,23.64369600629745],[57.894577247380887,23.643842578746629],[57.89461136095241,23.643836088476451],[57.89467503940584,23.643824183671086],[57.894628465055341,23.643672363318512]],[[57.893177506170247,23.643439518330474],[57.893113992126047,23.643453107839317],[57.893134383128903,23.64351340334446],[57.893193136818482,23.643503211069287],[57.893177506170247,23.643439518330474]]]},"properties":{"FID":19,"Governorat":"North Al Batinah","Wilayat":"Barka","Land_Cover":"Agricultural","Latitude":23.64285267,"Longitude":57.893908539999998,"Farm_ID":"F_020","Land_Cov_1":"LC_020","Shape_Leng":1200.79174603,"Shape_Area":58095.350818300001}},{"type":"Feature","id":20,"geometry":{"type":"Polygon","coordinates":[[[57.892730307565301,23.643680626580817],[57.891481369367604,23.643826222017225],[57.891308219631227,23.642640717746062],[57.891246482076419,23.642216622823263],[57.891277457965977,23.642110071780007],[57.891392729485553,23.641964821082091],[57.891442538366981,23.641925235802294],[57.89147305074254,23.641911818643329],[57.892193523306887,23.641741389639275],[57.892419572748103,23.641686505955121],[57.892421472107294,23.641708242176701],[57.892730307565301,23.643680626580817]]]},"properties":{"FID":20,"Governorat":"North Al Batinah","Wilayat":"Barka","Land_Cover":"Agricultural","Latitude":23.6416848,"Longitude":57.89197463,"Farm_ID":"F_021","Land_Cov_1":"LC_021","Shape_Leng":673.29361176199995,"Shape_Area":27121.334982}},{"type":"Feature","id":21,"geometry":{"type":"Polygon","coordinates":[[[57.891426928643192,23.643831987582708],[57.890485480149152,23.643943469058247],[57.890108837933802,23.642155396450228],[57.890552463468232,23.642076359581026],[57.890584642634181,23.642120892928844],[57.890738566540442,23.642095037309499],[57.890772895871706,23.64225372677646],[57.890935431488991,23.642222037423821],[57.891189688551229,23.642177433485809],[57.89124738496006,23.642617932027189],[57.891305693445858,23.643003110757736],[57.891426928643192,23.643831987582708]]]},"properties":{"FID":21,"Governorat":"North Al Batinah","Wilayat":"Barka","Land_Cover":"Agricultural","Latitude":23.642071399999999,"Longitude":57.890785649999998,"Farm_ID":"F_022","Land_Cov_1":"LC_022","Shape_Leng":612.50716613500003,"Shape_Area":19919.019031700002}},{"type":"Feature","id":22,"geometry":{"type":"Polygon","coordinates":[[[57.890913184615378,23.646058979412096],[57.89053632874127,23.643974651619242],[57.891353710753634,23.643888527644286],[57.891407883866492,23.644202206850984],[57.891677480072339,23.644162639490947],[57.89186852229777,23.645326409447531],[57.891962832304579,23.645906673199672],[57.890913184615378,23.646058979412096]],[[57.891594183087157,23.644931526694958],[57.891335639532457,23.644976443263843],[57.891394915688771,23.645191616756765],[57.891628579023973,23.645150122652847],[57.891594183087157,23.644931526694958]]]},"properties":{"FID":22,"Governorat":"North Al Batinah","Wilayat":"Barka","Land_Cover":"Agricultural","Latitude":23.643885099999999,"Longitude":57.891240969999998,"Farm_ID":"F_023","Land_Cov_1":"LC_023","Shape_Leng":784.69083847700006,"Shape_Area":23926.559785599999}},{"type":"Feature","id":23,"geometry":{"type":"Polygon","coordinates":[[[57.891751999302073,23.644616587966439],[57.89164978098092,23.643996623386261],[57.891701150993136,23.64430685121777],[57.891982806106789,23.644261444364261],[57.89194517220151,23.64395846706357],[57.89164978098092,23.643996623386261],[57.891627688285411,23.643862631261221],[57.892364903855302,23.643788335961698],[57.892733275541275,23.643750760700648],[57.892750555764636,23.643769029505716],[57.892860647383813,23.644500908944796],[57.891751999302073,23.644616587966439]]]},"properties":{"FID":23,"Governorat":"North Al Batinah","Wilayat":"Barka","Land_Cover":"Agricultural","Latitude":23.643750059999999,"Longitude":57.892297069999998,"Farm_ID":"F_024","Land_Cov_1":"LC_024","Shape_Leng":524.27824721900004,"Shape_Area":8602.8199600600001}},{"type":"Feature","id":24,"geometry":{"type":"Polygon","coordinates":[[[57.878230609765737,23.648969883506552],[57.87715066329303,23.645755085248762],[57.877178437463627,23.645748093629717],[57.877183612500346,23.645759170979723],[57.877231759518558,23.64574533075611],[57.877872533808883,23.645532293315828],[57.878307578988768,23.645408942956028],[57.878569918880252,23.64531249452871],[57.878654083387488,23.645288046757287],[57.878386906889716,23.644489800426719],[57.878315918474591,23.644274618212375],[57.879974563688165,23.643956109468004],[57.880194997883464,23.643914277708799],[57.880467006312344,23.645361027987423],[57.881102631252553,23.648424308543888],[57.878238792655715,23.648997496673644],[57.878230609765737,23.648969883506552]],[[57.878754478110721,23.646298826284021],[57.878617546494944,23.646338935626606],[57.878698780635737,23.646568709411405],[57.878832878811401,23.646530187616786],[57.878754478110721,23.646298826284021]]]},"properties":{"FID":24,"Governorat":"North Al Batinah","Wilayat":"Barka","Land_Cover":"Agricultural","Latitude":23.64390929,"Longitude":57.879241350000001,"Farm_ID":"F_025","Land_Cov_1":"LC_025","Shape_Leng":1741.4288370199999,"Shape_Area":145749.378616}},{"type":"Feature","id":25,"geometry":{"type":"Polygon","coordinates":[[[57.882225294886801,23.639765953919465],[57.882342749852164,23.640534443545224],[57.882489758025585,23.641561667305041],[57.882520328854838,23.641625995191639],[57.882747525715047,23.643146253840321],[57.882758807386494,23.643235569127736],[57.88259020031019,23.643272342443357],[57.882180252158335,23.643364656203868],[57.882143944279278,23.643372088333344],[57.882100080149783,23.643382710177899],[57.882008545581677,23.643403321565039],[57.881903342127195,23.643424970735797],[57.881859830341632,23.643264468902338],[57.881751975110788,23.642865291758234],[57.881687686149789,23.642612777322306],[57.881638414891498,23.642313510146533],[57.881486903163179,23.641988743393966],[57.881365209115671,23.641734973565281],[57.881239867917905,23.641436755401678],[57.881177873422153,23.641266909975549],[57.881041047680348,23.640910092356624],[57.880994566413165,23.640837636338642],[57.880963444372469,23.640811218471612],[57.880877051668627,23.640785988845348],[57.880737312522015,23.640753254899685],[57.88066044848474,23.640575069546188],[57.88054065149575,23.640341664331029],[57.880585878290354,23.640240597081625],[57.880756415584571,23.640071538984607],[57.882225294886801,23.639765953919465]]]},"properties":{"FID":25,"Governorat":"North Al Batinah","Wilayat":"Barka","Land_Cover":"Agricultural","Latitude":23.639763049999999,"Longitude":57.88183849,"Farm_ID":"F_026","Land_Cov_1":"LC_026","Shape_Leng":1049.78724238,"Shape_Area":47846.295058199998}},{"type":"Feature","id":26,"geometry":{"type":"Polygon","coordinates":[[[57.881903342127195,23.643424970735797],[57.880765697075994,23.643711711440492],[57.880679839837967,23.643670525536709],[57.880423297467097,23.643010234612714],[57.880559833247041,23.642765474029986],[57.881639794341567,23.642460013608854],[57.881663049999524,23.642463143741423],[57.881903342127195,23.643424970735797]]]},"properties":{"FID":26,"Governorat":"North Al Batinah","Wilayat":"Barka","Land_Cover":"Agricultural","Latitude":23.642458550000001,"Longitude":57.881168819999999,"Farm_ID":"F_027","Land_Cov_1":"LC_027","Shape_Leng":465.20131413799999,"Shape_Area":14147.550293800001}},{"type":"Feature","id":27,"geometry":{"type":"Polygon","coordinates":[[[57.890705744025183,23.63166082834007],[57.888914039735575,23.632138800279073],[57.88741104977619,23.632483968742143],[57.887275466198759,23.631885645032483],[57.886993712945369,23.630471462685058],[57.886867014500673,23.629810574511115],[57.889740712903944,23.629094284262717],[57.889990953647555,23.629650392876293],[57.890705744025183,23.63166082834007]]]},"properties":{"FID":27,"Governorat":"North Al Batinah","Wilayat":"Barka","Land_Cover":"Agricultural","Latitude":23.629088849999999,"Longitude":57.88869631,"Farm_ID":"F_028","Land_Cov_1":"LC_028","Shape_Leng":1254.0339881299999,"Shape_Area":99233.594664799995}},{"type":"Feature","id":28,"geometry":{"type":"Polygon","coordinates":[[[57.886881122843562,23.629650844539182],[57.886809331366514,23.629608289796327],[57.886558895109012,23.6287565582006],[57.886600359454704,23.62867871121545],[57.886773837234379,23.628608999885465],[57.88767129943276,23.628223717691117],[57.888662432671147,23.627794578325283],[57.88909491180403,23.627603091875041],[57.88916731629778,23.627633704496954],[57.88926774944219,23.627889929751966],[57.889455117850282,23.628382153509222],[57.889658391335125,23.628908932438126],[57.889622317232941,23.628973534599364],[57.886881122843562,23.629650844539182]]]},"properties":{"FID":28,"Governorat":"North Al Batinah","Wilayat":"Barka","Land_Cover":"Agricultural","Latitude":23.627599910000001,"Longitude":57.888138550000001,"Farm_ID":"F_029","Land_Cov_1":"LC_029","Shape_Leng":852.483560539,"Shape_Area":40038.926747199999}},{"type":"Feature","id":29,"geometry":{"type":"Polygon","coordinates":[[[57.887664626620769,23.634834269353803],[57.88741588572563,23.632723388751462],[57.888624491301861,23.632474184420541],[57.889925558971562,23.632207895588483],[57.890531450983381,23.632092367827802],[57.890808069224988,23.632041468627396],[57.890831220197001,23.63215254004151],[57.890900712189826,23.632481060107573],[57.890925578506021,23.632604531575907],[57.890992646597901,23.632904650005703],[57.891098384760696,23.633391388829065],[57.89112001670324,23.633499994135704],[57.891199887211769,23.633882544114432],[57.89120925542796,23.633945845045563],[57.891196671579181,23.63394929620506],[57.891202593159967,23.633971211677274],[57.891224232867621,23.634046320948226],[57.890507482131881,23.634241136666169],[57.889966049710537,23.634385223221912],[57.889627730468526,23.634461430261759],[57.888836710443513,23.634619777725462],[57.887985609160054,23.634798403247292],[57.887664626620769,23.634834269353803]]]},"properties":{"FID":29,"Governorat":"North Al Batinah","Wilayat":"Barka","Land_Cover":"Agricultural","Latitude":23.632039160000001,"Longitude":57.889274929999999,"Farm_ID":"F_030","Land_Cov_1":"LC_030","Shape_Leng":1190.35962612,"Shape_Area":85487.906682600005}},{"type":"Feature","id":30,"geometry":{"type":"Polygon","coordinates":[[[57.901858083764836,23.636131653423824],[57.901596064203325,23.636113976602001],[57.90160238402671,23.636044756932975],[57.899097316861095,23.636061743258587],[57.898467975341894,23.635207991015907],[57.898404023620728,23.63511899113384],[57.898272776320638,23.634939101290406],[57.898226587551356,23.634875499284924],[57.898207862031697,23.634850944154827],[57.898199476831941,23.634593968487785],[57.898195327788024,23.634451672341235],[57.899818892094778,23.634417956548667],[57.900577687915167,23.634406232476969],[57.902424266976936,23.634390275362559],[57.902641107865925,23.634388638837219],[57.902358928437039,23.635152577274049],[57.902029974395134,23.636041755999475],[57.901857314039724,23.636040185924109],[57.901858083764836,23.636131653423824]]]},"properties":{"FID":30,"Governorat":"North Al Batinah","Wilayat":"Barka","Land_Cover":"Agricultural","Latitude":23.634388640000001,"Longitude":57.90043988,"Farm_ID":"F_031","Land_Cov_1":"LC_031","Shape_Leng":1170.7938677499999,"Shape_Area":70547.861460900007}},{"type":"Feature","id":31,"geometry":{"type":"Polygon","coordinates":[[[57.900180315184024,23.637480666631848],[57.900190146031555,23.638211780302179],[57.900190962319755,23.638377595846951],[57.8982159886556,23.638387846959308],[57.898205317432001,23.63749145030307],[57.899770901329013,23.637477710751188],[57.900180315184024,23.637480666631848]]]},"properties":{"FID":31,"Governorat":"North Al Batinah","Wilayat":"Barka","Land_Cover":"Agricultural","Latitude":23.637475309999999,"Longitude":57.899199070000002,"Farm_ID":"F_032","Land_Cov_1":"LC_032","Shape_Leng":601.49526684399996,"Shape_Area":20065.402002999999}},{"type":"Feature","id":32,"geometry":{"type":"Polygon","coordinates":[[[57.898207713516712,23.637435567466078],[57.898199404842288,23.636561227503634],[57.899914068634132,23.636560777355363],[57.900175599916174,23.636558407095904],[57.900179683375228,23.636871281824742],[57.900182620519544,23.637387406484851],[57.900181806711323,23.637441727556141],[57.899747492594834,23.637439197022498],[57.898427114190639,23.637432164266965],[57.898207713516712,23.637435567466078]]]},"properties":{"FID":32,"Governorat":"North Al Batinah","Wilayat":"Barka","Land_Cover":"Agricultural","Latitude":23.636549760000001,"Longitude":57.899193750000002,"Farm_ID":"F_033","Land_Cov_1":"LC_033","Shape_Leng":597.57262298399996,"Shape_Area":19547.371431600001}},{"type":"Feature","id":33,"geometry":{"type":"Polygon","coordinates":[[[57.899740464589691,23.644217175596179],[57.900095661509297,23.642209215014208],[57.900195709438236,23.642223374409696],[57.900209522067236,23.64214421412364],[57.900110098603655,23.642127601647129],[57.90020311947233,23.641601738417442],[57.900242646502079,23.641511054020064],[57.900392804791444,23.641170348054153],[57.900522216467067,23.64087223243973],[57.900591714101822,23.640714126561129],[57.901661397192122,23.640781181742412],[57.901888497233919,23.640793932957358],[57.901828814925715,23.641106578477707],[57.901573674707564,23.642502799129602],[57.901512878501755,23.642840240948232],[57.901405763863977,23.643422784464949],[57.901330643181709,23.643831821669281],[57.901320059197822,23.64388701777532],[57.900011466489964,23.644159649109017],[57.899740464589691,23.644217175596179]]]},"properties":{"FID":33,"Governorat":"North Al Batinah","Wilayat":"Barka","Land_Cover":"Agricultural","Latitude":23.640706590000001,"Longitude":57.900821649999997,"Farm_ID":"F_034","Land_Cov_1":"LC_034","Shape_Leng":1064.84931248,"Shape_Area":55849.708444900003}},{"type":"Feature","id":34,"geometry":{"type":"Polygon","coordinates":[[[57.877085356180061,23.645562617377134],[57.876857013520741,23.644871950680205],[57.877161079199588,23.64477502480737],[57.877346370721177,23.645313956204635],[57.877391905461693,23.64546727202487],[57.877085356180061,23.645562617377134]]]},"properties":{"FID":34,"Governorat":"North Al Batinah","Wilayat":"Barka","Land_Cover":"Agricultural","Latitude":23.644773749999999,"Longitude":57.877125470000003,"Farm_ID":"F_035","Land_Cov_1":"LC_035","Shape_Leng":225.94920830999999,"Shape_Area":2655.1715536400002}},{"type":"Feature","id":35,"geometry":{"type":"Polygon","coordinates":[[[57.883105180270199,23.63045712812087],[57.882955418268857,23.630488307283862],[57.8829333622541,23.630474443170176],[57.882910265247503,23.630345670090168],[57.882922880616093,23.630326612149727],[57.882994095320278,23.630312217178432],[57.882997452026274,23.630327436842837],[57.883051352338526,23.630318886545961],[57.88305310257897,23.630337362352972],[57.883137324071896,23.6303216441544],[57.883159788582766,23.630452110681343],[57.883152626065147,23.630460542173267],[57.883147880277093,23.630463600435935],[57.883142675830776,23.630465941165138],[57.883137139481875,23.630467507351792],[57.883131406069651,23.630468260850986],[57.883125615232935,23.630468183311038],[57.883119908009157,23.63046727662045],[57.883115669975552,23.630465497573937],[57.883111750622732,23.630463179884181],[57.883108230066348,23.63046037092716],[57.883105180270199,23.63045712812087]]]},"properties":{"FID":35,"Governorat":"North Al Batinah","Wilayat":"Barka","Land_Cover":"Residential","Latitude":23.630311280000001,"Longitude":57.883031000000003,"Farm_ID":"F_036","Land_Cov_1":"LC_036","Shape_Leng":82.125740580699997,"Shape_Area":381.06959935499998}},{"type":"Feature","id":36,"geometry":{"type":"Polygon","coordinates":[[[57.898619395535796,23.637029878028443],[57.898618475844891,23.636955898103299],[57.898817888342677,23.636955124672912],[57.898815902139646,23.637028930859781],[57.898759460544866,23.637029066455383],[57.898758720315136,23.637133453036746],[57.898658282290178,23.637133079434321],[57.898661316542807,23.637030400147012],[57.898619395535796,23.637029878028443]]]},"properties":{"FID":36,"Governorat":"North Al Batinah","Wilayat":"Barka","Land_Cover":"Residential","Latitude":23.63695474,"Longitude":57.89871437,"Farm_ID":"F_037","Land_Cov_1":"LC_037","Shape_Leng":79.9171584411,"Shape_Area":281.746158482}},{"type":"Feature","id":37,"geometry":{"type":"Polygon","coordinates":[[[57.898853864491954,23.636935989724769],[57.898799510038437,23.636937834728766],[57.898798978140249,23.636829631387968],[57.898855432376763,23.636831216294077],[57.898853864491954,23.636935989724769]]]},"properties":{"FID":37,"Governorat":"North Al Batinah","Wilayat":"Barka","Land_Cover":"Residential","Latitude":23.636829299999999,"Longitude":57.898826800000002,"Farm_ID":"F_038","Land_Cov_1":"LC_038","Shape_Leng":34.891534024800002,"Shape_Area":66.633023328500002}},{"type":"Feature","id":38,"geometry":{"type":"Polygon","coordinates":[[[57.884728015859828,23.644198541177417],[57.884749304896928,23.644294378965068],[57.884552773913413,23.644349269308311],[57.884524385136523,23.644263254516197],[57.88455215219502,23.644256773744925],[57.884552123122525,23.644252448500531],[57.884661731579769,23.64422420705932],[57.884663566521368,23.644228522000926],[57.884693861978633,23.644222027682929],[57.884691237390328,23.644207735114254],[57.884728015859828,23.644198541177417]]]},"properties":{"FID":38,"Governorat":"North Al Batinah","Wilayat":"Barka","Land_Cover":"Residential","Latitude":23.644198419999999,"Longitude":57.884639380000003,"Farm_ID":"F_039","Land_Cov_1":"LC_039","Shape_Leng":65.919397886799999,"Shape_Area":216.98362892899999}},{"type":"Feature","id":39,"geometry":{"type":"Polygon","coordinates":[[[57.889469026091561,23.628417092561691],[57.889660469528856,23.628906892841467],[57.889620752230734,23.628973905755888],[57.889342774086415,23.62903986952622],[57.889147955883637,23.628537356701006],[57.889166595800937,23.628527257792186],[57.889145922186742,23.628477162985138],[57.889318530790021,23.628420964766036],[57.889338692733844,23.628475558601565],[57.889361156179753,23.628469434402831],[57.889357794716048,23.628453465262282],[57.889469026091561,23.628417092561691]]]},"properties":{"FID":39,"Governorat":"North Al Batinah","Wilayat":"Barka","Land_Cover":"Residential","Latitude":23.628416009999999,"Longitude":57.889402089999997,"Farm_ID":"F_040","Land_Cov_1":"LC_040","Shape_Leng":203.88785334900001,"Shape_Area":2265.43370241}},{"type":"Feature","id":40,"geometry":{"type":"Polygon","coordinates":[[[57.889342774086415,23.62903986952622],[57.889620752230734,23.628973905755888],[57.889620104763388,23.62897499782207],[57.889342774086415,23.62903986952622]]]},"properties":{"FID":40,"Governorat":"North Al Batinah","Wilayat":"Barka","Land_Cover":"Residential","Latitude":23.628973909999999,"Longitude":57.889527880000003,"Farm_ID":"F_041","Land_Cov_1":"LC_041","Shape_Leng":58.608300343499998,"Shape_Area":1.4731639704899999}},{"type":"Feature","id":41,"geometry":{"type":"Polygon","coordinates":[[[57.891407883866492,23.644202206850984],[57.891353710753634,23.643888527644286],[57.891627688285411,23.643862631261221],[57.891677480072339,23.644162639490947],[57.891407883866492,23.644202206850984]]]},"properties":{"FID":41,"Governorat":"North Al Batinah","Wilayat":"Barka","Land_Cover":"Residential","Latitude":23.64386236,"Longitude":57.891515630000001,"Farm_ID":"F_042","Land_Cov_1":"LC_042","Shape_Leng":124.708008768,"Shape_Area":961.03887626300002}},{"type":"Feature","id":42,"geometry":{"type":"Polygon","coordinates":[[[57.891700890501667,23.644306606143292],[57.89164978098092,23.643996623386261],[57.89194517220151,23.64395846706357],[57.891982806106789,23.644261444364261],[57.891700890501667,23.644306606143292]]]},"properties":{"FID":42,"Governorat":"North Al Batinah","Wilayat":"Barka","Land_Cover":"Residential","Latitude":23.643958260000002,"Longitude":57.891818819999997,"Farm_ID":"F_043","Land_Cov_1":"LC_043","Shape_Leng":128.09070726799999,"Shape_Area":1019.96045071}},{"type":"Feature","id":43,"geometry":{"type":"Polygon","coordinates":[[[57.89467503940584,23.643824183671086],[57.894577247380887,23.643842578746629],[57.894530139185342,23.64369600629745],[57.894628465055341,23.643672363318512],[57.89467503940584,23.643824183671086]]]},"properties":{"FID":43,"Governorat":"North Al Batinah","Wilayat":"Barka","Land_Cover":"Residential","Latitude":23.6436721,"Longitude":57.894602900000002,"Farm_ID":"F_044","Land_Cov_1":"LC_044","Shape_Leng":54.9386591158,"Shape_Area":176.34214324999999}},{"type":"Feature","id":44,"geometry":{"type":"Polygon","coordinates":[[[57.891221972331522,23.642172663329116],[57.891189688551229,23.642177433485809],[57.891123546695731,23.64218903669369],[57.890772895871706,23.64225372677646],[57.890753788040691,23.642165401888377],[57.890108837933802,23.642155396450228],[57.890061666652301,23.641923135701258],[57.89114193728895,23.641723542952118],[57.891221972331522,23.642172663329116]]]},"properties":{"FID":44,"Governorat":"North Al Batinah","Wilayat":"Barka","Land_Cover":"Residential","Latitude":23.6417231,"Longitude":57.890702849999997,"Farm_ID":"F_045","Land_Cov_1":"LC_045","Shape_Leng":311.38326185699998,"Shape_Area":4514.0148919399999}},{"type":"Feature","id":45,"geometry":{"type":"Polygon","coordinates":[[[57.885544767299756,23.63360104435889],[57.885464525410129,23.633241714391801],[57.885807226513414,23.633157812429122],[57.885842267599614,23.633408567692925],[57.885544767299756,23.63360104435889]]]},"properties":{"FID":45,"Governorat":"North Al Batinah","Wilayat":"Barka","Land_Cover":"Residential","Latitude":23.633157619999999,"Longitude":57.885654000000002,"Farm_ID":"F_046","Land_Cov_1":"LC_046","Shape_Leng":141.86479365299999,"Shape_Area":1192.78310526}},{"type":"Feature","id":46,"geometry":{"type":"Polygon","coordinates":[[[57.882937553383258,23.630498168928824],[57.882905071178982,23.63032266266196],[57.883135904473207,23.630282015357214],[57.883174130650488,23.630464829165344],[57.882937553383258,23.630498168928824]]]},"properties":{"FID":46,"Governorat":"North Al Batinah","Wilayat":"Barka","Land_Cover":"Residential","Latitude":23.630281799999999,"Longitude":57.883039080000003,"Farm_ID":"F_047","Land_Cov_1":"LC_047","Shape_Leng":88.713065127899995,"Shape_Area":487.67905808699999}},{"type":"Feature","id":47,"geometry":{"type":"Polygon","coordinates":[[[57.883898531916721,23.632273587294858],[57.883874094572519,23.632171703047508],[57.883940497718136,23.632157747800353],[57.883933493924317,23.632130101064615],[57.884024020994275,23.632110739960876],[57.884047537360907,23.632190640162818],[57.884027367691367,23.632195408385801],[57.884038038359741,23.632244580920769],[57.884036685388345,23.632243979875494],[57.883898531916721,23.632273587294858]]]},"properties":{"FID":47,"Governorat":"North Al Batinah","Wilayat":"Barka","Land_Cover":"Residential","Latitude":23.632110610000002,"Longitude":57.883964280000001,"Farm_ID":"F_048","Land_Cov_1":"LC_048","Shape_Leng":62.5882934021,"Shape_Area":211.13279851199999}},{"type":"Feature","id":48,"geometry":{"type":"Polygon","coordinates":[[[57.882237202367833,23.632227003899331],[57.882227931337532,23.632229339912442],[57.8822035061877,23.632150152684492],[57.882384237834692,23.63210769412029],[57.882405545908746,23.63218458234422],[57.882237202367833,23.632227003899331]]]},"properties":{"FID":48,"Governorat":"North Al Batinah","Wilayat":"Barka","Land_Cover":"Residential","Latitude":23.63210758,"Longitude":57.882304730000001,"Farm_ID":"F_049","Land_Cov_1":"LC_049","Shape_Leng":55.7105673043,"Shape_Area":169.18282412600001}},{"type":"Feature","id":49,"geometry":{"type":"Polygon","coordinates":[[[57.88248437722919,23.632110851071293],[57.882476430930609,23.632080611121253],[57.88251207292992,23.632071706940639],[57.88251813915079,23.632102998972702],[57.88248437722919,23.632110851071293]]]},"properties":{"FID":49,"Governorat":"North Al Batinah","Wilayat":"Barka","Land_Cover":"Residential","Latitude":23.632071669999998,"Longitude":57.882497770000001,"Farm_ID":"F_050","Land_Cov_1":"LC_050","Shape_Leng":14.2834635387,"Shape_Area":12.721258149500001}},{"type":"Feature","id":50,"geometry":{"type":"Polygon","coordinates":[[[57.882564818784438,23.632124822931534],[57.882547306166458,23.63206046850253],[57.882611479955187,23.632047362867539],[57.882629795493429,23.632109962321241],[57.882564818784438,23.632124822931534]]]},"properties":{"FID":50,"Governorat":"North Al Batinah","Wilayat":"Barka","Land_Cover":"Residential","Latitude":23.63204726,"Longitude":57.882588249999998,"Farm_ID":"F_051","Land_Cov_1":"LC_051","Shape_Leng":28.058722572299999,"Shape_Area":49.125102977200001}},{"type":"Feature","id":51,"geometry":{"type":"Polygon","coordinates":[[[57.886188692368833,23.635808290322757],[57.887064174731499,23.635612092483665],[57.887195343223517,23.636192219273678],[57.88632027900556,23.636389903105005],[57.886188692368833,23.635808290322757]]]},"properties":{"FID":51,"Governorat":"North Al Batinah","Wilayat":"Barka","Land_Cover":"Residential","Latitude":23.635611359999999,"Longitude":57.886691929999998,"Farm_ID":"F_052","Land_Cov_1":"LC_052","Shape_Leng":315.20407194000001,"Shape_Area":6034.3246878800001}},{"type":"Feature","id":52,"geometry":{"type":"Polygon","coordinates":[[[57.884255678031884,23.643688331476362],[57.88423025560261,23.643547924525201],[57.884431014357034,23.6435184598818],[57.884454734666022,23.643659402164552],[57.884255678031884,23.643688331476362]]]},"properties":{"FID":52,"Governorat":"North Al Batinah","Wilayat":"Barka","Land_Cover":"Residential","Latitude":23.643518329999999,"Longitude":57.884342940000003,"Farm_ID":"F_053","Land_Cov_1":"LC_053","Shape_Leng":72.842490779499997,"Shape_Area":325.69354878000001}},{"type":"Feature","id":53,"geometry":{"type":"Polygon","coordinates":[[[57.884721894290657,23.645970678109055],[57.884649691426858,23.645776890120935],[57.884834639719777,23.645720399313198],[57.884898652458453,23.645927189405327],[57.884721894290657,23.645970678109055]]]},"properties":{"FID":53,"Governorat":"North Al Batinah","Wilayat":"Barka","Land_Cover":"Residential","Latitude":23.64572004,"Longitude":57.884776600000002,"Farm_ID":"F_054","Land_Cov_1":"LC_054","Shape_Leng":85.028483497500005,"Shape_Area":447.52202991799999}},{"type":"Feature","id":54,"geometry":{"type":"Polygon","coordinates":[[[57.878698780635737,23.646568709411405],[57.878617546494944,23.646338935626606],[57.878754478110721,23.646298826284021],[57.878832878811401,23.646530187616786],[57.878698780635737,23.646568709411405]]]},"properties":{"FID":54,"Governorat":"North Al Batinah","Wilayat":"Barka","Land_Cover":"Residential","Latitude":23.646298389999998,"Longitude":57.878725799999998,"Farm_ID":"F_055","Land_Cov_1":"LC_055","Shape_Leng":82.574085939,"Shape_Area":388.29546990599999}},{"type":"Feature","id":55,"geometry":{"type":"Polygon","coordinates":[[[57.887031574821499,23.645557331042337],[57.886727233092188,23.645591589558581],[57.886718134924678,23.645508253072109],[57.887024697965458,23.645466117739623],[57.887031574821499,23.645557331042337]]]},"properties":{"FID":55,"Governorat":"North Al Batinah","Wilayat":"Barka","Land_Cover":"Residential","Latitude":23.645466079999998,"Longitude":57.886877599999998,"Farm_ID":"F_056","Land_Cov_1":"LC_056","Shape_Leng":82.2851085259,"Shape_Area":304.50398758400001}},{"type":"Feature","id":56,"geometry":{"type":"Polygon","coordinates":[[[57.887209447835147,23.645419686874341],[57.887198800771678,23.645353288797093],[57.887301820501676,23.645339944376293],[57.887307733300865,23.645406368633605],[57.887209447835147,23.645419686874341]]]},"properties":{"FID":56,"Governorat":"North Al Batinah","Wilayat":"Barka","Land_Cover":"Residential","Latitude":23.645339910000001,"Longitude":57.887254339999998,"Farm_ID":"F_057","Land_Cov_1":"LC_057","Shape_Leng":35.554553968900002,"Shape_Area":76.735742501199994}},{"type":"Feature","id":57,"geometry":{"type":"Polygon","coordinates":[[[57.891394915688771,23.645191616756765],[57.891335639532457,23.644976443263843],[57.891594183087157,23.644931526694958],[57.891628579023973,23.645150122652847],[57.891394915688771,23.645191616756765]]]},"properties":{"FID":57,"Governorat":"North Al Batinah","Wilayat":"Barka","Land_Cover":"Residential","Latitude":23.644931339999999,"Longitude":57.891487849999997,"Farm_ID":"F_058","Land_Cov_1":"LC_058","Shape_Leng":100.143150722,"Shape_Area":625.64414131399997}},{"type":"Feature","id":58,"geometry":{"type":"Polygon","coordinates":[[[57.887642331615893,23.645266615871005],[57.887616323730533,23.645069070425677],[57.887962037221399,23.645023660866499],[57.887968943760541,23.645124412603565],[57.887915608489855,23.645129635025814],[57.887925634195796,23.645240043941559],[57.887642331615893,23.645266615871005]]]},"properties":{"FID":58,"Governorat":"North Al Batinah","Wilayat":"Barka","Land_Cover":"Residential","Latitude":23.645023630000001,"Longitude":57.887787869999997,"Farm_ID":"F_059","Land_Cov_1":"LC_059","Shape_Leng":115.61252990600001,"Shape_Area":728.58917528899997}},{"type":"Feature","id":59,"geometry":{"type":"Polygon","coordinates":[[[57.886709177222087,23.646103992146575],[57.886659685313795,23.645778995298524],[57.887301710828034,23.645680350680664],[57.88735602833993,23.645989840695986],[57.886709177222087,23.646103992146575]]]},"properties":{"FID":59,"Governorat":"North Al Batinah","Wilayat":"Barka","Land_Cover":"Residential","Latitude":23.645680049999999,"Longitude":57.887004269999998,"Farm_ID":"F_060","Land_Cov_1":"LC_060","Shape_Leng":204.614510932,"Shape_Area":2371.1913691899999}},{"type":"Feature","id":60,"geometry":{"type":"Polygon","coordinates":[[[57.885305328014823,23.646038043948341],[57.885287022070763,23.645959456556366],[57.885357239913027,23.645940540102551],[57.885372858722924,23.646021633845425],[57.885305328014823,23.646038043948341]]]},"properties":{"FID":60,"Governorat":"North Al Batinah","Wilayat":"Barka","Land_Cover":"Residential","Latitude":23.645940450000001,"Longitude":57.885330670000002,"Farm_ID":"F_061","Land_Cov_1":"LC_061","Shape_Leng":32.603802234500002,"Shape_Area":65.484309634699997}},{"type":"Feature","id":61,"geometry":{"type":"Polygon","coordinates":[[[57.885332150890385,23.646118361101298],[57.885316669603881,23.646057560494889],[57.885366074314817,23.646047308917488],[57.885383096468054,23.646107030432006],[57.885332150890385,23.646118361101298]]]},"properties":{"FID":61,"Governorat":"North Al Batinah","Wilayat":"Barka","Land_Cover":"Residential","Latitude":23.646047209999999,"Longitude":57.885349499999997,"Farm_ID":"F_062","Land_Cov_1":"LC_062","Shape_Leng":24.262097316599998,"Shape_Area":36.126644923299999}},{"type":"Feature","id":62,"geometry":{"type":"Polygon","coordinates":[[[57.885020872778846,23.646019683684806],[57.884993472911496,23.645917977551296],[57.88506113521418,23.645900727763681],[57.88508633624172,23.646006548754965],[57.885020872778846,23.646019683684806]]]},"properties":{"FID":62,"Governorat":"North Al Batinah","Wilayat":"Barka","Land_Cover":"Residential","Latitude":23.64590059,"Longitude":57.885040539999999,"Farm_ID":"F_063","Land_Cov_1":"LC_063","Shape_Leng":37.592116251900002,"Shape_Area":82.512116706800001}},{"type":"Feature","id":63,"geometry":{"type":"Polygon","coordinates":[[[57.884500026688968,23.644809256788321],[57.88477065932689,23.645463998206779],[57.88394807693637,23.64566194857235],[57.883665722125322,23.645171478181286],[57.883471952058748,23.644818470376467],[57.88341458616226,23.644711237275853],[57.884317341291855,23.644388652088796],[57.884500026688968,23.644809256788321]]]},"properties":{"FID":63,"Governorat":"North Al Batinah","Wilayat":"Barka","Land_Cover":"Residential","Latitude":23.644386109999999,"Longitude":57.884112600000002,"Farm_ID":"F_064","Land_Cov_1":"LC_064","Shape_Leng":431.71427774,"Shape_Area":11393.407227600001}},{"type":"Feature","id":64,"geometry":{"type":"Polygon","coordinates":[[[57.893164583026937,23.643401478814077],[57.893118183556275,23.64340719142583],[57.893110890521804,23.643369378694715],[57.893157304058995,23.643365740644761],[57.893164583026937,23.643401478814077]]]},"properties":{"FID":64,"Governorat":"North Al Batinah","Wilayat":"Barka","Land_Cover":"Residential","Latitude":23.6433657,"Longitude":57.893137529999997,"Farm_ID":"F_065","Land_Cov_1":"LC_065","Shape_Leng":17.804288529600001,"Shape_Area":19.6583128943}},{"type":"Feature","id":65,"geometry":{"type":"Polygon","coordinates":[[[57.893134383128903,23.64351340334446],[57.893113992126047,23.643453107839317],[57.893180315548889,23.643438724497269],[57.893193136818482,23.643503211069287],[57.893134383128903,23.64351340334446]]]},"properties":{"FID":65,"Governorat":"North Al Batinah","Wilayat":"Barka","Land_Cover":"Residential","Latitude":23.64343865,"Longitude":57.893155489999998,"Farm_ID":"F_066","Land_Cov_1":"LC_066","Shape_Leng":27.299239744200001,"Shape_Area":46.369678677000003}},{"type":"Feature","id":66,"geometry":{"type":"Polygon","coordinates":[[[57.892748340832348,23.643396271727909],[57.89280535161371,23.643385398689553],[57.892818239668735,23.643470307070451],[57.892825680232711,23.643519327625555],[57.892769538572004,23.643530567785426],[57.892748340832348,23.643396271727909]]]},"properties":{"FID":66,"Governorat":"North Al Batinah","Wilayat":"Barka","Land_Cover":"Residential","Latitude":23.643385290000001,"Longitude":57.89278719,"Farm_ID":"F_067","Land_Cov_1":"LC_067","Shape_Leng":41.797063229999999,"Shape_Area":88.282498898300005}},{"type":"Feature","id":67,"geometry":{"type":"Polygon","coordinates":[[[57.882384129859744,23.63953918218651],[57.882356765752242,23.639409227705062],[57.8824712448748,23.639398339503732],[57.882500469786464,23.639411153064373],[57.882517301940275,23.639518909944435],[57.882384129859744,23.63953918218651]]]},"properties":{"FID":67,"Governorat":"North Al Batinah","Wilayat":"Barka","Land_Cover":"Residential","Latitude":23.639398079999999,"Longitude":57.882437660000001,"Farm_ID":"F_070","Land_Cov_1":"LC_070","Shape_Leng":55.519222603499998,"Shape_Area":198.19803519999999}},{"type":"Feature","id":68,"geometry":{"type":"Polygon","coordinates":[[[57.882472691408545,23.639900717002263],[57.882457841369146,23.639787226183049],[57.882597671838653,23.63977197569384],[57.88261281685655,23.63988162984047],[57.882472691408545,23.639900717002263]]]},"properties":{"FID":68,"Governorat":"North Al Batinah","Wilayat":"Barka","Land_Cover":"Residential","Latitude":23.639771889999999,"Longitude":57.882534870000001,"Farm_ID":"F_072","Land_Cov_1":"LC_072","Shape_Leng":53.706581574099999,"Shape_Area":179.28923069300001}}]}