{"type": "FeatureCollection", "features": [{"type": "Feature", "geometry": {"type": "Polygon", "coordinates": [[[57.88011190634231, 23.643648044974217], [57.881096544069365, 23.648419250911772], [57.87823713740875, 23.64899261433239], [57.87715366668655, 23.645757046262332], [57.87718278674763, 23.645747958835027], [57.87718953358637, 23.64576420893986], [57.878649724779315, 23.645290159648933], [57.87831864556644, 23.644284247113717], [57.88008954977783, 23.643924376960282], [57.87999814263714, 23.643682497310838], [57.88011190634231, 23.643648044974217]]]}, "properties": {"Farm_ID": "B22", "Governorate": "Al Batinah South", "Wilayat": "Barka", "Farm_Area": 14.58327236007493, "Shape_Area": 145832.7236007493, "Latitude": 23.6466093, "Longitude": 57.87923944}}, {"type": "Feature", "geometry": {"type": "Polygon", "coordinates": [[[57.88179338858585, 23.64319744019866], [57.881527973706966, 23.643445930417414], [57.881321120179656, 23.6435351471845], [57.880754474675285, 23.643687019437646], [57.88053471919454, 23.6430357061908], [57.880645513033855, 23.642872834715696], [57.88162633042895, 23.642563491834046], [57.88179338858585, 23.64319744019866]]]}, "properties": {"Farm_ID": "B16", "Governorate": "Al Batinah South", "Wilayat": "Barka", "Farm_Area": 1.0322102861712175, "Shape_Area": 10322.102861712174, "Latitude": 23.64312785, "Longitude": 57.88116882}}, {"type": "Feature", "geometry": {"type": "Polygon", "coordinates": [[[57.88190231152052, 23.643425527547517], [57.88172785124939, 23.642554928557203], [57.88097644424142, 23.640818808258008], [57.8807513314001, 23.64075680162331], [57.88055457218563, 23.64032042968263], [57.88058250070124, 23.64025493736859], [57.880738428969494, 23.640084669764835], [57.88093835117048, 23.63997319507685], [57.8812659834894, 23.639870671350874], [57.88179588039798, 23.639768046550934], [57.8820704301429, 23.639735562480794], [57.882202918459704, 23.639727474918683], [57.88223341614511, 23.639751285850608], [57.8824739924086, 23.641455250150777], [57.882519794637325, 23.641611389010613], [57.882759413426506, 23.643235298331327], [57.88190231152052, 23.643425527547517]]]}, "properties": {"Farm_ID": "B15", "Governorate": "Al Batinah South", "Wilayat": "Barka", "Farm_Area": 4.8829375472861765, "Shape_Area": 48829.375472861764, "Latitude": 23.64136892, "Longitude": 57.8818323}}, {"type": "Feature", "geometry": {"type": "Polygon", "coordinates": [[[57.88670519293459, 23.646103730424493], [57.8866380118711, 23.645487681218114], [57.886533366477664, 23.644870165270607], [57.88960911356215, 23.64433856977233], [57.889809523964296, 23.645486455907722], [57.88670519293459, 23.646103730424493]]]}, "properties": {"Farm_ID": "B01", "Governorate": "Al Batinah South", "Wilayat": "Barka", "Farm_Area": 4.262992395509674, "Shape_Area": 42629.92395509674, "Latitude": 23.64520333, "Longitude": 57.88815225}}, {"type": "Feature", "geometry": {"type": "Polygon", "coordinates": [[[57.88394649474399, 23.645674971756236], [57.8835369494824, 23.644951519402756], [57.883299289019924, 23.644434410263685], [57.88303892279563, 23.64357506854161], [57.88586204188256, 23.64315763729461], [57.886248017195335, 23.645122526523526], [57.88394649474399, 23.645674971756236]]]}, "properties": {"Farm_ID": "B02", "Governorate": "Al Batinah South", "Wilayat": "Barka", "Farm_Area": 6.389526309045882, "Shape_Area": 63895.26309045882, "Latitude": 23.64436364, "Longitude": 57.88471012}}, {"type": "Feature", "geometry": {"type": "Polygon", "coordinates": [[[57.88303892279563, 23.64357506854161], [57.882749120625185, 23.641727931196893], [57.88547438352579, 23.64131159050137], [57.88581285098494, 23.64316525857907], [57.88303892279563, 23.64357506854161]]]}, "properties": {"Farm_ID": "B13", "Governorate": "Al Batinah South", "Wilayat": "Barka", "Farm_Area": 5.892505070938399, "Shape_Area": 58925.05070938399, "Latitude": 23.64244732, "Longitude": 57.88427093}}, {"type": "Feature", "geometry": {"type": "Polygon", "coordinates": [[[57.88540835891305, 23.641215599952375], [57.88270217956543, 23.64164133517464], [57.88268781873803, 23.641428357122585], [57.88240872591212, 23.639855816304546], [57.88230446727809, 23.6390560289357], [57.88219829567689, 23.63843840743803], [57.882122038306164, 23.63805047505555], [57.88135459293267, 23.63512470453564], [57.88097596453154, 23.633947164235614], [57.88383356429207, 23.633245815190325], [57.88540835891305, 23.641215599952375]]]}, "properties": {"Farm_ID": "B14", "Governorate": "Al Batinah South", "Wilayat": "Barka", "Farm_Area": 24.524946241609225, "Shape_Area": 245249.46241609225, "Latitude": 23.63745197, "Longitude": 57.88328811}}, {"type": "Feature", "geometry": {"type": "Polygon", "coordinates": [[[57.88097596453154, 23.633947164235614], [57.88094015493754, 23.633820928819425], [57.88083202701522, 23.63198386012216], [57.883423496070606, 23.63134770494757], [57.88383356429207, 23.633245815190325], [57.88097596453154, 23.633947164235614]]]}, "properties": {"Farm_ID": "B07", "Governorate": "Al Batinah South", "Wilayat": "Barka", "Farm_Area": 6.179775768271983, "Shape_Area": 61797.757682719835, "Latitude": 23.63264973, "Longitude": 57.88226209}}, {"type": "Feature", "geometry": {"type": "Polygon", "coordinates": [[[57.883155525631345, 23.630165823646536], [57.883423496070606, 23.63134770494757], [57.88083202701522, 23.63198386012216], [57.880786708866495, 23.631204245725566], [57.88249191373854, 23.630425100573568], [57.883155525631345, 23.630165823646536]]]}, "properties": {"Farm_ID": "B08", "Governorate": "Al Batinah South", "Wilayat": "Barka", "Farm_Area": 2.937702197140903, "Shape_Area": 29377.02197140903, "Latitude": 23.63114022, "Longitude": 57.88214568}}, {"type": "Feature", "geometry": {"type": "Polygon", "coordinates": [[[57.88389951720762, 23.632275348336787], [57.8832508411698, 23.629730469355934], [57.883508265447134, 23.629661793799787], [57.883566476348406, 23.629612256007032], [57.88533149063847, 23.62922746369857], [57.886161503163315, 23.631842045853535], [57.88389951720762, 23.632275348336787]]]}, "properties": {"Farm_ID": "B06", "Governorate": "Al Batinah South", "Wilayat": "Barka", "Farm_Area": 6.7617243738869615, "Shape_Area": 67617.24373886961, "Latitude": 23.63077397, "Longitude": 57.8846687}}, {"type": "Feature", "geometry": {"type": "Polygon", "coordinates": [[[57.88437463554747, 23.634216931751624], [57.88434928473834, 23.63408892421051], [57.88430357819721, 23.634093170601595], [57.88391856844001, 23.63231645091921], [57.88617461424752, 23.63189436638061], [57.88658795751611, 23.63380171269243], [57.88437463554747, 23.634216931751624]]]}, "properties": {"Farm_ID": "B04", "Governorate": "Al Batinah South", "Wilayat": "Barka", "Farm_Area": 5.051875497211299, "Shape_Area": 50518.75497211299, "Latitude": 23.63307574, "Longitude": 57.88525923}}, {"type": "Feature", "geometry": {"type": "Polygon", "coordinates": [[[57.88721698569352, 23.634073506519776], [57.88733463166333, 23.634917866156364], [57.88724570328104, 23.635438831605974], [57.887521196572685, 23.636843436282838], [57.887530294046734, 23.63697397210351], [57.885031117495814, 23.63740934993444], [57.884383593569, 23.63444075820174], [57.884482920783825, 23.634395716572026], [57.88566069175913, 23.634117411867564], [57.88690130635842, 23.63386807488605], [57.88721698569352, 23.634073506519776]]]}, "properties": {"Farm_ID": "B05", "Governorate": "Al Batinah South", "Wilayat": "Barka", "Farm_Area": 9.405359745234579, "Shape_Area": 94053.59745234578, "Latitude": 23.63561911, "Longitude": 57.88601433}}, {"type": "Feature", "geometry": {"type": "Polygon", "coordinates": [[[57.88831817621491, 23.639014894932146], [57.88844386460859, 23.63923271610393], [57.88856782780427, 23.63968128492888], [57.88869062939067, 23.640203653245095], [57.88874640897029, 23.640636669309863], [57.88860108984601, 23.640694123438426], [57.88586390454352, 23.64114535706431], [57.88548660181634, 23.63937928918063], [57.88821785411399, 23.638948687136715], [57.88831817621491, 23.639014894932146]]]}, "properties": {"Farm_ID": "B03", "Governorate": "Al Batinah South", "Wilayat": "Barka", "Farm_Area": 5.94019539218364, "Shape_Area": 59401.9539218364, "Latitude": 23.64003286, "Longitude": 57.88712129}}, {"type": "Feature", "geometry": {"type": "Polygon", "coordinates": [[[57.89303944067983, 23.645747650170804], [57.890914160485394, 23.64605830544014], [57.89053619405789, 23.643974162860488], [57.89273444759391, 23.643751695082894], [57.89275092822824, 23.64376930464243], [57.89303944067983, 23.645747650170804]]]}, "properties": {"Farm_ID": "B17", "Governorate": "Al Batinah South", "Wilayat": "Barka", "Farm_Area": 5.098811512337054, "Shape_Area": 50988.11512337054, "Latitude": 23.64487811, "Longitude": 57.89180009}}, {"type": "Feature", "geometry": {"type": "Polygon", "coordinates": [[[57.8927347141506, 23.64368071501441], [57.89048684710795, 23.643941188767133], [57.89006112855391, 23.641924316557677], [57.892388522971444, 23.64149354159773], [57.8927347141506, 23.64368071501441]]]}, "properties": {"Farm_ID": "B18", "Governorate": "Al Batinah South", "Wilayat": "Barka", "Farm_Area": 5.581291659053978, "Shape_Area": 55812.916590539775, "Latitude": 23.64274958, "Longitude": 57.89143025}}, {"type": "Feature", "geometry": {"type": "Polygon", "coordinates": [[[57.893018390552854, 23.642853857921676], [57.89310330206345, 23.643233856346846], [57.89419882670531, 23.64304035656806], [57.89437016297327, 23.643305634106845], [57.89444142241683, 23.643275796989872], [57.89458259059713, 23.643368922210332], [57.89468839466336, 23.64362546506074], [57.894829556851114, 23.643970533690005], [57.89500594413129, 23.644413313335974], [57.895381039630806, 23.64534840786308], [57.89521636525494, 23.645460114781972], [57.89417842669915, 23.645703140126972], [57.89313363377867, 23.64584980727678], [57.8929710787977, 23.644814974350098], [57.89266716930918, 23.64292330368932], [57.893018390552854, 23.642853857921676]]]}, "properties": {"Farm_ID": "B19", "Governorate": "Al Batinah South", "Wilayat": "Barka", "Farm_Area": 6.017054252616798, "Shape_Area": 60170.54252616798, "Latitude": 23.64444215, "Longitude": 57.89390954}}, {"type": "Feature", "geometry": {"type": "Polygon", "coordinates": [[[57.88766489249278, 23.634835025615004], [57.8874203980692, 23.632722495867444], [57.89080871395608, 23.63204113074201], [57.89122749742078, 23.634049942978606], [57.88983455549444, 23.63441795170086], [57.88766489249278, 23.634835025615004]]]}, "properties": {"Farm_ID": "B11", "Governorate": "Al Batinah South", "Wilayat": "Barka", "Farm_Area": 8.486140929333999, "Shape_Area": 84861.40929333998, "Latitude": 23.63343783, "Longitude": 57.88927713}}, {"type": "Feature", "geometry": {"type": "Polygon", "coordinates": [[[57.8868844869591, 23.629651089041186], [57.88681297817447, 23.62961382903852], [57.88655840483428, 23.628758578747473], [57.88659878069228, 23.628683009526863], [57.88909422638359, 23.62760495097185], [57.88916768886733, 23.62763414854156], [57.88965829571835, 23.628908854408223], [57.88961998751146, 23.62897519990754], [57.8868844869591, 23.629651089041186]]]}, "properties": {"Farm_ID": "B09", "Governorate": "Al Batinah South", "Wilayat": "Barka", "Farm_Area": 4.013278963802677, "Shape_Area": 40132.78963802678, "Latitude": 23.62870242, "Longitude": 57.88813815}}, {"type": "Feature", "geometry": {"type": "Polygon", "coordinates": [[[57.890711150747094, 23.63166651363186], [57.88740566984021, 23.63248340611805], [57.886868766388304, 23.629815533892693], [57.889738768735185, 23.629096573277582], [57.890711150747094, 23.63166651363186]]]}, "properties": {"Farm_ID": "B10", "Governorate": "Al Batinah South", "Wilayat": "Barka", "Farm_Area": 9.787816461519231, "Shape_Area": 97878.1646151923, "Latitude": 23.63079586, "Longitude": 57.88869085}}, {"type": "Feature", "geometry": {"type": "Polygon", "coordinates": [[[57.89909892215376, 23.636065971746238], [57.89820614847889, 23.63485009604161], [57.898195305999685, 23.63445020296786], [57.90264424772312, 23.634385752018108], [57.90202944087399, 23.636042727327233], [57.89909892215376, 23.636065971746238]]]}, "properties": {"Farm_ID": "B21", "Governorate": "Al Batinah South", "Wilayat": "Barka", "Farm_Area": 7.0204428661662135, "Shape_Area": 70204.42866166214, "Latitude": 23.63517833, "Longitude": 57.9004363}}, {"type": "Feature", "geometry": {"type": "Polygon", "coordinates": [[[57.90019079592157, 23.63837706121812], [57.89821426540857, 23.638388314859455], [57.89819939507307, 23.636558789835423], [57.90017639504011, 23.636557554380897], [57.90019079592157, 23.63837706121812]]]}, "properties": {"Farm_ID": "B20", "Governorate": "Al Batinah South", "Wilayat": "Barka", "Farm_Area": 4.073430745632643, "Shape_Area": 40734.30745632643, "Latitude": 23.6374704, "Longitude": 57.89919431}}, {"type": "Feature", "geometry": {"type": "Polygon", "coordinates": [[[57.89974033084966, 23.644216399624977], [57.90018134888525, 23.641715716088083], [57.90019878360923, 23.641616853259357], [57.900285671772096, 23.641405068154132], [57.900592527703026, 23.640713392055066], [57.90188931205819, 23.64079137488797], [57.90131799142821, 23.64389058566976], [57.89974033084966, 23.644216399624977]]]}, "properties": {"Farm_ID": "B23", "Governorate": "Al Batinah South", "Wilayat": "Barka", "Farm_Area": 5.605398827571878, "Shape_Area": 56053.98827571878, "Latitude": 23.64242541, "Longitude": 57.90082053}}]}