{"type":"FeatureCollection","features":[{"type":"Feature","id":1,"geometry":{"type":"Polygon","coordinates":[[[57.88521157606117,23.635051761510283],[57.88528254670237,23.635387817541652],[57.88485095706709,23.635483321367644],[57.88478074733574,23.635140569886417],[57.88521157606117,23.635051761510283]]]},"properties":{"OBJECTID":1,"Shape_Length":166.83552923891972,"Shape_Area":1726.4057189388313,"Governorate":"Al Batinah South","Wilayat":"Barka","Latitude":23.63526614,"Longitude":57.88503082,"Pen_ID":"AP_001"}},{"type":"Feature","id":2,"geometry":{"type":"Polygon","coordinates":[[[57.885323023015324,23.635613992020577],[57.884881475809834,23.63571163013694],[57.88486563884147,23.63567133128273],[57.884955700248995,23.635647696505835],[57.88492696359794,23.6355787902069],[57.885298411133405,23.63549706360899],[57.885323023015324,23.635613992020577]]]},"properties":{"OBJECTID":2,"Shape_Length":120.93284153868456,"Shape_Area":546.1234863247962,"Governorate":"Al Batinah South","Wilayat":"Barka","Latitude":23.63560213,"Longitude":57.88511201,"Pen_ID":"AP_002"}},{"type":"Feature","id":3,"geometry":{"type":"Polygon","coordinates":[[[57.88551961488268,23.635530043840863],[57.88547596658784,23.63553486591587],[57.88546978356378,23.635501061101206],[57.88557143008614,23.63548493224518],[57.88557761928943,23.63551965195932],[57.88555939095359,23.63552291722393],[57.88556537443119,23.635543959182566],[57.88552322446484,23.635550144673893],[57.88551961488268,23.635530043840863]]]},"properties":{"OBJECTID":3,"Shape_Length":33.608912681867835,"Shape_Area":51.2887396142959,"Governorate":"Al Batinah South","Wilayat":"Barka","Latitude":23.63551558,"Longitude":57.88552744,"Pen_ID":"AP_003"}},{"type":"Feature","id":4,"geometry":{"type":"Polygon","coordinates":[[[57.885748859259955,23.635518674181984],[57.88571452029761,23.635431525628817],[57.885879566812655,23.635395371008954],[57.88589609608876,23.6354913100064],[57.885748859259955,23.635518674181984]]]},"properties":{"OBJECTID":4,"Shape_Length":53.64714568430937,"Shape_Area":170.5581709434336,"Governorate":"Al Batinah South","Wilayat":"Barka","Latitude":23.63545814,"Longitude":57.8858102,"Pen_ID":"AP_004"}},{"type":"Feature","id":5,"geometry":{"type":"Polygon","coordinates":[[[57.88590794302666,23.635484510809697],[57.88589134646937,23.635425778525796],[57.88597544751988,23.635413590916194],[57.885984404429585,23.635470025740023],[57.88590794302666,23.635484510809697]]]},"properties":{"OBJECTID":5,"Shape_Length":29.68145750064121,"Shape_Area":54.13556509129067,"Governorate":"Al Batinah South","Wilayat":"Barka","Latitude":23.63544813,"Longitude":57.88593929,"Pen_ID":"AP_005"}},{"type":"Feature","id":6,"geometry":{"type":"Polygon","coordinates":[[[57.88590800927745,23.635398055440607],[57.88590580216458,23.635372218527145],[57.885929179222394,23.63537171108298],[57.885930363442654,23.6353966163192],[57.88590800927745,23.635398055440607]]]},"properties":{"OBJECTID":6,"Shape_Length":10.300729363057867,"Shape_Area":6.570616620905962,"Governorate":"Al Batinah South","Wilayat":"Barka","Latitude":23.63538456,"Longitude":57.88591826,"Pen_ID":"AP_006"}},{"type":"Feature","id":7,"geometry":{"type":"Polygon","coordinates":[[[57.88597383907888,23.63533118421344],[57.88597955475268,23.635364867033996],[57.885950506433666,23.635368592457414],[57.88594358161399,23.635336601908968],[57.88597383907888,23.63533118421344]]]},"properties":{"OBJECTID":7,"Shape_Length":13.522255158257133,"Shape_Area":11.323398769564967,"Governorate":"Al Batinah South","Wilayat":"Barka","Latitude":23.63535016,"Longitude":57.88596195,"Pen_ID":"AP_007"}},{"type":"Feature","id":8,"geometry":{"type":"Polygon","coordinates":[[[57.88614567763262,23.635337320685956],[57.88602504396405,23.635357115168063],[57.88601486895982,23.635325518016156],[57.88613876383309,23.635306828489256],[57.88614567763262,23.635337320685956]]]},"properties":{"OBJECTID":8,"Shape_Length":32.4034114121372,"Shape_Area":44.72530437270481,"Governorate":"Al Batinah South","Wilayat":"Barka","Latitude":23.63533172,"Longitude":57.88608056,"Pen_ID":"AP_008"}},{"type":"Feature","id":9,"geometry":{"type":"Polygon","coordinates":[[[57.886167560068806,23.635484271478738],[57.8861450628623,23.63538653763487],[57.886195088670725,23.635370704180904],[57.88617970923482,23.635298081020743],[57.886225323108654,23.635290503604946],[57.886241202827414,23.6353673915107],[57.88661958819592,23.63531294477103],[57.8866229359396,23.635367801213352],[57.88657335388722,23.635375859348798],[57.88658015430287,23.635427495124706],[57.88637676568143,23.635461813922124],[57.886369558012724,23.63544185018574],[57.886167560068806,23.635484271478738]]]},"properties":{"OBJECTID":9,"Shape_Length":138.6419514248244,"Shape_Area":569.5826916553182,"Governorate":"Al Batinah South","Wilayat":"Barka","Latitude":23.63539359,"Longitude":57.88637045,"Pen_ID":"AP_009"}},{"type":"Feature","id":10,"geometry":{"type":"Polygon","coordinates":[[[57.88570013084763,23.634227992803666],[57.88576258068801,23.63453529249832],[57.88570958648122,23.63454571002266],[57.88569926843533,23.634507838241383],[57.88561246194575,23.634523927596337],[57.88555800652253,23.634249033190258],[57.88570013084763,23.634227992803666]]]},"properties":{"OBJECTID":10,"Shape_Length":99.12092348091775,"Shape_Area":476.3269630319782,"Governorate":"Al Batinah South","Wilayat":"Barka","Latitude":23.63438234,"Longitude":57.88566003,"Pen_ID":"AP_010"}},{"type":"Feature","id":11,"geometry":{"type":"Polygon","coordinates":[[[57.8884155290461,23.645198759888203],[57.888443682457904,23.64534825367437],[57.888200055451655,23.645386400452523],[57.88817840084977,23.645224744884885],[57.8884155290461,23.645198759888203]]]},"properties":{"OBJECTID":11,"Shape_Length":84.3965807823618,"Shape_Area":431.3484532069787,"Governorate":"Al Batinah South","Wilayat":"Barka","Latitude":23.64529018,"Longitude":57.88830806,"Pen_ID":"AP_011"}},{"type":"Feature","id":12,"geometry":{"type":"Polygon","coordinates":[[[57.888404432682876,23.645468600040093],[57.88789296596187,23.64553888098591],[57.88787851760689,23.6454697499832],[57.8883962928252,23.645410606386932],[57.888404432682876,23.645468600040093]]]},"properties":{"OBJECTID":12,"Shape_Length":120.2316013690571,"Shape_Area":377.66130895182823,"Governorate":"Al Batinah South","Wilayat":"Barka","Latitude":23.64547291,"Longitude":57.88813517,"Pen_ID":"AP_012"}},{"type":"Feature","id":13,"geometry":{"type":"Polygon","coordinates":[[[57.88853492449543,23.64517523844874],[57.88878490843823,23.645139466251788],[57.88882016810405,23.645292836389824],[57.88876445773139,23.645299003914495],[57.888765437267594,23.6453213722748],[57.8885683216485,23.645354539246675],[57.88853492449543,23.64517523844874]]]},"properties":{"OBJECTID":13,"Shape_Length":91.94383092392572,"Shape_Area":504.6718252448627,"Governorate":"Al Batinah South","Wilayat":"Barka","Latitude":23.64524409,"Longitude":57.88867441,"Pen_ID":"AP_013"}},{"type":"Feature","id":14,"geometry":{"type":"Polygon","coordinates":[[[57.888121225162365,23.644679381952038],[57.88814793158313,23.644958830563333],[57.88807439845328,23.644959957121046],[57.888054440937125,23.644681598837316],[57.8880801818562,23.644681875013738],[57.888121225162365,23.644679381952038]]]},"properties":{"OBJECTID":14,"Shape_Length":76.26971692854613,"Shape_Area":220.99554382077233,"Governorate":"Al Batinah South","Wilayat":"Barka","Latitude":23.64482242,"Longitude":57.88809974,"Pen_ID":"AP_014"}},{"type":"Feature","id":17,"geometry":{"type":"Polygon","coordinates":[[[57.888328062407865,23.645145199291303],[57.888153092262215,23.645165065742923],[57.88814481304708,23.645104998227584],[57.88817710355005,23.645100953914696],[57.88816098328198,23.64497368835012],[57.888175938413774,23.644972775361154],[57.88817633515824,23.644987107716737],[57.88831180081358,23.644973927222274],[57.888314556657626,23.645002955516446],[57.88834610780826,23.64500267541061],[57.88834838898214,23.645030228794212],[57.88831669840528,23.645034546083455],[57.888328062407865,23.645145199291303]]]},"properties":{"OBJECTID":17,"Shape_Length":84.2843642514245,"Shape_Area":321.8135586236592,"Governorate":"Al Batinah South","Wilayat":"Barka","Latitude":23.64506906,"Longitude":57.88824309,"Pen_ID":"AP_017"}},{"type":"Feature","id":18,"geometry":{"type":"Polygon","coordinates":[[[57.88815474230275,23.645024446696993],[57.888159682616646,23.64509140575755],[57.888127373512,23.645092693618317],[57.888123630268225,23.645025727700013],[57.88815474230275,23.645024446696993]]]},"properties":{"OBJECTID":18,"Shape_Length":21.330217124353513,"Shape_Area":24.04332184966751,"Governorate":"Al Batinah South","Wilayat":"Barka","Latitude":23.64505878,"Longitude":57.88814137,"Pen_ID":"AP_018"}},{"type":"Feature","id":19,"geometry":{"type":"Polygon","coordinates":[[[57.883826492684626,23.643461457415107],[57.88526665691831,23.643245951450535],[57.88527656422135,23.643333288227986],[57.88498813427975,23.64338649990691],[57.884969476250895,23.64332369600824],[57.88462267065996,23.64337038849291],[57.8846259698288,23.64339461148085],[57.88383557749337,23.64351128018276],[57.883826492684626,23.643461457415107]]]},"properties":{"OBJECTID":19,"Shape_Length":321.45189244642165,"Shape_Area":899.9051689680389,"Governorate":"Al Batinah South","Wilayat":"Barka","Latitude":23.64337493,"Longitude":57.88461733,"Pen_ID":"AP_019"}},{"type":"Feature","id":20,"geometry":{"type":"Polygon","coordinates":[[[57.88463825304165,23.643471707853465],[57.88489671098338,23.643450268912517],[57.884943078620175,23.643685577047172],[57.88491129669648,23.643685758418187],[57.88493354770365,23.643772140546172],[57.88472716888043,23.643803929322058],[57.88469170714052,23.643596244596218],[57.884659961113194,23.64359709588259],[57.88463825304165,23.643471707853465]]]},"properties":{"OBJECTID":20,"Shape_Length":127.93814752494703,"Shape_Area":881.9605248410503,"Governorate":"Al Batinah South","Wilayat":"Barka","Latitude":23.64361602,"Longitude":57.88480099,"Pen_ID":"AP_020"}},{"type":"Feature","id":21,"geometry":{"type":"Polygon","coordinates":[[[57.88465323100001,23.643857937832163],[57.88466172374021,23.643931351810814],[57.884584249401954,23.643944521639835],[57.884574398325476,23.643885181794765],[57.88458045707692,23.64388514723252],[57.88457743671066,23.643868418286683],[57.88465323100001,23.643857937832163]]]},"properties":{"OBJECTID":21,"Shape_Length":33.16988050639073,"Shape_Area":67.1001312182433,"Governorate":"Al Batinah South","Wilayat":"Barka","Latitude":23.64390089,"Longitude":57.88461816,"Pen_ID":"AP_021"}},{"type":"Feature","id":22,"geometry":{"type":"Polygon","coordinates":[[[57.88578983579681,23.64393260427861],[57.88600026070159,23.643875184440326],[57.886044087592936,23.64406743776252],[57.88583814157018,23.64410353740939],[57.88578983579681,23.64393260427861]]]},"properties":{"OBJECTID":22,"Shape_Length":85.07534411483942,"Shape_Area":451.27229016971285,"Governorate":"Al Batinah South","Wilayat":"Barka","Latitude":23.6439936,"Longitude":57.88591975,"Pen_ID":"AP_022"}},{"type":"Feature","id":23,"geometry":{"type":"Polygon","coordinates":[[[57.88414081312256,23.631903632989477],[57.88415341279396,23.631958454867995],[57.88393117447274,23.632003344056393],[57.883918178379815,23.631948162234245],[57.88414081312256,23.631903632989477]]]},"properties":{"OBJECTID":23,"Shape_Length":58.90458972639112,"Shape_Area":144.64233967345547,"Governorate":"Al Batinah South","Wilayat":"Barka","Latitude":23.63195342,"Longitude":57.88403575,"Pen_ID":"AP_023"}},{"type":"Feature","id":24,"geometry":{"type":"Polygon","coordinates":[[[57.88417277855474,23.631845649712222],[57.88390921971418,23.631906770922544],[57.8838942307878,23.631848691250102],[57.884159394641806,23.63179156028224],[57.88417277855474,23.631845649712222]]]},"properties":{"OBJECTID":24,"Shape_Length":68.25491968496998,"Shape_Area":176.93045298948755,"Governorate":"Al Batinah South","Wilayat":"Barka","Latitude":23.63184852,"Longitude":57.88403229,"Pen_ID":"AP_024"}},{"type":"Feature","id":25,"geometry":{"type":"Polygon","coordinates":[[[57.88388608079289,23.631810203627612],[57.883868712290464,23.631750320274506],[57.88413387352266,23.631692826283263],[57.88414966386881,23.631752718599124],[57.88388608079289,23.631810203627612]]]},"properties":{"OBJECTID":25,"Shape_Length":69.10550299121758,"Shape_Area":189.58528648690876,"Governorate":"Al Batinah South","Wilayat":"Barka","Latitude":23.63175151,"Longitude":57.88400946,"Pen_ID":"AP_025"}},{"type":"Feature","id":26,"geometry":{"type":"Polygon","coordinates":[[[57.88385654344651,23.631700950329133],[57.88384119709684,23.63164832619802],[57.884110658820326,23.631584990246857],[57.88412803473287,23.63164596459348],[57.88385654344651,23.631700950329133]]]},"properties":{"OBJECTID":26,"Shape_Length":69.73664415405555,"Shape_Area":184.4462580161728,"Governorate":"Al Batinah South","Wilayat":"Barka","Latitude":23.63164433,"Longitude":57.88398739,"Pen_ID":"AP_026"}},{"type":"Feature","id":27,"geometry":{"type":"Polygon","coordinates":[[[57.883826033370916,23.63158303547137],[57.88380583048971,23.63150776872171],[57.88407160786555,23.631450416750955],[57.88408825936007,23.631523376160317],[57.883826033370916,23.63158303547137]]]},"properties":{"OBJECTID":27,"Shape_Length":72.23748137686422,"Shape_Area":233.16223825925115,"Governorate":"Al Batinah South","Wilayat":"Barka","Latitude":23.63151628,"Longitude":57.88394705,"Pen_ID":"AP_027"}},{"type":"Feature","id":28,"geometry":{"type":"Polygon","coordinates":[[[57.88386971405219,23.63142256821194],[57.883850290583474,23.631345994613426],[57.88403361686991,23.6313057891171],[57.88405270294813,23.631380280031184],[57.88386971405219,23.63142256821194]]]},"properties":{"OBJECTID":28,"Shape_Length":55.64915794973054,"Shape_Area":165.2202537208399,"Governorate":"Al Batinah South","Wilayat":"Barka","Latitude":23.63136376,"Longitude":57.88395117,"Pen_ID":"AP_028"}},{"type":"Feature","id":29,"geometry":{"type":"Polygon","coordinates":[[[57.88375594526281,23.6311634320926],[57.88371959272368,23.630990304535267],[57.883987562772525,23.63094006466874],[57.88402749462549,23.631113603487904],[57.88375594526281,23.6311634320926]]]},"properties":{"OBJECTID":29,"Shape_Length":95.30547183302939,"Shape_Area":549.662961637986,"Governorate":"Al Batinah South","Wilayat":"Barka","Latitude":23.63105201,"Longitude":57.88387282,"Pen_ID":"AP_029"}},{"type":"Feature","id":30,"geometry":{"type":"Polygon","coordinates":[[[57.88377123614582,23.6315456562862],[57.88378682936576,23.631590519640877],[57.88379336427728,23.63161725682739],[57.88373544991738,23.63162856514506],[57.883727988656226,23.63160241940896],[57.88373299135121,23.631604039246927],[57.88372105894451,23.63155687716515],[57.88377123614582,23.6315456562862]]]},"properties":{"OBJECTID":30,"Shape_Length":28.452228117371593,"Shape_Area":46.42706603494655,"Governorate":"Al Batinah South","Wilayat":"Barka","Latitude":23.63158799,"Longitude":57.88375622,"Pen_ID":"AP_030"}},{"type":"Feature","id":32,"geometry":{"type":"Polygon","coordinates":[[[57.88514485448053,23.630747325556015],[57.885101441721304,23.6305635149637],[57.88543768775357,23.63049872994436],[57.885479885487975,23.630690432290024],[57.88514485448053,23.630747325556015]]]},"properties":{"OBJECTID":32,"Shape_Length":112.27938688240332,"Shape_Area":741.172042023628,"Governorate":"Al Batinah South","Wilayat":"Barka","Latitude":23.63062467,"Longitude":57.88529203,"Pen_ID":"AP_032"}},{"type":"Feature","id":33,"geometry":{"type":"Polygon","coordinates":[[[57.88377642232903,23.631778081137394],[57.88375946206189,23.63170715113325],[57.883809968056276,23.631695249162277],[57.88382531782517,23.631766932571683],[57.88377642232903,23.631778081137394]]]},"properties":{"OBJECTID":33,"Shape_Length":26.587557799667884,"Shape_Area":42.13012603652208,"Governorate":"Al Batinah South","Wilayat":"Barka","Latitude":23.63173665,"Longitude":57.88379277,"Pen_ID":"AP_033"}},{"type":"Feature","id":34,"geometry":{"type":"Polygon","coordinates":[[[57.883430344539995,23.63150492004988],[57.883532663102024,23.631919556671114],[57.88347534693237,23.631930332213596],[57.883372989072086,23.631517557267053],[57.883430344539995,23.63150492004988]]]},"properties":{"OBJECTID":34,"Shape_Length":105.94286507358069,"Shape_Area":281.4350869037671,"Governorate":"Al Batinah South","Wilayat":"Barka","Latitude":23.6317178,"Longitude":57.88345279,"Pen_ID":"AP_034"}},{"type":"Feature","id":35,"geometry":{"type":"Polygon","coordinates":[[[57.882125612650505,23.631749289085008],[57.882115146370836,23.631715294393803],[57.88227781825635,23.631673918629687],[57.88228673368859,23.631709521694646],[57.882125612650505,23.631749289085008]]]},"properties":{"OBJECTID":35,"Shape_Length":42.18786338889542,"Shape_Area":68.07101636530689,"Governorate":"Al Batinah South","Wilayat":"Barka","Latitude":23.63171186,"Longitude":57.88220176,"Pen_ID":"AP_035"}},{"type":"Feature","id":36,"geometry":{"type":"Polygon","coordinates":[[[57.88272791199829,23.63161380085084],[57.882811866559344,23.631919017010482],[57.882705143001616,23.631945045760666],[57.8826769651752,23.631805789251995],[57.882647659147764,23.631808993459124],[57.882659692305374,23.631918184033363],[57.882573029784886,23.631933915883483],[57.882549917755696,23.631802894794998],[57.88251957668478,23.631807004452483],[57.8825175748336,23.63179310567766],[57.88250008035839,23.631798002091436],[57.88247860455968,23.63172665685814],[57.882527295450636,23.631715827789307],[57.882516725127374,23.631666323990824],[57.882669556065224,23.63163251932117],[57.88266883093818,23.631627886424944],[57.88272791199829,23.63161380085084]]]},"properties":{"OBJECTID":36,"Shape_Length":148.89244482544606,"Shape_Area":750.1024253155589,"Governorate":"Al Batinah South","Wilayat":"Barka","Latitude":23.63177965,"Longitude":57.88265345,"Pen_ID":"AP_036"}},{"type":"Feature","id":37,"geometry":{"type":"Polygon","coordinates":[[[57.881686779531954,23.63187300400541],[57.881768806737,23.631853552528234],[57.88180904073151,23.631990471856007],[57.881724001987,23.632005694535817],[57.881686779531954,23.63187300400541]]]},"properties":{"OBJECTID":37,"Shape_Length":48.356682707133245,"Shape_Area":134.76515926669444,"Governorate":"Al Batinah South","Wilayat":"Barka","Latitude":23.63193086,"Longitude":57.88174746,"Pen_ID":"AP_037"}},{"type":"Feature","id":38,"geometry":{"type":"Polygon","coordinates":[[[57.88180179585515,23.63270802227232],[57.881949664867804,23.632684478827386],[57.88195934287667,23.63273030990958],[57.88181252560376,23.63275544695099],[57.88180179585515,23.63270802227232]]]},"properties":{"OBJECTID":38,"Shape_Length":41.073563409978036,"Shape_Area":80.40017552226604,"Governorate":"Al Batinah South","Wilayat":"Barka","Latitude":23.63271962,"Longitude":57.88188038,"Pen_ID":"AP_038"}},{"type":"Feature","id":39,"geometry":{"type":"Polygon","coordinates":[[[57.88208593939265,23.63244406097457],[57.88212572455662,23.632594973297604],[57.88207724458026,23.632603243189763],[57.88203720466098,23.632454830549378],[57.88208593939265,23.63244406097457]]]},"properties":{"OBJECTID":39,"Shape_Length":44.26871636652845,"Shape_Area":86.45393792244255,"Governorate":"Al Batinah South","Wilayat":"Barka","Latitude":23.63252404,"Longitude":57.88208153,"Pen_ID":"AP_039"}},{"type":"Feature","id":40,"geometry":{"type":"Polygon","coordinates":[[[57.88758548127696,23.632692943485612],[57.887619289010196,23.632868459936557],[57.887546162175674,23.632884067435658],[57.88754006445476,23.63285468427032],[57.88751633122417,23.632860894968587],[57.88752007294939,23.632901004443355],[57.88749458949703,23.63290498702829],[57.887510716286535,23.633083482245567],[57.88746996375983,23.633087712956893],[57.887420504231706,23.632723411102667],[57.887461582424315,23.63271849843577],[57.88758548127696,23.632692943485612]]]},"properties":{"OBJECTID":40,"Shape_Length":122.15817858672608,"Shape_Area":440.4924993812554,"Governorate":"Al Batinah South","Wilayat":"Barka","Latitude":23.63283959,"Longitude":57.88750909,"Pen_ID":"AP_040"}},{"type":"Feature","id":41,"geometry":{"type":"Polygon","coordinates":[[[57.887733893664176,23.63300754054256],[57.88772230252885,23.63296571746991],[57.88774571501035,23.63296209623706],[57.887746809854576,23.632967593154994],[57.88776484281792,23.6329643468242],[57.887766953393424,23.63297160368039],[57.88778151042062,23.63296942495],[57.8877784219933,23.63295424903373],[57.88790659103024,23.632933445494306],[57.887926919030946,23.633041130295183],[57.887749413889274,23.633070285379397],[57.88770468997847,23.633077416468137],[57.88768780116744,23.633017716912157],[57.887733893664176,23.63300754054256]]]},"properties":{"OBJECTID":41,"Shape_Length":73.80520422402003,"Shape_Area":255.12875005174945,"Governorate":"Al Batinah South","Wilayat":"Barka","Latitude":23.63300779,"Longitude":57.8878136,"Pen_ID":"AP_041"}},{"type":"Feature","id":42,"geometry":{"type":"Polygon","coordinates":[[[57.88830854820656,23.62954601205887],[57.88833540503062,23.629539943232256],[57.88832045631434,23.629484869623933],[57.88857237660718,23.629426348423188],[57.8885786121857,23.629450295323853],[57.888614314550104,23.629443535417753],[57.88864362658211,23.629581225332323],[57.888411802706365,23.629632960550534],[57.88839264757853,23.6295330058415],[57.88837490257119,23.62953657844683],[57.88837649315997,23.629561651146858],[57.8883143093124,23.62957359796281],[57.88830854820656,23.62954601205887]]]},"properties":{"OBJECTID":42,"Shape_Length":107.38371671426404,"Shape_Area":492.8546264382865,"Governorate":"Al Batinah South","Wilayat":"Barka","Latitude":23.62952744,"Longitude":57.88849001,"Pen_ID":"AP_042"}},{"type":"Feature","id":43,"geometry":{"type":"Polygon","coordinates":[[[57.88819828778762,23.629527700592043],[57.88821106704697,23.629561701476025],[57.88812736086829,23.629583157472016],[57.888115361743544,23.629549561263445],[57.88819828778762,23.629527700592043]]]},"properties":{"OBJECTID":43,"Shape_Length":25.561862644408695,"Shape_Area":34.83578764149383,"Governorate":"Al Batinah South","Wilayat":"Barka","Latitude":23.62955552,"Longitude":57.88816314,"Pen_ID":"AP_043"}},{"type":"Feature","id":44,"geometry":{"type":"Polygon","coordinates":[[[57.887313174485115,23.629543309476382],[57.886882894245055,23.629650259075227],[57.886812583000086,23.629612502692837],[57.88655947265063,23.62875657928658],[57.88659852957912,23.628679782930867],[57.886625449756394,23.628671488559203],[57.886852756873566,23.62948974877961],[57.88727101252968,23.629393187085526],[57.887313174485115,23.629543309476382]]]},"properties":{"OBJECTID":44,"Shape_Length":318.9443238945271,"Shape_Area":1636.7212688243344,"Governorate":"Al Batinah South","Wilayat":"Barka","Latitude":23.62932601,"Longitude":57.88689043,"Pen_ID":"AP_044"}},{"type":"Feature","id":46,"geometry":{"type":"Polygon","coordinates":[[[57.88304176025426,23.643037525336428],[57.88301843158039,23.642874779178836],[57.882957196343575,23.642882122217596],[57.88293547762293,23.642635928594377],[57.883486447830904,23.6425478538816],[57.88354735873601,23.64299780579384],[57.88304176025426,23.643037525336428]]]},"properties":{"OBJECTID":46,"Shape_Length":210.8243258292071,"Shape_Area":2641.8158014060155,"Governorate":"Al Batinah South","Wilayat":"Barka","Latitude":23.64279973,"Longitude":57.88325144,"Pen_ID":"AP_046"}},{"type":"Feature","id":47,"geometry":{"type":"Polygon","coordinates":[[[57.88334411095133,23.64352998409437],[57.88303942328428,23.643574993435763],[57.88296165140989,23.64314151771483],[57.8832548049723,23.643108259811083],[57.88334411095133,23.64352998409437]]]},"properties":{"OBJECTID":47,"Shape_Length":157.82154057667577,"Shape_Area":1480.4238444037865,"Governorate":"Al Batinah South","Wilayat":"Barka","Latitude":23.64334037,"Longitude":57.88314973,"Pen_ID":"AP_047"}},{"type":"Feature","id":48,"geometry":{"type":"Polygon","coordinates":[[[57.885354387414075,23.6414479782752],[57.88536330231054,23.641494634412968],[57.885430086452025,23.64148316095423],[57.885440411146014,23.64152645817597],[57.8853271790967,23.641543842699313],[57.88530570548145,23.641455530546466],[57.885354387414075,23.6414479782752]]]},"properties":{"OBJECTID":48,"Shape_Length":43.847711186122226,"Shape_Area":82.10097776342779,"Governorate":"Al Batinah South","Wilayat":"Barka","Latitude":23.64150161,"Longitude":57.88536519,"Pen_ID":"AP_048"}},{"type":"Feature","id":49,"geometry":{"type":"Polygon","coordinates":[[[57.884315119311005,23.641656038195716],[57.88430007245918,23.641555698393205],[57.88469067779104,23.64149326523034],[57.88470287387465,23.641572886553003],[57.884315119311005,23.641656038195716]]]},"properties":{"OBJECTID":49,"Shape_Length":101.16427066290603,"Shape_Area":406.6825393278336,"Governorate":"Al Batinah South","Wilayat":"Barka","Latitude":23.64157087,"Longitude":57.88449474,"Pen_ID":"AP_049"}},{"type":"Feature","id":50,"geometry":{"type":"Polygon","coordinates":[[[57.88426254752261,23.64166133355726],[57.88363746605157,23.64175742823098],[57.883633128740264,23.641731871685227],[57.883666445082525,23.641731042380364],[57.88366423407235,23.64171202912605],[57.88364392115585,23.641710865944823],[57.883638721496155,23.641685953776562],[57.88366284228791,23.641685656467068],[57.88366225245161,23.64167432108789],[57.88389648695336,23.641639117196053],[57.88389794226906,23.641657424840567],[57.88409320045623,23.641623773212483],[57.88409006337138,23.641603223487092],[57.88425198679485,23.64158270270923],[57.88426254752261,23.64166133355726]]]},"properties":{"OBJECTID":50,"Shape_Length":155.8674713822957,"Shape_Area":511.6839449610547,"Governorate":"Al Batinah South","Wilayat":"Barka","Latitude":23.64167164,"Longitude":57.88395217,"Pen_ID":"AP_050"}},{"type":"Feature","id":51,"geometry":{"type":"Polygon","coordinates":[[[57.88503139099596,23.639587402007923],[57.88481214823617,23.639630861218887],[57.884788719047194,23.63950165068845],[57.88473151230197,23.63951109030913],[57.88471898871045,23.63945520324919],[57.8849944420135,23.6394091853033],[57.88503139099596,23.639587402007923]]]},"properties":{"OBJECTID":51,"Shape_Length":98.27000559148672,"Shape_Area":501.12913770874445,"Governorate":"Al Batinah South","Wilayat":"Barka","Latitude":23.63951552,"Longitude":57.88489215,"Pen_ID":"AP_051"}},{"type":"Feature","id":52,"geometry":{"type":"Polygon","coordinates":[[[57.8816646567329,23.642011626994005],[57.88160541517443,23.64203319797187],[57.88154277257069,23.64187092430087],[57.88153544618032,23.641870217197184],[57.88151835711737,23.641828844918496],[57.881592232977525,23.641805941659175],[57.88161525746578,23.641842783164886],[57.88159284322968,23.641856650032835],[57.88162364975553,23.64192167674112],[57.8816752758766,23.641896651872997],[57.881712690537036,23.641976629557437],[57.88165944298508,23.642002413310856],[57.8816646567329,23.642011626994005]]]},"properties":{"OBJECTID":52,"Shape_Length":77.365530527639,"Shape_Area":212.89168654346415,"Governorate":"Al Batinah South","Wilayat":"Barka","Latitude":23.64192502,"Longitude":57.88161284,"Pen_ID":"AP_052"}},{"type":"Feature","id":53,"geometry":{"type":"Polygon","coordinates":[[[57.88210274237177,23.643383208050135],[57.882076195723286,23.643303347502588],[57.88204757046427,23.643308012767807],[57.882030464505554,23.64325817589065],[57.8820614652275,23.64325159859567],[57.88204492914385,23.643198873665334],[57.88212271109817,23.643177645933978],[57.88218020630895,23.64336629938088],[57.88210274237177,23.643383208050135]]]},"properties":{"OBJECTID":53,"Shape_Length":65.41104588821042,"Shape_Area":195.12761715678025,"Governorate":"Al Batinah South","Wilayat":"Barka","Latitude":23.64328123,"Longitude":57.88210704,"Pen_ID":"AP_053"}},{"type":"Feature","id":54,"geometry":{"type":"Polygon","coordinates":[[[57.88238089691812,23.643237141939277],[57.88237655824216,23.643156226588378],[57.88244272351072,23.643156100267202],[57.88243729894367,23.643236820988538],[57.88238089691812,23.643237141939277]]]},"properties":{"OBJECTID":54,"Shape_Length":30.426316958127323,"Shape_Area":55.93284525505703,"Governorate":"Al Batinah South","Wilayat":"Barka","Latitude":23.6431955,"Longitude":57.88240936,"Pen_ID":"AP_054"}},{"type":"Feature","id":55,"geometry":{"type":"Polygon","coordinates":[[[57.8826558932141,23.642536205841715],[57.882744579009646,23.643121905961863],[57.882696065069936,23.643125680206033],[57.88260020258929,23.64253891086994],[57.8826558932141,23.642536205841715]]]},"properties":{"OBJECTID":55,"Shape_Length":141.82963818851346,"Shape_Area":348.32449450531703,"Governorate":"Al Batinah South","Wilayat":"Barka","Latitude":23.64282417,"Longitude":57.88267315,"Pen_ID":"AP_055"}},{"type":"Feature","id":56,"geometry":{"type":"Polygon","coordinates":[[[57.882459584721865,23.643283169997417],[57.88244998594212,23.643249169562488],[57.88255451113755,23.64323050805029],[57.88256255239943,23.643264996940513],[57.882459584721865,23.643283169997417]]]},"properties":{"OBJECTID":56,"Shape_Length":29.349042920316165,"Shape_Area":41.95724596867398,"Governorate":"Al Batinah South","Wilayat":"Barka","Latitude":23.64325691,"Longitude":57.8825067,"Pen_ID":"AP_056"}},{"type":"Feature","id":57,"geometry":{"type":"Polygon","coordinates":[[[57.89173015291208,23.644746712367606],[57.89177696992829,23.644741047433687],[57.89182987697165,23.645057648319842],[57.89178420849259,23.645060069613468],[57.89173015291208,23.644746712367606]]]},"properties":{"OBJECTID":57,"Shape_Length":80.07948639428683,"Shape_Area":166.934540299056,"Governorate":"Al Batinah South","Wilayat":"Barka","Latitude":23.64490042,"Longitude":57.89178018,"Pen_ID":"AP_057"}},{"type":"Feature","id":58,"geometry":{"type":"Polygon","coordinates":[[[57.89189128977719,23.645457320432843],[57.89190210126857,23.64551869812535],[57.89187220743301,23.645520785751504],[57.8918634763782,23.645459690532107],[57.89189128977719,23.645457320432843]]]},"properties":{"OBJECTID":58,"Shape_Length":19.61437180013681,"Shape_Area":20.199928024559554,"Governorate":"Al Batinah South","Wilayat":"Barka","Latitude":23.64548948,"Longitude":57.89188234,"Pen_ID":"AP_058"}},{"type":"Feature","id":59,"geometry":{"type":"Polygon","coordinates":[[[57.89286211185454,23.644499278373083],[57.892631119606826,23.64452339950673],[57.89262489068115,23.644452529091097],[57.89267732701854,23.64444624175397],[57.892696972743956,23.64443208577008],[57.892722708578816,23.644431476977317],[57.89274290582565,23.64442491459054],[57.89279236970513,23.644422557874517],[57.89285259731662,23.644422902040887],[57.89286211185454,23.644499278373083]]]},"properties":{"OBJECTID":59,"Shape_Length":64.03945572996071,"Shape_Area":207.7486425973596,"Governorate":"Al Batinah South","Wilayat":"Barka","Latitude":23.64447137,"Longitude":57.89274488,"Pen_ID":"AP_059"}},{"type":"Feature","id":60,"geometry":{"type":"Polygon","coordinates":[[[57.89246379985725,23.64454001679216],[57.89217511582033,23.64456953440573],[57.892164341675354,23.644458716483747],[57.89230750760977,23.64445090287325],[57.89230386755987,23.644429974196772],[57.89242167178968,23.6444081163158],[57.89242597867649,23.644490508129536],[57.89245793810957,23.644486410645115],[57.89246379985725,23.64454001679216]]]},"properties":{"OBJECTID":60,"Shape_Length":89.56711484157049,"Shape_Area":364.3733214522588,"Governorate":"Al Batinah South","Wilayat":"Barka","Latitude":23.64449726,"Longitude":57.89231154,"Pen_ID":"AP_060"}},{"type":"Feature","id":61,"geometry":{"type":"Polygon","coordinates":[[[57.89217699986719,23.64456934202326],[57.89207622380828,23.64457954266183],[57.89206192146218,23.64446037330772],[57.89216304209888,23.644447359953027],[57.89217699986719,23.64456934202326]]]},"properties":{"OBJECTID":61,"Shape_Length":47.610813835456376,"Shape_Area":139.31378038001566,"Governorate":"Al Batinah South","Wilayat":"Barka","Latitude":23.64451407,"Longitude":57.89211973,"Pen_ID":"AP_061"}},{"type":"Feature","id":62,"geometry":{"type":"Polygon","coordinates":[[[57.89059684184892,23.64430999583083],[57.890546402053374,23.64401862457282],[57.89061506481338,23.644009956949493],[57.8906275995638,23.644082261661964],[57.89066709405212,23.644080856146644],[57.89070680210395,23.644296416930406],[57.89059684184892,23.64430999583083]]]},"properties":{"OBJECTID":62,"Shape_Length":87.40005566326806,"Shape_Area":331.5470341247712,"Governorate":"Al Batinah South","Wilayat":"Barka","Latitude":23.64416952,"Longitude":57.89062445,"Pen_ID":"AP_062"}},{"type":"Feature","id":63,"geometry":{"type":"Polygon","coordinates":[[[57.89166037639015,23.64177422900112],[57.89162718040066,23.64163260724665],[57.892182223860786,23.64152627813877],[57.89220332737002,23.64165346581334],[57.89200240018921,23.641688463526748],[57.89191328631425,23.641703018975928],[57.891918696441785,23.641726930683205],[57.89166037639015,23.64177422900112]]]},"properties":{"OBJECTID":63,"Shape_Length":147.77187973697954,"Shape_Area":859.7043098136132,"Governorate":"Al Batinah South","Wilayat":"Barka","Latitude":23.64164799,"Longitude":57.89190872,"Pen_ID":"AP_063"}},{"type":"Feature","id":64,"geometry":{"type":"Polygon","coordinates":[[[57.89865307175123,23.638383644986188],[57.898340831196464,23.63838578806263],[57.898339952627914,23.638289803358845],[57.89857104273027,23.638289128505665],[57.89856754530631,23.638346800627204],[57.89865282296426,23.63834720249865],[57.89865307175123,23.638383644986188]]]},"properties":{"OBJECTID":64,"Shape_Length":85.17985387317522,"Shape_Area":281.8711223435497,"Governorate":"Al Batinah South","Wilayat":"Barka","Latitude":23.63834067,"Longitude":57.89847401,"Pen_ID":"AP_064"}},{"type":"Feature","id":65,"geometry":{"type":"Polygon","coordinates":[[[57.89926587424795,23.638382183924517],[57.899072288770455,23.63838193159359],[57.899072442316985,23.63834369574117],[57.89926521055479,23.63834200461986],[57.89926587424795,23.638382183924517]]]},"properties":{"OBJECTID":65,"Shape_Length":48.09317754765606,"Shape_Area":85.54198428431867,"Governorate":"Al Batinah South","Wilayat":"Barka","Latitude":23.63836246,"Longitude":57.89916975,"Pen_ID":"AP_065"}},{"type":"Feature","id":66,"geometry":{"type":"Polygon","coordinates":[[[57.89931840799375,23.63814589518917],[57.89893648041349,23.63814777966887],[57.89891954996056,23.638133078040546],[57.898914256863584,23.637886565314],[57.89931922763686,23.637886308524497],[57.89931840799375,23.63814589518917]]]},"properties":{"OBJECTID":66,"Shape_Length":138.68156405431122,"Shape_Area":1180.3695511063418,"Governorate":"Al Batinah South","Wilayat":"Barka","Latitude":23.63801616,"Longitude":57.89911794,"Pen_ID":"AP_066"}},{"type":"Feature","id":67,"geometry":{"type":"Polygon","coordinates":[[[57.89889750858082,23.63813097399424],[57.89887957844274,23.63814904878881],[57.898412888167364,23.638149840816478],[57.89840704578323,23.637888209031647],[57.89889420536316,23.63789030153528],[57.89889750858082,23.63813097399424]]]},"properties":{"OBJECTID":67,"Shape_Length":155.6318370420498,"Shape_Area":1426.2098663998024,"Governorate":"Al Batinah South","Wilayat":"Barka","Latitude":23.63801908,"Longitude":57.89865221,"Pen_ID":"AP_067"}},{"type":"Feature","id":68,"geometry":{"type":"Polygon","coordinates":[[[57.89940242098336,23.638308029206357],[57.89891970732432,23.63831246344456],[57.89891987246803,23.638184756100124],[57.898936982710076,23.638168216065896],[57.89937004003059,23.638164940425135],[57.89937219328779,23.638267589616966],[57.899403110761575,23.638267219752574],[57.89940242098336,23.638308029206357]]]},"properties":{"OBJECTID":68,"Shape_Length":129.12621578119274,"Shape_Area":745.6991398179455,"Governorate":"Al Batinah South","Wilayat":"Barka","Latitude":23.63823965,"Longitude":57.89915046,"Pen_ID":"AP_068"}},{"type":"Feature","id":69,"geometry":{"type":"Polygon","coordinates":[[[57.90015920449475,23.63767859701226],[57.9001588102567,23.637685889891134],[57.900134156904315,23.6376851713256],[57.900135642174,23.637637859668683],[57.90013526740565,23.637630795245265],[57.90017124537252,23.637632287152297],[57.90017101902815,23.63763775279629],[57.900175127806456,23.637637760561024],[57.90017290101547,23.637678708996336],[57.90015920449475,23.63767859701226]]]},"properties":{"OBJECTID":69,"Shape_Length":19.983145975054725,"Shape_Area":22.44664162414272,"Governorate":"Al Batinah South","Wilayat":"Barka","Latitude":23.63765756,"Longitude":57.90015364,"Pen_ID":"AP_069"}},{"type":"Feature","id":70,"geometry":{"type":"Polygon","coordinates":[[[57.900416173155364,23.63452993336262],[57.900128689300836,23.634459889103148],[57.90012156858535,23.634443616908463],[57.900415904903795,23.63443681095694],[57.900416173155364,23.63452993336262]]]},"properties":{"OBJECTID":70,"Shape_Length":72.62042886228758,"Shape_Area":178.39436496091375,"Governorate":"Al Batinah South","Wilayat":"Barka","Latitude":23.63447114,"Longitude":57.90030522,"Pen_ID":"AP_070"}},{"type":"Feature","id":71,"geometry":{"type":"Polygon","coordinates":[[[57.90091387566003,23.63453791881169],[57.90045021033772,23.634544350380228],[57.90045076158071,23.634409078313826],[57.90091443242992,23.634403667333924],[57.90091387566003,23.63453791881169]]]},"properties":{"OBJECTID":71,"Shape_Length":124.4457885296348,"Shape_Area":705.6798445137676,"Governorate":"Al Batinah South","Wilayat":"Barka","Latitude":23.63447376,"Longitude":57.90068203,"Pen_ID":"AP_071"}},{"type":"Feature","id":73,"geometry":{"type":"Polygon","coordinates":[[[57.90059279886856,23.63466304782897],[57.90052825256928,23.634615134139796],[57.900556821390325,23.634580817555822],[57.90062136173275,23.63462786149092],[57.90059279886856,23.63466304782897]]]},"properties":{"OBJECTID":73,"Shape_Length":26.50358589063285,"Shape_Area":40.65067337009479,"Governorate":"Al Batinah South","Wilayat":"Barka","Latitude":23.6346218,"Longitude":57.90057488,"Pen_ID":"AP_073"}},{"type":"Feature","id":74,"geometry":{"type":"Polygon","coordinates":[[[57.9006153240364,23.634677055664245],[57.90061419601235,23.63465030776095],[57.90064559326142,23.63464969011804],[57.90064469864988,23.63469145816237],[57.90062935291272,23.634691547265586],[57.90062926066597,23.634678062191412],[57.9006153240364,23.634677055664245]]]},"properties":{"OBJECTID":74,"Shape_Length":15.277189993953751,"Shape_Area":11.94985719076999,"Governorate":"Al Batinah South","Wilayat":"Barka","Latitude":23.63466792,"Longitude":57.90063153,"Pen_ID":"AP_074"}},{"type":"Feature","id":75,"geometry":{"type":"Polygon","coordinates":[[[57.90151484553593,23.635158632547935],[57.90145770011528,23.635157224216943],[57.90146073467123,23.635117618633757],[57.90151835308834,23.635119240981755],[57.90151484553593,23.635158632547935]]]},"properties":{"OBJECTID":75,"Shape_Length":20.48362591107557,"Shape_Area":25.654280743270675,"Governorate":"Al Batinah South","Wilayat":"Barka","Latitude":23.63513815,"Longitude":57.90148789,"Pen_ID":"AP_075"}},{"type":"Feature","id":76,"geometry":{"type":"Polygon","coordinates":[[[57.90136121581919,23.634996387564122],[57.901358924699814,23.634937671513608],[57.901404939646525,23.634934140865855],[57.90140982911709,23.63499305948516],[57.90136121581919,23.634996387564122]]]},"properties":{"OBJECTID":76,"Shape_Length":22.730401230457073,"Shape_Area":31.56955762908452,"Governorate":"Al Batinah South","Wilayat":"Barka","Latitude":23.63496558,"Longitude":57.90138377,"Pen_ID":"AP_076"}},{"type":"Feature","id":77,"geometry":{"type":"Polygon","coordinates":[[[57.90125115594775,23.634887399065885],[57.901252267256574,23.634842800957262],[57.90128389982416,23.634842182719964],[57.90128444876489,23.63488785772537],[57.90125115594775,23.634887399065885]]]},"properties":{"OBJECTID":77,"Shape_Length":16.62059751804198,"Shape_Area":16.548619056998504,"Governorate":"Al Batinah South","Wilayat":"Barka","Latitude":23.63486525,"Longitude":57.90126801,"Pen_ID":"AP_077"}},{"type":"Feature","id":78,"geometry":{"type":"Polygon","coordinates":[[[57.90142589498611,23.634891386465597],[57.90142559565075,23.634847667235345],[57.90147280375213,23.63484587009135],[57.90147358505807,23.634891109307105],[57.90142589498611,23.634891386465597]]]},"properties":{"OBJECTID":78,"Shape_Length":19.534680792794667,"Shape_Area":23.842721161770722,"Governorate":"Al Batinah South","Wilayat":"Barka","Latitude":23.63486904,"Longitude":57.90144961,"Pen_ID":"AP_078"}},{"type":"Feature","id":79,"geometry":{"type":"Polygon","coordinates":[[[57.901373058171245,23.634792873123985],[57.90136678810775,23.63473921008845],[57.901415426116436,23.634730770684666],[57.90142134523582,23.634787154374887],[57.901373058171245,23.634792873123985]]]},"properties":{"OBJECTID":79,"Shape_Length":22.26262060133393,"Shape_Area":30.60409555095715,"Governorate":"Al Batinah South","Wilayat":"Barka","Latitude":23.63476241,"Longitude":57.90139434,"Pen_ID":"AP_079"}},{"type":"Feature","id":81,"geometry":{"type":"Polygon","coordinates":[[[57.90036190532697,23.641237368374487],[57.900460876634455,23.6412764024298],[57.90043807419804,23.64132578513007],[57.90052915172223,23.64136185101257],[57.90054048463886,23.641336134475743],[57.90060276672739,23.641353824941586],[57.90049591589582,23.64174367172253],[57.90019772442618,23.64162798224971],[57.90020179089032,23.64160143091476],[57.90036190532697,23.641237368374487]]]},"properties":{"OBJECTID":81,"Shape_Length":160.73889856663578,"Shape_Area":1334.6421092008375,"Governorate":"Al Batinah South","Wilayat":"Barka","Latitude":23.64150182,"Longitude":57.90040615,"Pen_ID":"AP_081"}},{"type":"Feature","id":82,"geometry":{"type":"Polygon","coordinates":[[[57.90027589320857,23.641690709645655],[57.90018939019953,23.641676739011857],[57.90019772442618,23.64162798224971],[57.90028419563462,23.641661530710884],[57.90027589320857,23.641690709645655]]]},"properties":{"OBJECTID":82,"Shape_Length":27.33314830934077,"Shape_Area":40.294011985597095,"Governorate":"Al Batinah South","Wilayat":"Barka","Latitude":23.64166315,"Longitude":57.90023341,"Pen_ID":"AP_082"}},{"type":"Feature","id":83,"geometry":{"type":"Polygon","coordinates":[[[57.90027589320857,23.641690709645655],[57.90025264389455,23.64182527790708],[57.90016402806268,23.641811597710863],[57.90018939019953,23.641676739011857],[57.90027589320857,23.641690709645655]]]},"properties":{"OBJECTID":83,"Shape_Length":48.363964151140536,"Shape_Area":137.0081355113461,"Governorate":"Al Batinah South","Wilayat":"Barka","Latitude":23.64175133,"Longitude":57.90022041,"Pen_ID":"AP_083"}},{"type":"Feature","id":84,"geometry":{"type":"Polygon","coordinates":[[[57.90025264389455,23.64182527790708],[57.90023289236709,23.641941177600074],[57.900145481433206,23.641926933129646],[57.90016402806268,23.641811597710863],[57.90025264389455,23.64182527790708]]]},"properties":{"OBJECTID":84,"Shape_Length":44.11836222975314,"Shape_Area":117.94200124707751,"Governorate":"Al Batinah South","Wilayat":"Barka","Latitude":23.64187614,"Longitude":57.90019883,"Pen_ID":"AP_084"}},{"type":"Feature","id":85,"geometry":{"type":"Polygon","coordinates":[[[57.90023289236709,23.641941177600074],[57.900223556259576,23.641989661091237],[57.900303464952856,23.642011463650316],[57.900293007654255,23.64207275643695],[57.90016453535829,23.64206236945847],[57.900161387057246,23.642087994203283],[57.900115416381574,23.64208102374395],[57.900145481433206,23.641926933129646],[57.90023289236709,23.641941177600074]]]},"properties":{"OBJECTID":85,"Shape_Length":67.97325214661092,"Shape_Area":209.14416047419542,"Governorate":"Al Batinah South","Wilayat":"Barka","Latitude":23.64201415,"Longitude":57.90019916,"Pen_ID":"AP_085"}},{"type":"Feature","id":86,"geometry":{"type":"Polygon","coordinates":[[[57.9010631055045,23.641550384755107],[57.901023424483185,23.64178776618771],[57.90086844136875,23.64177507622535],[57.90091471416171,23.641530860895188],[57.9010631055045,23.641550384755107]]]},"properties":{"OBJECTID":86,"Shape_Length":85.20173405365364,"Shape_Area":420.3290873880921,"Governorate":"Al Batinah South","Wilayat":"Barka","Latitude":23.64166168,"Longitude":57.90096691,"Pen_ID":"AP_086"}},{"type":"Feature","id":87,"geometry":{"type":"Polygon","coordinates":[[[57.89454851479169,23.643638988147575],[57.89443532718431,23.64330781971618],[57.894553002672275,23.643257563621585],[57.894599894172686,23.643349924828836],[57.89464273789484,23.643333151889042],[57.894692166632645,23.643451591740998],[57.89473557066276,23.643586592100867],[57.89454851479169,23.643638988147575]]]},"properties":{"OBJECTID":87,"Shape_Length":117.29009442203669,"Shape_Area":724.3913051412253,"Governorate":"Al Batinah South","Wilayat":"Barka","Latitude":23.64345578,"Longitude":57.89458281,"Pen_ID":"AP_087"}},{"type":"Feature","id":88,"geometry":{"type":"Polygon","coordinates":[[[57.89434077998912,23.64321877798237],[57.89412992606164,23.642895130747643],[57.894215868197776,23.64282940189085],[57.89436587569653,23.64295204517066],[57.89438460132653,23.64299847070339],[57.8944236268834,23.64311436132442],[57.89434269744191,23.64315353363256],[57.89437467002811,23.643204230746928],[57.89434077998912,23.64321877798237]]]},"properties":{"OBJECTID":88,"Shape_Length":112.19225908515794,"Shape_Area":573.5843531135952,"Governorate":"Al Batinah South","Wilayat":"Barka","Latitude":23.6430064,"Longitude":57.89428663,"Pen_ID":"AP_088"}},{"type":"Feature","id":89,"geometry":{"type":"Polygon","coordinates":[[[57.89471384615428,23.643648240406005],[57.89474967918488,23.643644182425756],[57.894768680644816,23.643688458512283],[57.89480479734218,23.6437910057339],[57.89476483177321,23.643801978050412],[57.89471384615428,23.643648240406005]]]},"properties":{"OBJECTID":89,"Shape_Length":42.942894218366874,"Shape_Area":70.7977505241487,"Governorate":"Al Batinah South","Wilayat":"Barka","Latitude":23.64372297,"Longitude":57.89475932,"Pen_ID":"AP_089"}},{"type":"Feature","id":90,"geometry":{"type":"Polygon","coordinates":[[[57.8858301935029,23.6332502870696],[57.8858153785584,23.633254065751583],[57.885831743110266,23.633385464379817],[57.88573981261618,23.633435576714426],[57.88575516106405,23.6335264004659],[57.885578800691405,23.633598837737903],[57.88554536504186,23.633604065756593],[57.885533473937336,23.63355311379161],[57.8855558724276,23.6335478160164],[57.88547896400757,23.63323576299052],[57.88580397278856,23.633162477963193],[57.8858301935029,23.6332502870696]]]},"properties":{"OBJECTID":90,"Shape_Length":148.21592970289922,"Shape_Area":1160.4693695289077,"Governorate":"Al Batinah South","Wilayat":"Barka","Latitude":23.63336328,"Longitude":57.88565794,"Pen_ID":"AP_090"}},{"type":"Feature","id":91,"geometry":{"type":"Polygon","coordinates":[[[57.886332730873946,23.635775737970118],[57.88646454778826,23.63574851555735],[57.886475104719246,23.635783669993597],[57.88634811500836,23.635819331405767],[57.886332730873946,23.635775737970118]]]},"properties":{"OBJECTID":91,"Shape_Length":36.43566582367994,"Shape_Area":62.1504059158884,"Governorate":"Al Batinah South","Wilayat":"Barka","Latitude":23.63578236,"Longitude":57.88640267,"Pen_ID":"AP_091"}},{"type":"Feature","id":92,"geometry":{"type":"Polygon","coordinates":[[[57.88371234011341,23.645705757887853],[57.88356026694377,23.64540768347994],[57.88364753969294,23.645371445747013],[57.883794532871825,23.645674259193836],[57.88371234011341,23.645705757887853]]]},"properties":{"OBJECTID":92,"Shape_Length":92.03732797072107,"Shape_Area":344.68973267435075,"Governorate":"Al Batinah South","Wilayat":"Barka","Latitude":23.64553793,"Longitude":57.88367781,"Pen_ID":"AP_092"}},{"type":"Feature","id":93,"geometry":{"type":"Polygon","coordinates":[[[57.891446958928185,23.634969331280058],[57.89123100433995,23.63428126499767],[57.89160586101056,23.634235820518732],[57.89180054586547,23.634866000712144],[57.891446958928185,23.634969331280058]]]},"properties":{"OBJECTID":93,"Shape_Length":228.25507183694475,"Shape_Area":2883.8573924609714,"Governorate":"Al Batinah South","Wilayat":"Barka","Latitude":23.6345882,"Longitude":57.89151826,"Pen_ID":"AP_093"}}]}