{"type": "FeatureCollection", "features": [{"type": "Feature", "id": 1, "geometry": {"type": "Polygon", "coordinates": [[[57.883778719663674, 23.6395119607343], [57.88500993405845, 23.639302158321733], [57.88546472135726, 23.64122424870138], [57.884216343529516, 23.64142789650739], [57.883778719663674, 23.6395119607343]]]}, "properties": {"OBJECTID": 1, "Shape_Length": 691.6233216942904, "Shape_Area": 27911.42566482433, "Farm_ID": "B14", "LC_ID": "LC_001", "Gov_Name": "North Al Batinah", "Wil_Name": "Barka", "LC_Type_EN": "Agricultural", "LC_Type_AR": "زراعي", "Latitude": 23.64036844, "Longitude": 57.88461835}}, {"type": "Feature", "id": 2, "geometry": {"type": "Polygon", "coordinates": [[[57.884112367144645, 23.641463642662703], [57.88268881613555, 23.64165733280557], [57.882395569458666, 23.639690028815227], [57.88371492168718, 23.63953278893006], [57.884112367144645, 23.641463642662703]]]}, "properties": {"OBJECTID": 2, "Shape_Length": 719.935033438641, "Shape_Area": 30872.961143345226, "Farm_ID": "B14", "LC_ID": "LC_002", "Gov_Name": "North Al Batinah", "Wil_Name": "Barka", "LC_Type_EN": "Agricultural", "LC_Type_AR": "زراعي", "Latitude": 23.64059893, "Longitude": 57.88322886}}, {"type": "Feature", "id": 3, "geometry": {"type": "Polygon", "coordinates": [[[57.883836678344835, 23.63943329882188], [57.88294785219838, 23.63565225409553], [57.884250668357296, 23.635340659642658], [57.88501268071125, 23.639243046438768], [57.883836678344835, 23.63943329882188]]]}, "properties": {"OBJECTID": 3, "Shape_Length": 1126.4400095096262, "Shape_Area": 56114.59058243037, "Farm_ID": "B14", "LC_ID": "LC_003", "Gov_Name": "North Al Batinah", "Wil_Name": "Barka", "LC_Type_EN": "Agricultural", "LC_Type_AR": "زراعي", "Latitude": 23.63737896, "Longitude": 57.8840063}}, {"type": "Feature", "id": 4, "geometry": {"type": "Polygon", "coordinates": [[[57.882888208647266, 23.63566707729144], [57.88370802405965, 23.639454426162203], [57.88240727532449, 23.639649087090774], [57.8816324917515, 23.635969702156515], [57.882888208647266, 23.63566707729144]]]}, "properties": {"OBJECTID": 4, "Shape_Length": 1109.386181702342, "Shape_Area": 56134.496041580016, "Farm_ID": "B14", "LC_ID": "LC_004", "Gov_Name": "North Al Batinah", "Wil_Name": "Barka", "LC_Type_EN": "Agricultural", "LC_Type_AR": "زراعي", "Latitude": 23.63768958, "Longitude": 57.88266329}}, {"type": "Feature", "id": 5, "geometry": {"type": "Polygon", "coordinates": [[[57.88287130986614, 23.635608693201956], [57.881619442935545, 23.63592867718674], [57.88103659485861, 23.633937484413593], [57.8823980320381, 23.63360710509297], [57.88287130986614, 23.635608693201956]]]}, "properties": {"OBJECTID": 5, "Shape_Length": 731.2869082005599, "Shape_Area": 31401.05839589135, "Farm_ID": "B14", "LC_ID": "LC_005", "Gov_Name": "North Al Batinah", "Wil_Name": "Barka", "LC_Type_EN": "Agricultural", "LC_Type_AR": "زراعي", "Latitude": 23.63475729, "Longitude": 57.88197693}}, {"type": "Feature", "id": 6, "geometry": {"type": "Polygon", "coordinates": [[[57.88248812162681, 23.633590297980657], [57.883840701693025, 23.633269407610406], [57.88423567673518, 23.635280953397125], [57.88294958462458, 23.635591757049593], [57.88248812162681, 23.633590297980657]]]}, "properties": {"OBJECTID": 6, "Shape_Length": 730.9794748598904, "Shape_Area": 31425.987439937548, "Farm_ID": "B14", "LC_ID": "LC_006", "Gov_Name": "North Al Batinah", "Wil_Name": "Barka", "LC_Type_EN": "Agricultural", "LC_Type_AR": "زراعي", "Latitude": 23.6344249, "Longitude": 57.88337645}}, {"type": "Feature", "id": 7, "geometry": {"type": "Polygon", "coordinates": [[[57.880956920792016, 23.633908402332178], [57.88092376684434, 23.633083657621974], [57.8836739582959, 23.632329649354638], [57.88385135727366, 23.633232500017446], [57.880956920792016, 23.633908402332178]]]}, "properties": {"OBJECTID": 7, "Shape_Length": 790.2552827143066, "Shape_Area": 28384.449929822236, "Farm_ID": "B07", "LC_ID": "LC_007", "Gov_Name": "North Al Batinah", "Wil_Name": "Barka", "LC_Type_EN": "Agricultural", "LC_Type_AR": "زراعي", "Latitude": 23.63313422, "Longitude": 57.88238219}}, {"type": "Feature", "id": 8, "geometry": {"type": "Polygon", "coordinates": [[[57.88089289381515, 23.633038639585696], [57.88075093140825, 23.631181596113862], [57.883179398054075, 23.630157310574212], [57.88366534330812, 23.632281323120374], [57.88089289381515, 23.633038639585696]], [[57.88238423783469, 23.63210769412029], [57.88229971454714, 23.632125813451648], [57.8822035061877, 23.632150152684492], [57.88222793133753, 23.632229339912442], [57.882405545908746, 23.63218458234422], [57.882390183555415, 23.632130663867322], [57.88238423783469, 23.63210769412029]], [[57.88251207292992, 23.63207170694064], [57.88247643093061, 23.632080611121253], [57.88248437722919, 23.632110851071293], [57.88251813915079, 23.6321029989727], [57.88251207292992, 23.63207170694064]], [[57.88261147995519, 23.63204736286754], [57.88254730616646, 23.63206046850253], [57.88256481878444, 23.632124822931534], [57.88262979549343, 23.63210996232124], [57.88261147995519, 23.63204736286754]], [[57.88313590447321, 23.630282015357214], [57.88290507117898, 23.63032266266196], [57.88293755338326, 23.630498168928824], [57.88317413065049, 23.630464829165344], [57.88313590447321, 23.630282015357214]]]}, "properties": {"OBJECTID": 8, "Shape_Length": 1200.660179473852, "Shape_Area": 60901.27763598213, "Farm_ID": "B08", "LC_ID": "LC_008", "Gov_Name": "North Al Batinah", "Wil_Name": "Barka", "LC_Type_EN": "Agricultural", "LC_Type_AR": "زراعي", "Latitude": 23.63167778, "Longitude": 57.88215697}}, {"type": "Feature", "id": 9, "geometry": {"type": "Polygon", "coordinates": [[[57.88657198204915, 23.63380989484748], [57.88433779950703, 23.634192626258443], [57.883927999986106, 23.632325178974842], [57.88618360751161, 23.631922439690737], [57.88657198204915, 23.63380989484748]], [[57.885890202744655, 23.63350319656305], [57.88578527896069, 23.633526818271736], [57.885824784943885, 23.63368480405194], [57.885927256692, 23.633664340350546], [57.885890202744655, 23.63350319656305]], [[57.88422641379594, 23.633274610219775], [57.88419682492402, 23.63327953241509], [57.88421306968098, 23.633365011530056], [57.884241885453825, 23.633358684748966], [57.884243364474564, 23.633379804834586], [57.884289951553846, 23.633372850174784], [57.88426395054336, 23.633286369040345], [57.88422957540691, 23.63329008656378], [57.88422641379594, 23.633274610219775]], [[57.885807226513414, 23.633157812429122], [57.88546452541013, 23.6332417143918], [57.88554476633767, 23.633601047073984], [57.885842267599614, 23.633408567692925], [57.885807226513414, 23.633157812429122]], [[57.88424949839246, 23.633031933764254], [57.88420432124019, 23.633043572487725], [57.88421134972473, 23.6330703538008], [57.884255802688855, 23.63306006948475], [57.88424949839246, 23.633031933764254]]]}, "properties": {"OBJECTID": 9, "Shape_Length": 1143.3512835787537, "Shape_Area": 47898.325635631576, "Farm_ID": "B04", "LC_ID": "LC_009", "Gov_Name": "North Al Batinah", "Wil_Name": "Barka", "LC_Type_EN": "Agricultural", "LC_Type_AR": "زراعي", "Latitude": 23.63305063, "Longitude": 57.88524598}}, {"type": "Feature", "id": 10, "geometry": {"type": "Polygon", "coordinates": [[[57.884038284171, 23.63224541949444], [57.88403779254848, 23.63224374234711], [57.88402736769137, 23.6321954083858], [57.88404753736091, 23.63219064016282], [57.884024020994275, 23.632110739960876], [57.88393349392432, 23.632130101064615], [57.883940497718136, 23.632157747800353], [57.88387409457252, 23.632171703047508], [57.8832519537977, 23.62973090378235], [57.88532939476724, 23.62923475905208], [57.8861561163278, 23.631842055852296], [57.884038284171, 23.63224541949444]]]}, "properties": {"OBJECTID": 10, "Shape_Length": 1054.3811290318988, "Shape_Area": 66644.98213135157, "Farm_ID": "B06", "LC_ID": "LC_010", "Gov_Name": "North Al Batinah", "Wil_Name": "Barka", "LC_Type_EN": "Agricultural", "LC_Type_AR": "زراعي", "Latitude": 23.63077888, "Longitude": 57.88467269}}, {"type": "Feature", "id": 11, "geometry": {"type": "Polygon", "coordinates": [[[57.887260509573615, 23.634100348982585], [57.88735135468419, 23.635073096080877], [57.88463486726897, 23.635559211391563], [57.884318267575075, 23.634499063579728], [57.884468271808515, 23.634331121183067], [57.88695648869204, 23.633839522691204], [57.887260509573615, 23.634100348982585]]]}, "properties": {"OBJECTID": 11, "Shape_Length": 838.1608611995721, "Shape_Area": 40460.292646392576, "Farm_ID": "B05", "LC_ID": "LC_011", "Gov_Name": "North Al Batinah", "Wil_Name": "Barka", "LC_Type_EN": "Agricultural", "LC_Type_AR": "زراعي", "Latitude": 23.63469636, "Longitude": 57.88587211}}, {"type": "Feature", "id": 12, "geometry": {"type": "Polygon", "coordinates": [[[57.88474799843971, 23.636412747443575], [57.884631099199204, 23.635598666504016], [57.88733235831954, 23.635092429313524], [57.88729171056056, 23.63532162060901], [57.887301754379635, 23.63573517793084], [57.887565794491465, 23.636956583820805], [57.884988381732924, 23.63744121744955], [57.88474799843971, 23.636412747443575]], [[57.8870641747315, 23.635612092483665], [57.88668051706029, 23.63569924815073], [57.88618869236883, 23.635808290322757], [57.88632027900556, 23.636389903105005], [57.88719534322352, 23.636192219273678], [57.8870641747315, 23.635612092483665]]]}, "properties": {"OBJECTID": 12, "Shape_Length": 1281.5247188243748, "Shape_Area": 50018.884933402995, "Farm_ID": "B05", "LC_ID": "LC_012", "Gov_Name": "North Al Batinah", "Wil_Name": "Barka", "LC_Type_EN": "Agricultural", "LC_Type_AR": "زراعي", "Latitude": 23.63630851, "Longitude": 57.88601641}}, {"type": "Feature", "id": 13, "geometry": {"type": "Polygon", "coordinates": [[[57.888508527457844, 23.63923311428359], [57.888760170319344, 23.640687713183492], [57.88857465210796, 23.64071264594203], [57.88585710491995, 23.641153866991313], [57.885547377623034, 23.639405201725772], [57.88827317700637, 23.638912223442787], [57.888508527457844, 23.63923311428359]]]}, "properties": {"OBJECTID": 13, "Shape_Length": 986.0738260134515, "Shape_Area": 59563.30811514432, "Farm_ID": "B03", "LC_ID": "LC_014", "Gov_Name": "North Al Batinah", "Wil_Name": "Barka", "LC_Type_EN": "Agricultural", "LC_Type_AR": "زراعي", "Latitude": 23.64003522, "Longitude": 57.8871525}}, {"type": "Feature", "id": 14, "geometry": {"type": "Polygon", "coordinates": [[[57.883036239255084, 23.64357680080115], [57.88267372420164, 23.64175138647837], [57.88547498397341, 23.64131005344416], [57.885823073180575, 23.64315512412161], [57.883036239255084, 23.64357680080115]]]}, "properties": {"OBJECTID": 14, "Shape_Length": 990.757319403013, "Shape_Area": 59641.5890710367, "Farm_ID": "B13", "LC_ID": "LC_015", "Gov_Name": "North Al Batinah", "Wil_Name": "Barka", "LC_Type_EN": "Agricultural", "LC_Type_AR": "زراعي", "Latitude": 23.64244705, "Longitude": 57.88425397}}, {"type": "Feature", "id": 15, "geometry": {"type": "Polygon", "coordinates": [[[57.88329877733087, 23.644487008154723], [57.88302745108995, 23.643592331646847], [57.88586497491145, 23.643151756985088], [57.88599212268443, 23.643803745623494], [57.88329877733087, 23.644487008154723]], [[57.884431014357034, 23.6435184598818], [57.88423025560261, 23.6435479245252], [57.884255678031884, 23.643688331476362], [57.88445473466602, 23.643659402164552], [57.884431014357034, 23.6435184598818]]]}, "properties": {"OBJECTID": 15, "Shape_Length": 827.4911614607963, "Shape_Area": 25090.634997553825, "Farm_ID": "B13", "LC_ID": "LC_016", "Gov_Name": "North Al Batinah", "Wil_Name": "Barka", "LC_Type_EN": "Agricultural", "LC_Type_AR": "زراعي", "Latitude": 23.64377475, "Longitude": 57.88446998}}, {"type": "Feature", "id": 16, "geometry": {"type": "Polygon", "coordinates": [[[57.88600515988324, 23.6438760632574], [57.88625951708061, 23.645121866491944], [57.88477065932689, 23.64546399820678], [57.884669835858425, 23.64522307942208], [57.884423016761964, 23.644621582707277], [57.88429102225959, 23.644330640811766], [57.88600515988324, 23.6438760632574]]]}, "properties": {"OBJECTID": 16, "Shape_Length": 613.507488562514, "Shape_Area": 23115.88380344089, "Farm_ID": "B02", "LC_ID": "LC_017", "Gov_Name": "North Al Batinah", "Wil_Name": "Barka", "LC_Type_EN": "Agricultural", "LC_Type_AR": "زراعي", "Latitude": 23.64468155, "Longitude": 57.88533471}}, {"type": "Feature", "id": 17, "geometry": {"type": "Polygon", "coordinates": [[[57.88491089933119, 23.64775146827855], [57.88400414185599, 23.645808027228227], [57.8862343600496, 23.645179332551407], [57.886673324068, 23.647320990496002], [57.88491089933119, 23.64775146827855]], [[57.88536607431482, 23.64604730891749], [57.88531666960388, 23.64605756049489], [57.885332150890385, 23.646118361101298], [57.885383096468054, 23.646107030432006], [57.88536607431482, 23.64604730891749]], [[57.88535723991303, 23.64594054010255], [57.88528702207076, 23.645959456556366], [57.88530532801482, 23.64603804394834], [57.885372858722924, 23.646021633845425], [57.88535723991303, 23.64594054010255]], [[57.88506113521418, 23.64590072776368], [57.884993472911496, 23.645917977551296], [57.885020872778846, 23.646019683684806], [57.885024327878654, 23.64601852503284], [57.88508633624172, 23.646006548754965], [57.88506113521418, 23.64590072776368]], [[57.88483463971978, 23.6457203993132], [57.88464969142686, 23.645776890120935], [57.88472189429066, 23.645970678109055], [57.88489865245845, 23.645927189405327], [57.88483463971978, 23.6457203993132]]]}, "properties": {"OBJECTID": 17, "Shape_Length": 1078.8787341496834, "Shape_Area": 49441.415029608004, "Farm_ID": "B12", "LC_ID": "LC_018", "Gov_Name": "North Al Batinah", "Wil_Name": "Barka", "LC_Type_EN": "Agricultural", "LC_Type_AR": "زراعي", "Latitude": 23.64647911, "Longitude": 57.88545444}}, {"type": "Feature", "id": 18, "geometry": {"type": "Polygon", "coordinates": [[[57.889607851776, 23.644337701814234], [57.88981299587276, 23.645482862037582], [57.88735602833993, 23.645989840695986], [57.887301710828034, 23.645680350680664], [57.886659685313795, 23.645778995298524], [57.8865271432068, 23.64486863380483], [57.88792310667537, 23.644629045198975], [57.889607851776, 23.644337701814234]], [[57.88702469796546, 23.645466117739623], [57.88671813492468, 23.64550825307211], [57.88672723309219, 23.64559158955858], [57.8870315748215, 23.645557331042337], [57.88702469796546, 23.645466117739623]], [[57.887301820501676, 23.645339944376293], [57.88719880077168, 23.645353288797093], [57.88720944783515, 23.64541968687434], [57.887307733300865, 23.645406368633605], [57.887301820501676, 23.645339944376293]], [[57.8879620372214, 23.6450236608665], [57.88761632373053, 23.645069070425677], [57.88764233161589, 23.645266615871005], [57.88765764756275, 23.645265409133273], [57.887925634195796, 23.64524004394156], [57.887915608489855, 23.645129635025814], [57.88796894376054, 23.645124412603565], [57.8879620372214, 23.6450236608665]]]}, "properties": {"OBJECTID": 18, "Shape_Length": 1141.2540685531656, "Shape_Area": 39605.89597098382, "Farm_ID": "B01", "LC_ID": "LC_019", "Gov_Name": "North Al Batinah", "Wil_Name": "Barka", "LC_Type_EN": "Agricultural", "LC_Type_AR": "زراعي", "Latitude": 23.64516477, "Longitude": 57.88823126}}, {"type": "Feature", "id": 19, "geometry": {"type": "Polygon", "coordinates": [[[57.89313553283474, 23.645849223712226], [57.892769538572004, 23.643530567785426], [57.89282568023271, 23.643519327625555], [57.89280535161371, 23.643385398689553], [57.89274834083235, 23.64339627172791], [57.89274770151464, 23.64339221193113], [57.892666476652025, 23.642927712562322], [57.89301800257948, 23.64286617884217], [57.893156162756846, 23.64336341426409], [57.893110890521804, 23.643369378694715], [57.893118183556275, 23.64340719142583], [57.89316458302694, 23.643401478814077], [57.89317018745902, 23.64341554902989], [57.89351979622587, 23.643328093544103], [57.89347478732347, 23.64320821341917], [57.89368513282897, 23.64313692056268], [57.89367608182373, 23.643084244167216], [57.893754005863016, 23.643063605033753], [57.89377944142036, 23.643141674264065], [57.89400895856769, 23.643099679422278], [57.894044843456776, 23.64321627467977], [57.894096829968404, 23.64320346026848], [57.89437542557076, 23.643220624805657], [57.89456978681095, 23.643668983384792], [57.89467831678065, 23.643647499755595], [57.89490164607741, 23.64414183676559], [57.89516200894736, 23.644858613451923], [57.895377355413565, 23.64534238947228], [57.89516881511862, 23.64546640277463], [57.89493744343382, 23.645535816668556], [57.89444924622167, 23.64566077539045], [57.89408529345218, 23.645730952769703], [57.893507661036914, 23.645809036289425], [57.89313553283474, 23.645849223712226]], [[57.89462846505534, 23.64367236331851], [57.89453013918534, 23.64369600629745], [57.89457724738089, 23.64384257874663], [57.89461136095241, 23.64383608847645], [57.89467503940584, 23.643824183671086], [57.89462846505534, 23.64367236331851]], [[57.89317750617025, 23.643439518330474], [57.89311399212605, 23.643453107839317], [57.8931343831289, 23.64351340334446], [57.89319313681848, 23.643503211069287], [57.89317750617025, 23.643439518330474]]]}, "properties": {"OBJECTID": 19, "Shape_Length": 1200.7917460268582, "Shape_Area": 58095.35081827704, "Farm_ID": "B19", "LC_ID": "LC_020", "Gov_Name": "North Al Batinah", "Wil_Name": "Barka", "LC_Type_EN": "Agricultural", "LC_Type_AR": "زراعي", "Latitude": 23.64448534, "Longitude": 57.89390854}}, {"type": "Feature", "id": 20, "geometry": {"type": "Polygon", "coordinates": [[[57.8927303075653, 23.643680626580817], [57.891481369367604, 23.643826222017225], [57.89130821963123, 23.642640717746062], [57.89124648207642, 23.642216622823263], [57.89127745796598, 23.642110071780007], [57.89139272948555, 23.64196482108209], [57.89144253836698, 23.641925235802294], [57.89147305074254, 23.64191181864333], [57.89219352330689, 23.641741389639275], [57.8924195727481, 23.64168650595512], [57.892421472107294, 23.6417082421767], [57.8927303075653, 23.643680626580817]]]}, "properties": {"OBJECTID": 20, "Shape_Length": 673.2936117623603, "Shape_Area": 27121.33498204063, "Farm_ID": "B18", "LC_ID": "LC_021", "Gov_Name": "North Al Batinah", "Wil_Name": "Barka", "LC_Type_EN": "Agricultural", "LC_Type_AR": "زراعي", "Latitude": 23.6428006, "Longitude": 57.89197463}}, {"type": "Feature", "id": 21, "geometry": {"type": "Polygon", "coordinates": [[[57.89142692864319, 23.643831987582708], [57.89048548014915, 23.643943469058247], [57.8901088379338, 23.642155396450228], [57.89055246346823, 23.642076359581026], [57.89058464263418, 23.642120892928844], [57.89073856654044, 23.6420950373095], [57.890772895871706, 23.64225372677646], [57.89093543148899, 23.64222203742382], [57.89118968855123, 23.64217743348581], [57.89124738496006, 23.64261793202719], [57.89130569344586, 23.643003110757736], [57.89142692864319, 23.643831987582708]]]}, "properties": {"OBJECTID": 21, "Shape_Length": 612.5071661349677, "Shape_Area": 19919.019031653563, "Farm_ID": "B18", "LC_ID": "LC_022", "Gov_Name": "North Al Batinah", "Wil_Name": "Barka", "LC_Type_EN": "Agricultural", "LC_Type_AR": "زراعي", "Latitude": 23.64300425, "Longitude": 57.89078565}}, {"type": "Feature", "id": 22, "geometry": {"type": "Polygon", "coordinates": [[[57.89091318461538, 23.646058979412096], [57.89053632874127, 23.643974651619242], [57.891353710753634, 23.643888527644286], [57.89140788386649, 23.644202206850984], [57.89167748007234, 23.644162639490947], [57.89186852229777, 23.64532640944753], [57.89196283230458, 23.645906673199672], [57.89091318461538, 23.646058979412096]], [[57.89159418308716, 23.644931526694958], [57.89133563953246, 23.644976443263843], [57.89139491568877, 23.645191616756765], [57.89162857902397, 23.645150122652847], [57.89159418308716, 23.644931526694958]]]}, "properties": {"OBJECTID": 22, "Shape_Length": 784.6908384765887, "Shape_Area": 23926.559785557885, "Farm_ID": "B17", "LC_ID": "LC_023", "Gov_Name": "North Al Batinah", "Wil_Name": "Barka", "LC_Type_EN": "Agricultural", "LC_Type_AR": "زراعي", "Latitude": 23.64497867, "Longitude": 57.89124097}}, {"type": "Feature", "id": 23, "geometry": {"type": "Polygon", "coordinates": [[[57.89175199930207, 23.64461658796644], [57.89164978098092, 23.64399662338626], [57.891701150993136, 23.64430685121777], [57.89198280610679, 23.64426144436426], [57.89194517220151, 23.64395846706357], [57.89164978098092, 23.64399662338626], [57.89162768828541, 23.64386263126122], [57.8923649038553, 23.6437883359617], [57.892733275541275, 23.643750760700648], [57.892750555764636, 23.643769029505716], [57.89286064738381, 23.644500908944796], [57.89175199930207, 23.64461658796644]]]}, "properties": {"OBJECTID": 23, "Shape_Length": 524.2782472187738, "Shape_Area": 8602.819960063307, "Farm_ID": "B17", "LC_ID": "LC_024", "Gov_Name": "North Al Batinah", "Wil_Name": "Barka", "LC_Type_EN": "Agricultural", "LC_Type_AR": "زراعي", "Latitude": 23.64418812, "Longitude": 57.89229707}}, {"type": "Feature", "id": 24, "geometry": {"type": "Polygon", "coordinates": [[[57.87823060976574, 23.648969883506552], [57.87715066329303, 23.645755085248762], [57.87717843746363, 23.645748093629717], [57.877183612500346, 23.645759170979723], [57.87723175951856, 23.64574533075611], [57.87787253380888, 23.645532293315828], [57.87830757898877, 23.645408942956028], [57.87856991888025, 23.64531249452871], [57.87865408338749, 23.645288046757287], [57.878386906889716, 23.64448980042672], [57.87831591847459, 23.644274618212375], [57.879974563688165, 23.643956109468004], [57.880194997883464, 23.6439142777088], [57.880467006312344, 23.645361027987423], [57.88110263125255, 23.648424308543888], [57.878238792655715, 23.648997496673644], [57.87823060976574, 23.648969883506552]], [[57.87875447811072, 23.64629882628402], [57.878617546494944, 23.646338935626606], [57.87869878063574, 23.646568709411405], [57.8788328788114, 23.646530187616786], [57.87875447811072, 23.64629882628402]]]}, "properties": {"OBJECTID": 24, "Shape_Length": 1741.42883701511, "Shape_Area": 145749.3786155222, "Farm_ID": "B22", "LC_ID": "LC_025", "Gov_Name": "North Al Batinah", "Wil_Name": "Barka", "LC_Type_EN": "Agricultural", "LC_Type_AR": "زراعي", "Latitude": 23.64661481, "Longitude": 57.87924135}}, {"type": "Feature", "id": 25, "geometry": {"type": "Polygon", "coordinates": [[[57.8822252948868, 23.639765953919465], [57.882342749852164, 23.640534443545224], [57.882489758025585, 23.64156166730504], [57.88252032885484, 23.64162599519164], [57.88274752571505, 23.64314625384032], [57.882758807386494, 23.643235569127736], [57.88259020031019, 23.643272342443357], [57.882180252158335, 23.643364656203868], [57.88214394427928, 23.643372088333344], [57.88210008014978, 23.6433827101779], [57.88200854558168, 23.64340332156504], [57.881903342127195, 23.643424970735797], [57.88185983034163, 23.643264468902338], [57.88175197511079, 23.642865291758234], [57.88168768614979, 23.642612777322306], [57.8816384148915, 23.642313510146533], [57.88148690316318, 23.641988743393966], [57.88136520911567, 23.64173497356528], [57.881239867917905, 23.641436755401678], [57.88117787342215, 23.64126690997555], [57.88104104768035, 23.640910092356624], [57.880994566413165, 23.64083763633864], [57.88096344437247, 23.64081121847161], [57.88087705166863, 23.640785988845348], [57.880737312522015, 23.640753254899685], [57.88066044848474, 23.640575069546188], [57.88054065149575, 23.64034166433103], [57.880585878290354, 23.640240597081625], [57.88075641558457, 23.640071538984607], [57.8822252948868, 23.639765953919465]]]}, "properties": {"OBJECTID": 25, "Shape_Length": 1049.7872423765493, "Shape_Area": 47846.295058152245, "Farm_ID": "B15", "LC_ID": "LC_026", "Gov_Name": "North Al Batinah", "Wil_Name": "Barka", "LC_Type_EN": "Agricultural", "LC_Type_AR": "زراعي", "Latitude": 23.64141694, "Longitude": 57.88183849}}, {"type": "Feature", "id": 26, "geometry": {"type": "Polygon", "coordinates": [[[57.881903342127195, 23.643424970735797], [57.880765697075994, 23.643711711440492], [57.88067983983797, 23.64367052553671], [57.8804232974671, 23.643010234612714], [57.88055983324704, 23.642765474029986], [57.88163979434157, 23.642460013608854], [57.881663049999524, 23.642463143741423], [57.881903342127195, 23.643424970735797]]]}, "properties": {"OBJECTID": 26, "Shape_Length": 465.2013141378967, "Shape_Area": 14147.550293784172, "Farm_ID": "B16", "LC_ID": "LC_027", "Gov_Name": "North Al Batinah", "Wil_Name": "Barka", "LC_Type_EN": "Agricultural", "LC_Type_AR": "زراعي", "Latitude": 23.6431024, "Longitude": 57.88116882}}, {"type": "Feature", "id": 27, "geometry": {"type": "Polygon", "coordinates": [[[57.89070574402518, 23.63166082834007], [57.888914039735575, 23.632138800279073], [57.88741104977619, 23.632483968742143], [57.88727546619876, 23.631885645032483], [57.88699371294537, 23.63047146268506], [57.88686701450067, 23.629810574511115], [57.889740712903944, 23.629094284262717], [57.889990953647555, 23.629650392876293], [57.89070574402518, 23.63166082834007]]]}, "properties": {"OBJECTID": 27, "Shape_Length": 1254.0339881273146, "Shape_Area": 99233.59466478438, "Farm_ID": "B10", "LC_ID": "LC_028", "Gov_Name": "North Al Batinah", "Wil_Name": "Barka", "LC_Type_EN": "Agricultural", "LC_Type_AR": "زراعي", "Latitude": 23.63079699, "Longitude": 57.88869631}}, {"type": "Feature", "id": 28, "geometry": {"type": "Polygon", "coordinates": [[[57.88688112284356, 23.62965084453918], [57.886809331366514, 23.629608289796327], [57.88655889510901, 23.6287565582006], [57.886600359454704, 23.62867871121545], [57.88677383723438, 23.628608999885465], [57.88767129943276, 23.628223717691117], [57.88866243267115, 23.627794578325283], [57.88909491180403, 23.62760309187504], [57.88916731629778, 23.627633704496954], [57.88926774944219, 23.627889929751966], [57.88945511785028, 23.62838215350922], [57.889658391335125, 23.628908932438126], [57.88962231723294, 23.628973534599364], [57.88688112284356, 23.62965084453918]]]}, "properties": {"OBJECTID": 28, "Shape_Length": 852.4835605394958, "Shape_Area": 40038.92674715291, "Farm_ID": "B09", "LC_ID": "LC_029", "Gov_Name": "North Al Batinah", "Wil_Name": "Barka", "LC_Type_EN": "Agricultural", "LC_Type_AR": "زراعي", "Latitude": 23.62870287, "Longitude": 57.88813855}}, {"type": "Feature", "id": 29, "geometry": {"type": "Polygon", "coordinates": [[[57.88766462662077, 23.634834269353803], [57.88741588572563, 23.63272338875146], [57.88862449130186, 23.63247418442054], [57.88992555897156, 23.632207895588483], [57.89053145098338, 23.632092367827802], [57.89080806922499, 23.632041468627396], [57.890831220197, 23.63215254004151], [57.890900712189826, 23.632481060107573], [57.89092557850602, 23.632604531575907], [57.8909926465979, 23.632904650005703], [57.891098384760696, 23.633391388829065], [57.89112001670324, 23.633499994135704], [57.89119988721177, 23.63388254411443], [57.89120925542796, 23.633945845045563], [57.89119667157918, 23.63394929620506], [57.89120259315997, 23.633971211677274], [57.89122423286762, 23.634046320948226], [57.89050748213188, 23.63424113666617], [57.88996604971054, 23.634385223221912], [57.889627730468526, 23.63446143026176], [57.88883671044351, 23.63461977772546], [57.887985609160054, 23.63479840324729], [57.88766462662077, 23.634834269353803]]]}, "properties": {"OBJECTID": 29, "Shape_Length": 1190.3596261227826, "Shape_Area": 85487.9066825856, "Farm_ID": "B11", "LC_ID": "LC_030", "Gov_Name": "North Al Batinah", "Wil_Name": "Barka", "LC_Type_EN": "Agricultural", "LC_Type_AR": "زراعي", "Latitude": 23.63343885, "Longitude": 57.88927493}}, {"type": "Feature", "id": 30, "geometry": {"type": "Polygon", "coordinates": [[[57.901858083764836, 23.636131653423824], [57.901596064203325, 23.636113976602], [57.90160238402671, 23.636044756932975], [57.899097316861095, 23.636061743258587], [57.898467975341894, 23.635207991015907], [57.89840402362073, 23.63511899113384], [57.89827277632064, 23.634939101290406], [57.898226587551356, 23.634875499284924], [57.8982078620317, 23.634850944154827], [57.89819947683194, 23.634593968487785], [57.898195327788024, 23.634451672341235], [57.89981889209478, 23.634417956548667], [57.90057768791517, 23.63440623247697], [57.90242426697694, 23.63439027536256], [57.902641107865925, 23.63438863883722], [57.90235892843704, 23.63515257727405], [57.902029974395134, 23.636041755999475], [57.901857314039724, 23.63604018592411], [57.901858083764836, 23.636131653423824]]]}, "properties": {"OBJECTID": 30, "Shape_Length": 1170.7938677452491, "Shape_Area": 70547.8614609141, "Farm_ID": "B12", "LC_ID": "LC_031", "Gov_Name": "North Al Batinah", "Wil_Name": "Barka", "LC_Type_EN": "Agricultural", "LC_Type_AR": "زراعي", "Latitude": 23.63517784, "Longitude": 57.90043988}}, {"type": "Feature", "id": 31, "geometry": {"type": "Polygon", "coordinates": [[[57.90018031518402, 23.63748066663185], [57.900190146031555, 23.63821178030218], [57.900190962319755, 23.63837759584695], [57.8982159886556, 23.638387846959308], [57.898205317432, 23.63749145030307], [57.89977090132901, 23.637477710751188], [57.90018031518402, 23.63748066663185]]]}, "properties": {"OBJECTID": 31, "Shape_Length": 601.4952668440349, "Shape_Area": 20065.40200295471, "Farm_ID": "B20", "LC_ID": "LC_032", "Gov_Name": "North Al Batinah", "Wil_Name": "Barka", "LC_Type_EN": "Agricultural", "LC_Type_AR": "زراعي", "Latitude": 23.63793311, "Longitude": 57.89919907}}, {"type": "Feature", "id": 32, "geometry": {"type": "Polygon", "coordinates": [[[57.89820771351671, 23.637435567466078], [57.89819940484229, 23.636561227503634], [57.89991406863413, 23.636560777355363], [57.900175599916174, 23.636558407095904], [57.90017968337523, 23.636871281824742], [57.900182620519544, 23.63738740648485], [57.90018180671132, 23.63744172755614], [57.899747492594834, 23.6374391970225], [57.89842711419064, 23.637432164266965], [57.89820771351671, 23.637435567466078]]]}, "properties": {"OBJECTID": 32, "Shape_Length": 597.5726229835008, "Shape_Area": 19547.371431649037, "Farm_ID": "B20", "LC_ID": "LC_033", "Gov_Name": "North Al Batinah", "Wil_Name": "Barka", "LC_Type_EN": "Agricultural", "LC_Type_AR": "زراعي", "Latitude": 23.63699862, "Longitude": 57.89919375}}, {"type": "Feature", "id": 33, "geometry": {"type": "Polygon", "coordinates": [[[57.89974046458969, 23.64421717559618], [57.9000956615093, 23.64220921501421], [57.900195709438236, 23.642223374409696], [57.900209522067236, 23.64214421412364], [57.900110098603655, 23.64212760164713], [57.90020311947233, 23.641601738417442], [57.90024264650208, 23.641511054020064], [57.900392804791444, 23.641170348054153], [57.90052221646707, 23.64087223243973], [57.90059171410182, 23.64071412656113], [57.90166139719212, 23.640781181742412], [57.90188849723392, 23.640793932957358], [57.901828814925715, 23.641106578477707], [57.901573674707564, 23.642502799129602], [57.901512878501755, 23.64284024094823], [57.90140576386398, 23.64342278446495], [57.90133064318171, 23.64383182166928], [57.90132005919782, 23.64388701777532], [57.900011466489964, 23.644159649109017], [57.89974046458969, 23.64421717559618]]]}, "properties": {"OBJECTID": 33, "Shape_Length": 1064.8493124787394, "Shape_Area": 55849.70844492366, "Farm_ID": "B23", "LC_ID": "LC_034", "Gov_Name": "North Al Batinah", "Wil_Name": "Barka", "LC_Type_EN": "Agricultural", "LC_Type_AR": "زراعي", "Latitude": 23.64242701, "Longitude": 57.90082165}}, {"type": "Feature", "id": 34, "geometry": {"type": "Polygon", "coordinates": [[[57.87708535618006, 23.645562617377134], [57.87685701352074, 23.644871950680205], [57.87716107919959, 23.64477502480737], [57.87734637072118, 23.645313956204635], [57.87739190546169, 23.64546727202487], [57.87708535618006, 23.645562617377134]]]}, "properties": {"OBJECTID": 34, "Shape_Length": 225.9492083099678, "Shape_Area": 2655.1715536437855, "Farm_ID": "B22", "LC_ID": "LC_035", "Gov_Name": "North Al Batinah", "Wil_Name": "Barka", "LC_Type_EN": "Agricultural", "LC_Type_AR": "زراعي", "Latitude": 23.64516966, "Longitude": 57.87712547}}, {"type": "Feature", "id": 35, "geometry": {"type": "Polygon", "coordinates": [[[57.8831051802702, 23.63045712812087], [57.88295541826886, 23.630488307283862], [57.8829333622541, 23.630474443170176], [57.8829102652475, 23.63034567009017], [57.88292288061609, 23.630326612149727], [57.88299409532028, 23.63031221717843], [57.882997452026274, 23.630327436842837], [57.883051352338526, 23.63031888654596], [57.88305310257897, 23.63033736235297], [57.883137324071896, 23.6303216441544], [57.883159788582766, 23.630452110681343], [57.88315262606515, 23.630460542173267], [57.88314676000743, 23.63046415346794], [57.88314035627027, 23.630466692017304], [57.8831336091681, 23.630468080791847], [57.883126723434366, 23.630468277650717], [57.88311990800916, 23.63046727662045], [57.883115728831775, 23.630465538365254], [57.88311183186117, 23.63046323604582], [57.88310829276709, 23.630460414367636], [57.8831051802702, 23.63045712812087]]]}, "properties": {"OBJECTID": 35, "Shape_Length": 82.1257405806627, "Shape_Area": 381.069599354737, "Farm_ID": "B08", "LC_ID": "LC_036", "Gov_Name": "North Al Batinah", "Wil_Name": "Barka", "LC_Type_EN": "Residential", "LC_Type_AR": "سكني", "Latitude": 23.63039837, "Longitude": 57.883031}}, {"type": "Feature", "id": 36, "geometry": {"type": "Polygon", "coordinates": [[[57.898619395535796, 23.637029878028443], [57.89861847584489, 23.6369558981033], [57.89881788834268, 23.636955124672912], [57.898815902139646, 23.63702893085978], [57.898759460544866, 23.637029066455383], [57.898758720315136, 23.637133453036746], [57.89865828229018, 23.63713307943432], [57.89866131654281, 23.63703040014701], [57.898619395535796, 23.637029878028443]]]}, "properties": {"OBJECTID": 36, "Shape_Length": 79.91715844112804, "Shape_Area": 281.74615848168327, "Farm_ID": "B20", "LC_ID": "LC_037", "Gov_Name": "North Al Batinah", "Wil_Name": "Barka", "LC_Type_EN": "Residential", "LC_Type_AR": "سكني", "Latitude": 23.63702924, "Longitude": 57.89871437}}, {"type": "Feature", "id": 37, "geometry": {"type": "Polygon", "coordinates": [[[57.898853864491954, 23.63693598972477], [57.89879951003844, 23.636937834728766], [57.89879897814025, 23.636829631387968], [57.89885543237676, 23.636831216294077], [57.898853864491954, 23.63693598972477]]]}, "properties": {"OBJECTID": 37, "Shape_Length": 34.89153402477839, "Shape_Area": 66.63302332849838, "Farm_ID": "B20", "LC_ID": "LC_038", "Gov_Name": "North Al Batinah", "Wil_Name": "Barka", "LC_Type_EN": "Residential", "LC_Type_AR": "سكني", "Latitude": 23.63688333, "Longitude": 57.8988268}}, {"type": "Feature", "id": 38, "geometry": {"type": "Polygon", "coordinates": [[[57.88472801585983, 23.644198541177417], [57.88474930489693, 23.644294378965068], [57.88455277391341, 23.64434926930831], [57.88452438513652, 23.644263254516197], [57.88455215219502, 23.644256773744925], [57.884552123122525, 23.64425244850053], [57.88466173157977, 23.64422420705932], [57.88466356652137, 23.644228522000926], [57.88469386197863, 23.64422202768293], [57.88469123739033, 23.644207735114254], [57.88472801585983, 23.644198541177417]]]}, "properties": {"OBJECTID": 38, "Shape_Length": 65.91939788682492, "Shape_Area": 216.98362892917658, "Farm_ID": "B02", "LC_ID": "LC_039", "Gov_Name": "North Al Batinah", "Wil_Name": "Barka", "LC_Type_EN": "Residential", "LC_Type_AR": "سكني", "Latitude": 23.64427684, "Longitude": 57.88463938}}, {"type": "Feature", "id": 39, "geometry": {"type": "Polygon", "coordinates": [[[57.88946902609156, 23.62841709256169], [57.889660469528856, 23.628906892841467], [57.889620752230734, 23.62897390575589], [57.889342774086415, 23.62903986952622], [57.88914795588364, 23.628537356701006], [57.88916659580094, 23.628527257792186], [57.88914592218674, 23.62847716298514], [57.88931853079002, 23.628420964766036], [57.889338692733844, 23.628475558601565], [57.88936115617975, 23.62846943440283], [57.88935779471605, 23.628453465262282], [57.88946902609156, 23.62841709256169]]]}, "properties": {"OBJECTID": 39, "Shape_Length": 203.88785334909863, "Shape_Area": 2265.433702412376, "Farm_ID": "B09", "LC_ID": "LC_040", "Gov_Name": "North Al Batinah", "Wil_Name": "Barka", "LC_Type_EN": "Residential", "LC_Type_AR": "سكني", "Latitude": 23.62872351, "Longitude": 57.88940209}}, {"type": "Feature", "id": 40, "geometry": {"type": "Polygon", "coordinates": [[[57.89140788386649, 23.644202206850984], [57.891353710753634, 23.643888527644286], [57.89162768828541, 23.64386263126122], [57.89167748007234, 23.644162639490947], [57.89140788386649, 23.644202206850984]]]}, "properties": {"OBJECTID": 40, "Shape_Length": 124.70800876800429, "Shape_Area": 961.0388762625573, "Farm_ID": "B17", "LC_ID": "LC_042", "Gov_Name": "North Al Batinah", "Wil_Name": "Barka", "LC_Type_EN": "Residential", "LC_Type_AR": "سكني", "Latitude": 23.64402893, "Longitude": 57.89151563}}, {"type": "Feature", "id": 41, "geometry": {"type": "Polygon", "coordinates": [[[57.89170089050167, 23.644306606143292], [57.89164978098092, 23.64399662338626], [57.89194517220151, 23.64395846706357], [57.89198280610679, 23.64426144436426], [57.89170089050167, 23.644306606143292]]]}, "properties": {"OBJECTID": 41, "Shape_Length": 128.09070726804902, "Shape_Area": 1019.9604507126024, "Farm_ID": "B17", "LC_ID": "LC_043", "Gov_Name": "North Al Batinah", "Wil_Name": "Barka", "LC_Type_EN": "Residential", "LC_Type_AR": "سكني", "Latitude": 23.6441298, "Longitude": 57.89181882}}, {"type": "Feature", "id": 42, "geometry": {"type": "Polygon", "coordinates": [[[57.89467503940584, 23.643824183671086], [57.89457724738089, 23.64384257874663], [57.89453013918534, 23.64369600629745], [57.89462846505534, 23.64367236331851], [57.89467503940584, 23.643824183671086]]]}, "properties": {"OBJECTID": 42, "Shape_Length": 54.93865911580775, "Shape_Area": 176.342143250103, "Farm_ID": "B19", "LC_ID": "LC_044", "Gov_Name": "North Al Batinah", "Wil_Name": "Barka", "LC_Type_EN": "Residential", "LC_Type_AR": "سكني", "Latitude": 23.64375847, "Longitude": 57.8946029}}, {"type": "Feature", "id": 43, "geometry": {"type": "Polygon", "coordinates": [[[57.89122197233152, 23.642172663329116], [57.89118968855123, 23.64217743348581], [57.89112354669573, 23.64218903669369], [57.890772895871706, 23.64225372677646], [57.89073856654044, 23.6420950373095], [57.89058464263418, 23.642120892928844], [57.89055246346823, 23.642076359581026], [57.8901088379338, 23.642155396450228], [57.8900616666523, 23.64192313570126], [57.89114193728895, 23.641723542952118], [57.89122197233152, 23.642172663329116]]]}, "properties": {"OBJECTID": 43, "Shape_Length": 321.50360678831834, "Shape_Area": 4172.172350026123, "Farm_ID": "B18", "LC_ID": "LC_045", "Gov_Name": "North Al Batinah", "Wil_Name": "Barka", "LC_Type_EN": "Residential", "LC_Type_AR": "سكني", "Latitude": 23.64199924, "Longitude": 57.89070285}}, {"type": "Feature", "id": 44, "geometry": {"type": "Polygon", "coordinates": [[[57.885544767299756, 23.63360104435889], [57.88546452541013, 23.6332417143918], [57.885807226513414, 23.633157812429122], [57.885842267599614, 23.633408567692925], [57.885544767299756, 23.63360104435889]]]}, "properties": {"OBJECTID": 44, "Shape_Length": 141.864793653127, "Shape_Area": 1192.7831052563029, "Farm_ID": "B04", "LC_ID": "LC_046", "Gov_Name": "North Al Batinah", "Wil_Name": "Barka", "LC_Type_EN": "Residential", "LC_Type_AR": "سكني", "Latitude": 23.63335494, "Longitude": 57.885654}}, {"type": "Feature", "id": 45, "geometry": {"type": "Polygon", "coordinates": [[[57.88293755338326, 23.630498168928824], [57.88290507117898, 23.63032266266196], [57.88313590447321, 23.630282015357214], [57.88317413065049, 23.630464829165344], [57.88293755338326, 23.630498168928824]]]}, "properties": {"OBJECTID": 45, "Shape_Length": 88.71306512786802, "Shape_Area": 487.6790580870059, "Farm_ID": "B08", "LC_ID": "LC_047", "Gov_Name": "North Al Batinah", "Wil_Name": "Barka", "LC_Type_EN": "Residential", "LC_Type_AR": "سكني", "Latitude": 23.63039205, "Longitude": 57.88303908}}, {"type": "Feature", "id": 46, "geometry": {"type": "Polygon", "coordinates": [[[57.88389853191672, 23.632273587294858], [57.88387409457252, 23.632171703047508], [57.883940497718136, 23.632157747800353], [57.88393349392432, 23.632130101064615], [57.884024020994275, 23.632110739960876], [57.88404753736091, 23.63219064016282], [57.88402736769137, 23.6321954083858], [57.88403803835974, 23.63224458092077], [57.884036685388345, 23.632243979875494], [57.88389853191672, 23.632273587294858]]]}, "properties": {"OBJECTID": 46, "Shape_Length": 62.58829340208926, "Shape_Area": 211.1327985121579, "Farm_ID": "B06", "LC_ID": "LC_048", "Gov_Name": "North Al Batinah", "Wil_Name": "Barka", "LC_Type_EN": "Residential", "LC_Type_AR": "سكني", "Latitude": 23.63219495, "Longitude": 57.88396428}}, {"type": "Feature", "id": 47, "geometry": {"type": "Polygon", "coordinates": [[[57.88223720236783, 23.63222700389933], [57.88222793133753, 23.632229339912442], [57.8822035061877, 23.632150152684492], [57.88238423783469, 23.63210769412029], [57.882405545908746, 23.63218458234422], [57.88223720236783, 23.63222700389933]]]}, "properties": {"OBJECTID": 47, "Shape_Length": 55.71056730425189, "Shape_Area": 169.18282412556135, "Farm_ID": "B08", "LC_ID": "LC_049", "Gov_Name": "North Al Batinah", "Wil_Name": "Barka", "LC_Type_EN": "Residential", "LC_Type_AR": "سكني", "Latitude": 23.63216799, "Longitude": 57.88230473}}, {"type": "Feature", "id": 48, "geometry": {"type": "Polygon", "coordinates": [[[57.88248437722919, 23.632110851071293], [57.88247643093061, 23.632080611121253], [57.88251207292992, 23.63207170694064], [57.88251813915079, 23.6321029989727], [57.88248437722919, 23.632110851071293]]]}, "properties": {"OBJECTID": 48, "Shape_Length": 14.28346353868858, "Shape_Area": 12.721258149454496, "Farm_ID": "B08", "LC_ID": "LC_050", "Gov_Name": "North Al Batinah", "Wil_Name": "Barka", "LC_Type_EN": "Residential", "LC_Type_AR": "سكني", "Latitude": 23.63209138, "Longitude": 57.88249777}}, {"type": "Feature", "id": 49, "geometry": {"type": "Polygon", "coordinates": [[[57.88256481878444, 23.632124822931534], [57.88254730616646, 23.63206046850253], [57.88261147995519, 23.63204736286754], [57.88262979549343, 23.63210996232124], [57.88256481878444, 23.632124822931534]]]}, "properties": {"OBJECTID": 49, "Shape_Length": 28.05872257227606, "Shape_Area": 49.125102977240815, "Farm_ID": "B08", "LC_ID": "LC_051", "Gov_Name": "North Al Batinah", "Wil_Name": "Barka", "LC_Type_EN": "Residential", "LC_Type_AR": "سكني", "Latitude": 23.63208578, "Longitude": 57.88258825}}, {"type": "Feature", "id": 50, "geometry": {"type": "Polygon", "coordinates": [[[57.88618869236883, 23.635808290322757], [57.8870641747315, 23.635612092483665], [57.88719534322352, 23.636192219273678], [57.88632027900556, 23.636389903105005], [57.88618869236883, 23.635808290322757]]]}, "properties": {"OBJECTID": 50, "Shape_Length": 315.20407194009346, "Shape_Area": 6034.324687876012, "Farm_ID": "B05", "LC_ID": "LC_052", "Gov_Name": "North Al Batinah", "Wil_Name": "Barka", "LC_Type_EN": "Residential", "LC_Type_AR": "سكني", "Latitude": 23.63600066, "Longitude": 57.88669193}}, {"type": "Feature", "id": 51, "geometry": {"type": "Polygon", "coordinates": [[[57.884255678031884, 23.643688331476362], [57.88423025560261, 23.6435479245252], [57.884431014357034, 23.6435184598818], [57.88445473466602, 23.643659402164552], [57.884255678031884, 23.643688331476362]]]}, "properties": {"OBJECTID": 51, "Shape_Length": 72.84249077948016, "Shape_Area": 325.6935487804807, "Farm_ID": "B13", "LC_ID": "LC_053", "Gov_Name": "North Al Batinah", "Wil_Name": "Barka", "LC_Type_EN": "Residential", "LC_Type_AR": "سكني", "Latitude": 23.64360342, "Longitude": 57.88434294}}, {"type": "Feature", "id": 52, "geometry": {"type": "Polygon", "coordinates": [[[57.88472189429066, 23.645970678109055], [57.88464969142686, 23.645776890120935], [57.88483463971978, 23.6457203993132], [57.88489865245845, 23.645927189405327], [57.88472189429066, 23.645970678109055]]]}, "properties": {"OBJECTID": 52, "Shape_Length": 85.02848349753039, "Shape_Area": 447.52202991834173, "Farm_ID": "B12", "LC_ID": "LC_054", "Gov_Name": "North Al Batinah", "Wil_Name": "Barka", "LC_Type_EN": "Residential", "LC_Type_AR": "سكني", "Latitude": 23.64584752, "Longitude": 57.8847766}}, {"type": "Feature", "id": 53, "geometry": {"type": "Polygon", "coordinates": [[[57.87869878063574, 23.646568709411405], [57.878617546494944, 23.646338935626606], [57.87875447811072, 23.64629882628402], [57.8788328788114, 23.646530187616786], [57.87869878063574, 23.646568709411405]]]}, "properties": {"OBJECTID": 53, "Shape_Length": 82.57408593900203, "Shape_Area": 388.2954699056771, "Farm_ID": "B22", "LC_ID": "LC_055", "Gov_Name": "North Al Batinah", "Wil_Name": "Barka", "LC_Type_EN": "Residential", "LC_Type_AR": "سكني", "Latitude": 23.64643372, "Longitude": 57.8787258}}, {"type": "Feature", "id": 54, "geometry": {"type": "Polygon", "coordinates": [[[57.8870315748215, 23.645557331042337], [57.88672723309219, 23.64559158955858], [57.88671813492468, 23.64550825307211], [57.88702469796546, 23.645466117739623], [57.8870315748215, 23.645557331042337]]]}, "properties": {"OBJECTID": 54, "Shape_Length": 82.28510852594367, "Shape_Area": 304.5039875840295, "Farm_ID": "B01", "LC_ID": "LC_056", "Gov_Name": "North Al Batinah", "Wil_Name": "Barka", "LC_Type_EN": "Residential", "LC_Type_AR": "سكني", "Latitude": 23.64553048, "Longitude": 57.8868776}}, {"type": "Feature", "id": 55, "geometry": {"type": "Polygon", "coordinates": [[[57.88720944783515, 23.64541968687434], [57.88719880077168, 23.645353288797093], [57.887301820501676, 23.645339944376293], [57.887307733300865, 23.645406368633605], [57.88720944783515, 23.64541968687434]]]}, "properties": {"OBJECTID": 55, "Shape_Length": 35.55455396890757, "Shape_Area": 76.73574250116191, "Farm_ID": "B01", "LC_ID": "LC_057", "Gov_Name": "North Al Batinah", "Wil_Name": "Barka", "LC_Type_EN": "Residential", "LC_Type_AR": "سكني", "Latitude": 23.64537958, "Longitude": 57.88725434}}, {"type": "Feature", "id": 56, "geometry": {"type": "Polygon", "coordinates": [[[57.89139491568877, 23.645191616756765], [57.89133563953246, 23.644976443263843], [57.89159418308716, 23.644931526694958], [57.89162857902397, 23.645150122652847], [57.89139491568877, 23.645191616756765]]]}, "properties": {"OBJECTID": 56, "Shape_Length": 100.1431507223052, "Shape_Area": 625.6441413139916, "Farm_ID": "B17", "LC_ID": "LC_058", "Gov_Name": "North Al Batinah", "Wil_Name": "Barka", "LC_Type_EN": "Residential", "LC_Type_AR": "سكني", "Latitude": 23.64506063, "Longitude": 57.89148785}}, {"type": "Feature", "id": 57, "geometry": {"type": "Polygon", "coordinates": [[[57.88764233161589, 23.645266615871005], [57.88761632373053, 23.645069070425677], [57.8879620372214, 23.6450236608665], [57.88796894376054, 23.645124412603565], [57.887915608489855, 23.645129635025814], [57.887925634195796, 23.64524004394156], [57.88764233161589, 23.645266615871005]]]}, "properties": {"OBJECTID": 57, "Shape_Length": 115.61252990638243, "Shape_Area": 728.5891752889142, "Farm_ID": "B01", "LC_ID": "LC_059", "Gov_Name": "North Al Batinah", "Wil_Name": "Barka", "LC_Type_EN": "Residential", "LC_Type_AR": "سكني", "Latitude": 23.64514475, "Longitude": 57.88778787}}, {"type": "Feature", "id": 58, "geometry": {"type": "Polygon", "coordinates": [[[57.88670917722209, 23.646103992146575], [57.886659685313795, 23.645778995298524], [57.887301710828034, 23.645680350680664], [57.88735602833993, 23.645989840695986], [57.88670917722209, 23.646103992146575]]]}, "properties": {"OBJECTID": 58, "Shape_Length": 204.61451093238594, "Shape_Area": 2371.1913691913123, "Farm_ID": "B01", "LC_ID": "LC_060", "Gov_Name": "North Al Batinah", "Wil_Name": "Barka", "LC_Type_EN": "Residential", "LC_Type_AR": "سكني", "Latitude": 23.64588899, "Longitude": 57.88700427}}, {"type": "Feature", "id": 59, "geometry": {"type": "Polygon", "coordinates": [[[57.88530532801482, 23.64603804394834], [57.88528702207076, 23.645959456556366], [57.88535723991303, 23.64594054010255], [57.885372858722924, 23.646021633845425], [57.88530532801482, 23.64603804394834]]]}, "properties": {"OBJECTID": 59, "Shape_Length": 32.603802234498474, "Shape_Area": 65.48430963468192, "Farm_ID": "B12", "LC_ID": "LC_061", "Gov_Name": "North Al Batinah", "Wil_Name": "Barka", "LC_Type_EN": "Residential", "LC_Type_AR": "سكني", "Latitude": 23.64598959, "Longitude": 57.88533067}}, {"type": "Feature", "id": 60, "geometry": {"type": "Polygon", "coordinates": [[[57.885332150890385, 23.646118361101298], [57.88531666960388, 23.64605756049489], [57.88536607431482, 23.64604730891749], [57.885383096468054, 23.646107030432006], [57.885332150890385, 23.646118361101298]]]}, "properties": {"OBJECTID": 60, "Shape_Length": 24.262097316627955, "Shape_Area": 36.126644923263655, "Farm_ID": "B12", "LC_ID": "LC_062", "Gov_Name": "North Al Batinah", "Wil_Name": "Barka", "LC_Type_EN": "Residential", "LC_Type_AR": "سكني", "Latitude": 23.64608275, "Longitude": 57.8853495}}, {"type": "Feature", "id": 61, "geometry": {"type": "Polygon", "coordinates": [[[57.885020872778846, 23.646019683684806], [57.884993472911496, 23.645917977551296], [57.88506113521418, 23.64590072776368], [57.88508633624172, 23.646006548754965], [57.885020872778846, 23.646019683684806]]]}, "properties": {"OBJECTID": 61, "Shape_Length": 37.59211625188506, "Shape_Area": 82.51211670675458, "Farm_ID": "B12", "LC_ID": "LC_063", "Gov_Name": "North Al Batinah", "Wil_Name": "Barka", "LC_Type_EN": "Residential", "LC_Type_AR": "سكني", "Latitude": 23.64596079, "Longitude": 57.88504054}}, {"type": "Feature", "id": 62, "geometry": {"type": "Polygon", "coordinates": [[[57.88450002668897, 23.64480925678832], [57.88477065932689, 23.64546399820678], [57.88394807693637, 23.64566194857235], [57.88366572212532, 23.645171478181286], [57.88347195205875, 23.644818470376467], [57.88341458616226, 23.644711237275853], [57.884317341291855, 23.644388652088796], [57.88450002668897, 23.64480925678832]]]}, "properties": {"OBJECTID": 62, "Shape_Length": 431.71427773953303, "Shape_Area": 11393.4072276447, "Farm_ID": "B02", "LC_ID": "LC_064", "Gov_Name": "North Al Batinah", "Wil_Name": "Barka", "LC_Type_EN": "Residential", "LC_Type_AR": "سكني", "Latitude": 23.64504255, "Longitude": 57.8841126}}, {"type": "Feature", "id": 63, "geometry": {"type": "Polygon", "coordinates": [[[57.89316458302694, 23.643401478814077], [57.893118183556275, 23.64340719142583], [57.893110890521804, 23.643369378694715], [57.893156162756846, 23.64336341426409], [57.89316458302694, 23.643401478814077]]]}, "properties": {"OBJECTID": 63, "Shape_Length": 17.992900131925296, "Shape_Area": 20.156767317208562, "Farm_ID": "B19", "LC_ID": "LC_065", "Gov_Name": "North Al Batinah", "Wil_Name": "Barka", "LC_Type_EN": "Residential", "LC_Type_AR": "سكني", "Latitude": 23.64338599, "Longitude": 57.89313753}}, {"type": "Feature", "id": 64, "geometry": {"type": "Polygon", "coordinates": [[[57.8931343831289, 23.64351340334446], [57.89311399212605, 23.643453107839317], [57.89318031554889, 23.64343872449727], [57.89319313681848, 23.643503211069287], [57.8931343831289, 23.64351340334446]]]}, "properties": {"OBJECTID": 64, "Shape_Length": 27.299239744203, "Shape_Area": 46.36967867695726, "Farm_ID": "B19", "LC_ID": "LC_066", "Gov_Name": "North Al Batinah", "Wil_Name": "Barka", "LC_Type_EN": "Residential", "LC_Type_AR": "سكني", "Latitude": 23.64347638, "Longitude": 57.89315549}}, {"type": "Feature", "id": 65, "geometry": {"type": "Polygon", "coordinates": [[[57.89274834083235, 23.64339627172791], [57.89280535161371, 23.643385398689553], [57.892818239668735, 23.64347030707045], [57.89282568023271, 23.643519327625555], [57.892769538572004, 23.643530567785426], [57.89274834083235, 23.64339627172791]]]}, "properties": {"OBJECTID": 65, "Shape_Length": 41.79706322998448, "Shape_Area": 88.28249889829662, "Farm_ID": "B19", "LC_ID": "LC_067", "Gov_Name": "North Al Batinah", "Wil_Name": "Barka", "LC_Type_EN": "Residential", "LC_Type_AR": "سكني", "Latitude": 23.64345774, "Longitude": 57.89278719}}]}