{"type": "FeatureCollection", "features": [{"type": "Feature", "id": 1, "geometry": {"type": "Polygon", "coordinates": [[[57.87758466179193, 23.646998163787508], [57.877493430780675, 23.646741636345272], [57.877519506931904, 23.64673183900339], [57.87751592376396, 23.64671718863971], [57.87754526645611, 23.646709260490155], [57.87754966309175, 23.64672268964163], [57.87757695383861, 23.646715808164195], [57.877665378520156, 23.646972562788157], [57.87758466179193, 23.646998163787508]]]}, "properties": {"OBJECTID": 1, "Shape_Length": 80.51254351174438, "Shape_Area": 270.24817821751725, "GrnHse_ID": "GH_001", "Gov_Name": "Al Batinah South", "Wil_Name": "Barka", "Latitude": "23.6468533", "Longitude": 57.87757878}}, {"type": "Feature", "id": 2, "geometry": {"type": "Polygon", "coordinates": [[[57.87770066458914, 23.646662121826957], [57.87770588699616, 23.646676613879148], [57.877732977809806, 23.646667835887786], [57.87783075061859, 23.646925668296706], [57.877817593120085, 23.646929788210866], [57.87782037911359, 23.646938689709625], [57.87776391876894, 23.64695697034002], [57.87776031511489, 23.646948072565834], [57.877746706593626, 23.64695204329012], [57.877647484439976, 23.646694886492522], [57.87767691795378, 23.64668587757965], [57.87767114552521, 23.646670797948453], [57.87770066458914, 23.646662121826957]]]}, "properties": {"OBJECTID": 2, "Shape_Length": 84.2251665869075, "Shape_Area": 287.97898832844993, "GrnHse_ID": "GH_002", "Gov_Name": "Al Batinah South", "Wil_Name": "Barka", "Latitude": "23.64681024", "Longitude": 57.87773955}}, {"type": "Feature", "id": 3, "geometry": {"type": "Polygon", "coordinates": [[[57.87779395393501, 23.64662941910346], [57.87780072564701, 23.64664452920054], [57.87783168564082, 23.646634779123445], [57.87792911359703, 23.6468917445435], [57.87784631018298, 23.646920223338647], [57.87774702534385, 23.646663982805332], [57.87777301968515, 23.646653831831106], [57.877766180917284, 23.646639251386308], [57.87779395393501, 23.64662941910346]]]}, "properties": {"OBJECTID": 3, "Shape_Length": 82.09610719089304, "Shape_Area": 280.7292851679607, "GrnHse_ID": "GH_003", "Gov_Name": "Al Batinah South", "Wil_Name": "Barka", "Latitude": "23.6467743", "Longitude": 57.87783718}}, {"type": "Feature", "id": 4, "geometry": {"type": "Polygon", "coordinates": [[[57.87794522268206, 23.6468750570713], [57.87784779036379, 23.646630226148478], [57.87786907987535, 23.646623061574463], [57.877864123137336, 23.646606656857383], [57.87789869937753, 23.646594468432504], [57.87790393542491, 23.64661129606994], [57.87793277199584, 23.64659966940915], [57.87802813147109, 23.646849300768835], [57.87794522268206, 23.6468750570713]]]}, "properties": {"OBJECTID": 4, "Shape_Length": 80.21881151243367, "Shape_Area": 271.62221573667694, "GrnHse_ID": "GH_004", "Gov_Name": "Al Batinah South", "Wil_Name": "Barka", "Latitude": "23.64673453", "Longitude": 57.87793691}}, {"type": "Feature", "id": 5, "geometry": {"type": "Polygon", "coordinates": [[[57.87851050135046, 23.646368452619264], [57.87822188318799, 23.646467192212114], [57.8781925697493, 23.646394136900597], [57.87848288738459, 23.64629444570091], [57.87851050135046, 23.646368452619264]]]}, "properties": {"OBJECTID": 5, "Shape_Length": 80.29271146931495, "Shape_Area": 272.2648295433601, "GrnHse_ID": "GH_005", "Gov_Name": "Al Batinah South", "Wil_Name": "Barka", "Latitude": "23.64638098", "Longitude": 57.87835205}}, {"type": "Feature", "id": 6, "geometry": {"type": "Polygon", "coordinates": [[[57.87820753302014, 23.646182716514854], [57.878194602619104, 23.646187503539444], [57.87819722025089, 23.64619644482311], [57.87814139931004, 23.64621498750249], [57.8781374034063, 23.646204169049724], [57.87812276081296, 23.64620802282674], [57.87803497876755, 23.64594888578592], [57.87806279953833, 23.645939475884205], [57.87805835938695, 23.6459255529438], [57.87808423940791, 23.645917395925554], [57.878089745177896, 23.645929244507485], [57.87811426050829, 23.64592330262807], [57.87820753302014, 23.646182716514854]]]}, "properties": {"OBJECTID": 6, "Shape_Length": 83.06279346090966, "Shape_Area": 278.7960256453789, "GrnHse_ID": "GH_006", "Gov_Name": "Al Batinah South", "Wil_Name": "Barka", "Latitude": "23.6460681", "Longitude": 57.87812081}}, {"type": "Feature", "id": 7, "geometry": {"type": "Polygon", "coordinates": [[[57.87820229867498, 23.64588173652336], [57.87820661806311, 23.645897247965156], [57.87823491474248, 23.64589039861302], [57.878325622461155, 23.646144937942115], [57.87823915785147, 23.646175206136917], [57.8781505377635, 23.64591672150497], [57.87817931096554, 23.645905174641758], [57.87817446790204, 23.64589081954867], [57.87820229867498, 23.64588173652336]]]}, "properties": {"OBJECTID": 7, "Shape_Length": 81.74395706846921, "Shape_Area": 282.62526782058893, "GrnHse_ID": "GH_007", "Gov_Name": "Al Batinah South", "Wil_Name": "Barka", "Latitude": "23.64602946", "Longitude": 57.87823667}}, {"type": "Feature", "id": 8, "geometry": {"type": "Polygon", "coordinates": [[[57.879442815078654, 23.645410492689628], [57.879470534210384, 23.645400431007527], [57.87946546510678, 23.64538439909758], [57.87949576939309, 23.645374742735495], [57.87950040318127, 23.645390773500722], [57.879528872639426, 23.645383104639098], [57.879618209671555, 23.645643043944126], [57.87953214499672, 23.645669389797295], [57.879442815078654, 23.645410492689628]]]}, "properties": {"OBJECTID": 8, "Shape_Length": 82.53769140586073, "Shape_Area": 286.0724232307414, "GrnHse_ID": "GH_008", "Gov_Name": "Al Batinah South", "Wil_Name": "Barka", "Latitude": "23.64552313", "Longitude": 57.87952938}}, {"type": "Feature", "id": 9, "geometry": {"type": "Polygon", "coordinates": [[[57.87938871108326, 23.6454234145026], [57.87941938224815, 23.64541598606953], [57.879506737754724, 23.645677703335323], [57.87949186771638, 23.645682571014202], [57.879496587359974, 23.64569442942182], [57.87943782827061, 23.645711181926615], [57.87943612454928, 23.64569875275163], [57.87941886375416, 23.645702084999257], [57.879332673249515, 23.645443316337076], [57.8793614680242, 23.645433122126526], [57.87935462036012, 23.645417079525664], [57.87938429686037, 23.645409428231332], [57.87938871108326, 23.6454234145026]]]}, "properties": {"OBJECTID": 9, "Shape_Length": 85.79884091198528, "Shape_Area": 297.6934184754623, "GrnHse_ID": "GH_009", "Gov_Name": "Al Batinah South", "Wil_Name": "Barka", "Latitude": "23.64556108", "Longitude": 57.87941994}}, {"type": "Feature", "id": 10, "geometry": {"type": "Polygon", "coordinates": [[[57.88595139838634, 23.631435402292635], [57.88604082141022, 23.63179011759023], [57.88595103706021, 23.631806428227208], [57.88586440213683, 23.631451541601365], [57.88595139838634, 23.631435402292635]]]}, "properties": {"OBJECTID": 10, "Shape_Length": 98.98163864810684, "Shape_Area": 370.3344679371552, "GrnHse_ID": "GH_010", "Gov_Name": "Al Batinah South", "Wil_Name": "Barka", "Latitude": "23.63162178", "Longitude": 57.88595215}}, {"type": "Feature", "id": 11, "geometry": {"type": "Polygon", "coordinates": [[[57.885729722519784, 23.631477252454143], [57.88581849797718, 23.631460366953977], [57.88590674393801, 23.631815178474056], [57.88581938282121, 23.631832056856393], [57.885729722519784, 23.631477252454143]]]}, "properties": {"OBJECTID": 11, "Shape_Length": 98.98963845523036, "Shape_Area": 369.8803504372699, "GrnHse_ID": "GH_011", "Gov_Name": "Al Batinah South", "Wil_Name": "Barka", "Latitude": "23.63164576", "Longitude": 57.88581847}}, {"type": "Feature", "id": 12, "geometry": {"type": "Polygon", "coordinates": [[[57.885595347872304, 23.63150269320027], [57.88568250726686, 23.63148587571084], [57.88577203899813, 23.631840821776002], [57.88568461818104, 23.63185728314653], [57.885595347872304, 23.63150269320027]]]}, "properties": {"OBJECTID": 12, "Shape_Length": 98.83517526709782, "Shape_Area": 366.5629536696052, "GrnHse_ID": "GH_012", "Gov_Name": "Al Batinah South", "Wil_Name": "Barka", "Latitude": "23.63167172", "Longitude": 57.88568365}}, {"type": "Feature", "id": 13, "geometry": {"type": "Polygon", "coordinates": [[[57.88555028787478, 23.631512122410765], [57.885639685069286, 23.631866354897635], [57.88555173620573, 23.631881270223793], [57.885462730635325, 23.631527512334696], [57.88555028787478, 23.631512122410765]]]}, "properties": {"OBJECTID": 13, "Shape_Length": 98.68828960034497, "Shape_Area": 366.1164436990628, "GrnHse_ID": "GH_013", "Gov_Name": "Al Batinah South", "Wil_Name": "Barka", "Latitude": "23.6316969", "Longitude": 57.88555114}}, {"type": "Feature", "id": 14, "geometry": {"type": "Polygon", "coordinates": [[[57.88541800431227, 23.631537290043497], [57.88550684006643, 23.631889865740288], [57.88541462656232, 23.631906212516068], [57.885330637316244, 23.6315534230431], [57.88541800431227, 23.631537290043497]]]}, "properties": {"OBJECTID": 14, "Shape_Length": 98.73303986088638, "Shape_Area": 373.5140915498899, "GrnHse_ID": "GH_014", "Gov_Name": "Al Batinah South", "Wil_Name": "Barka", "Latitude": "23.63172323", "Longitude": 57.88541792}}, {"type": "Feature", "id": 15, "geometry": {"type": "Polygon", "coordinates": [[[57.87758466179193, 23.646998163787508], [57.877493430780675, 23.646741636345272], [57.877519506931904, 23.64673183900339], [57.87751592376396, 23.64671718863971], [57.87754526645611, 23.646709260490155], [57.87754966309175, 23.64672268964163], [57.87757695383861, 23.646715808164195], [57.877665378520156, 23.646972562788157], [57.87758466179193, 23.646998163787508]]]}, "properties": {"OBJECTID": 15, "Shape_Length": 80.51254351174438, "Shape_Area": 270.24817821751725, "GrnHse_ID": "GH_001", "Gov_Name": "Al Batinah South", "Wil_Name": "Barka", "Latitude": "23.6468533", "Longitude": 57.87757878}}, {"type": "Feature", "id": 16, "geometry": {"type": "Polygon", "coordinates": [[[57.87770066458914, 23.646662121826957], [57.87770588699616, 23.646676613879148], [57.877732977809806, 23.646667835887786], [57.87783075061859, 23.646925668296706], [57.877817593120085, 23.646929788210866], [57.87782037911359, 23.646938689709625], [57.87776391876894, 23.64695697034002], [57.87776031511489, 23.646948072565834], [57.877746706593626, 23.64695204329012], [57.877647484439976, 23.646694886492522], [57.87767691795378, 23.64668587757965], [57.87767114552521, 23.646670797948453], [57.87770066458914, 23.646662121826957]]]}, "properties": {"OBJECTID": 16, "Shape_Length": 84.2251665869075, "Shape_Area": 287.97898832844993, "GrnHse_ID": "GH_002", "Gov_Name": "Al Batinah South", "Wil_Name": "Barka", "Latitude": "23.64681024", "Longitude": 57.87773955}}, {"type": "Feature", "id": 17, "geometry": {"type": "Polygon", "coordinates": [[[57.87779395393501, 23.64662941910346], [57.87780072564701, 23.64664452920054], [57.87783168564082, 23.646634779123445], [57.87792911359703, 23.6468917445435], [57.87784631018298, 23.646920223338647], [57.87774702534385, 23.646663982805332], [57.87777301968515, 23.646653831831106], [57.877766180917284, 23.646639251386308], [57.87779395393501, 23.64662941910346]]]}, "properties": {"OBJECTID": 17, "Shape_Length": 82.09610719089304, "Shape_Area": 280.7292851679607, "GrnHse_ID": "GH_003", "Gov_Name": "Al Batinah South", "Wil_Name": "Barka", "Latitude": "23.6467743", "Longitude": 57.87783718}}, {"type": "Feature", "id": 18, "geometry": {"type": "Polygon", "coordinates": [[[57.87794522268206, 23.6468750570713], [57.87784779036379, 23.646630226148478], [57.87786907987535, 23.646623061574463], [57.877864123137336, 23.646606656857383], [57.87789869937753, 23.646594468432504], [57.87790393542491, 23.64661129606994], [57.87793277199584, 23.64659966940915], [57.87802813147109, 23.646849300768835], [57.87794522268206, 23.6468750570713]]]}, "properties": {"OBJECTID": 18, "Shape_Length": 80.21881151243367, "Shape_Area": 271.62221573667694, "GrnHse_ID": "GH_004", "Gov_Name": "Al Batinah South", "Wil_Name": "Barka", "Latitude": "23.64673453", "Longitude": 57.87793691}}, {"type": "Feature", "id": 19, "geometry": {"type": "Polygon", "coordinates": [[[57.87851050135046, 23.646368452619264], [57.87822188318799, 23.646467192212114], [57.8781925697493, 23.646394136900597], [57.87848288738459, 23.64629444570091], [57.87851050135046, 23.646368452619264]]]}, "properties": {"OBJECTID": 19, "Shape_Length": 80.29271146931495, "Shape_Area": 272.2648295433601, "GrnHse_ID": "GH_005", "Gov_Name": "Al Batinah South", "Wil_Name": "Barka", "Latitude": "23.64638098", "Longitude": 57.87835205}}, {"type": "Feature", "id": 20, "geometry": {"type": "Polygon", "coordinates": [[[57.87820753302014, 23.646182716514854], [57.878194602619104, 23.646187503539444], [57.87819722025089, 23.64619644482311], [57.87814139931004, 23.64621498750249], [57.8781374034063, 23.646204169049724], [57.87812276081296, 23.64620802282674], [57.87803497876755, 23.64594888578592], [57.87806279953833, 23.645939475884205], [57.87805835938695, 23.6459255529438], [57.87808423940791, 23.645917395925554], [57.878089745177896, 23.645929244507485], [57.87811426050829, 23.64592330262807], [57.87820753302014, 23.646182716514854]]]}, "properties": {"OBJECTID": 20, "Shape_Length": 83.06279346090966, "Shape_Area": 278.7960256453789, "GrnHse_ID": "GH_006", "Gov_Name": "Al Batinah South", "Wil_Name": "Barka", "Latitude": "23.6460681", "Longitude": 57.87812081}}, {"type": "Feature", "id": 21, "geometry": {"type": "Polygon", "coordinates": [[[57.87820229867498, 23.64588173652336], [57.87820661806311, 23.645897247965156], [57.87823491474248, 23.64589039861302], [57.878325622461155, 23.646144937942115], [57.87823915785147, 23.646175206136917], [57.8781505377635, 23.64591672150497], [57.87817931096554, 23.645905174641758], [57.87817446790204, 23.64589081954867], [57.87820229867498, 23.64588173652336]]]}, "properties": {"OBJECTID": 21, "Shape_Length": 81.74395706846921, "Shape_Area": 282.62526782058893, "GrnHse_ID": "GH_007", "Gov_Name": "Al Batinah South", "Wil_Name": "Barka", "Latitude": "23.64602946", "Longitude": 57.87823667}}, {"type": "Feature", "id": 22, "geometry": {"type": "Polygon", "coordinates": [[[57.879442815078654, 23.645410492689628], [57.879470534210384, 23.645400431007527], [57.87946546510678, 23.64538439909758], [57.87949576939309, 23.645374742735495], [57.87950040318127, 23.645390773500722], [57.879528872639426, 23.645383104639098], [57.879618209671555, 23.645643043944126], [57.87953214499672, 23.645669389797295], [57.879442815078654, 23.645410492689628]]]}, "properties": {"OBJECTID": 22, "Shape_Length": 82.53769140586073, "Shape_Area": 286.0724232307414, "GrnHse_ID": "GH_008", "Gov_Name": "Al Batinah South", "Wil_Name": "Barka", "Latitude": "23.64552313", "Longitude": 57.87952938}}, {"type": "Feature", "id": 23, "geometry": {"type": "Polygon", "coordinates": [[[57.87938871108326, 23.6454234145026], [57.87941938224815, 23.64541598606953], [57.879506737754724, 23.645677703335323], [57.87949186771638, 23.645682571014202], [57.879496587359974, 23.64569442942182], [57.87943782827061, 23.645711181926615], [57.87943612454928, 23.64569875275163], [57.87941886375416, 23.645702084999257], [57.879332673249515, 23.645443316337076], [57.8793614680242, 23.645433122126526], [57.87935462036012, 23.645417079525664], [57.87938429686037, 23.645409428231332], [57.87938871108326, 23.6454234145026]]]}, "properties": {"OBJECTID": 23, "Shape_Length": 85.79884091198528, "Shape_Area": 297.6934184754623, "GrnHse_ID": "GH_009", "Gov_Name": "Al Batinah South", "Wil_Name": "Barka", "Latitude": "23.64556108", "Longitude": 57.87941994}}, {"type": "Feature", "id": 24, "geometry": {"type": "Polygon", "coordinates": [[[57.88595139838634, 23.631435402292635], [57.88604082141022, 23.63179011759023], [57.88595103706021, 23.631806428227208], [57.88586440213683, 23.631451541601365], [57.88595139838634, 23.631435402292635]]]}, "properties": {"OBJECTID": 24, "Shape_Length": 98.98163864810684, "Shape_Area": 370.3344679371552, "GrnHse_ID": "GH_010", "Gov_Name": "Al Batinah South", "Wil_Name": "Barka", "Latitude": "23.63162178", "Longitude": 57.88595215}}, {"type": "Feature", "id": 25, "geometry": {"type": "Polygon", "coordinates": [[[57.885729722519784, 23.631477252454143], [57.88581849797718, 23.631460366953977], [57.88590674393801, 23.631815178474056], [57.88581938282121, 23.631832056856393], [57.885729722519784, 23.631477252454143]]]}, "properties": {"OBJECTID": 25, "Shape_Length": 98.98963845523036, "Shape_Area": 369.8803504372699, "GrnHse_ID": "GH_011", "Gov_Name": "Al Batinah South", "Wil_Name": "Barka", "Latitude": "23.63164576", "Longitude": 57.88581847}}, {"type": "Feature", "id": 26, "geometry": {"type": "Polygon", "coordinates": [[[57.885595347872304, 23.63150269320027], [57.88568250726686, 23.63148587571084], [57.88577203899813, 23.631840821776002], [57.88568461818104, 23.63185728314653], [57.885595347872304, 23.63150269320027]]]}, "properties": {"OBJECTID": 26, "Shape_Length": 98.83517526709782, "Shape_Area": 366.5629536696052, "GrnHse_ID": "GH_012", "Gov_Name": "Al Batinah South", "Wil_Name": "Barka", "Latitude": "23.63167172", "Longitude": 57.88568365}}, {"type": "Feature", "id": 27, "geometry": {"type": "Polygon", "coordinates": [[[57.88555028787478, 23.631512122410765], [57.885639685069286, 23.631866354897635], [57.88555173620573, 23.631881270223793], [57.885462730635325, 23.631527512334696], [57.88555028787478, 23.631512122410765]]]}, "properties": {"OBJECTID": 27, "Shape_Length": 98.68828960034497, "Shape_Area": 366.1164436990628, "GrnHse_ID": "GH_013", "Gov_Name": "Al Batinah South", "Wil_Name": "Barka", "Latitude": "23.6316969", "Longitude": 57.88555114}}, {"type": "Feature", "id": 28, "geometry": {"type": "Polygon", "coordinates": [[[57.88541800431227, 23.631537290043497], [57.88550684006643, 23.631889865740288], [57.88541462656232, 23.631906212516068], [57.885330637316244, 23.6315534230431], [57.88541800431227, 23.631537290043497]]]}, "properties": {"OBJECTID": 28, "Shape_Length": 98.73303986088638, "Shape_Area": 373.5140915498899, "GrnHse_ID": "GH_014", "Gov_Name": "Al Batinah South", "Wil_Name": "Barka", "Latitude": "23.63172323", "Longitude": 57.88541792}}]}