{"type": "FeatureCollection", "features": [{"type": "Feature", "id": 1, "geometry": {"type": "Polygon", "coordinates": [[[57.8844804748131, 23.643742157998417], [57.88445034411945, 23.643539451026154], [57.88457618141417, 23.643517714947073], [57.88461131809959, 23.64372724679217], [57.8844804748131, 23.643742157998417]]]}, "properties": {"OBJECTID": 1, "Shape_Length": 72.63437397464183, "Shape_Area": 305.501459841172, "Shade_ID": "SH_001", "Gov_Name": "Al Batinah South", "Wil_Name": "Barka", "Latitude": 23.6436321, "Longitude": 57.88453004}}, {"type": "Feature", "id": 2, "geometry": {"type": "Polygon", "coordinates": [[[57.87927643825987, 23.647489319056284], [57.87896586018337, 23.647582185561085], [57.878882356200435, 23.64732027461824], [57.879198238825, 23.64723223741478], [57.87927643825987, 23.647489319056284]]]}, "properties": {"OBJECTID": 2, "Shape_Length": 126.74996022992126, "Shape_Area": 1000.5090798470899, "Shade_ID": "SH_002", "Gov_Name": "Al Batinah South", "Wil_Name": "Barka", "Latitude": 23.64740593, "Longitude": 57.87908006}}, {"type": "Feature", "id": 3, "geometry": {"type": "Polygon", "coordinates": [[[57.878475127898234, 23.646915311635436], [57.87846176586238, 23.64687792360407], [57.87869317030814, 23.646812539542385], [57.87870727565631, 23.646847296841475], [57.878475127898234, 23.646915311635436]]]}, "properties": {"OBJECTID": 3, "Shape_Length": 58.00140939104955, "Shape_Area": 104.7636757882293, "Shade_ID": "SH_003", "Gov_Name": "Al Batinah South", "Wil_Name": "Barka", "Latitude": 23.64686362, "Longitude": 57.87858318}}, {"type": "Feature", "id": 4, "geometry": {"type": "Polygon", "coordinates": [[[57.878667373794784, 23.64674321899388], [57.878437420934084, 23.64681263208477], [57.87835201528091, 23.646568165993227], [57.87858530015573, 23.646502699193668], [57.878667373794784, 23.64674321899388]]]}, "properties": {"OBJECTID": 4, "Shape_Length": 105.90500755687239, "Shape_Area": 698.0633977765675, "Shade_ID": "SH_004", "Gov_Name": "Al Batinah South", "Wil_Name": "Barka", "Latitude": 23.64665663, "Longitude": 57.87851012}}, {"type": "Feature", "id": 5, "geometry": {"type": "Polygon", "coordinates": [[[57.87853692454456, 23.646506255519423], [57.878351121378955, 23.646561742095628], [57.87832481686756, 23.64649104517719], [57.878512696575896, 23.646435274103048], [57.87853692454456, 23.646506255519423]]]}, "properties": {"OBJECTID": 5, "Shape_Length": 56.568780345272536, "Shape_Area": 165.34478990127187, "Shade_ID": "SH_005", "Gov_Name": "Al Batinah South", "Wil_Name": "Barka", "Latitude": 23.64649854, "Longitude": 57.8784313}}, {"type": "Feature", "id": 6, "geometry": {"type": "Polygon", "coordinates": [[[57.879182507899195, 23.646085079631384], [57.87925582505778, 23.64629537177292], [57.87907248863847, 23.64635325494408], [57.87900103521595, 23.646144234686346], [57.879182507899195, 23.646085079631384]]]}, "properties": {"OBJECTID": 6, "Shape_Length": 88.11999844013815, "Shape_Area": 479.7113342790313, "Shade_ID": "SH_006", "Gov_Name": "Al Batinah South", "Wil_Name": "Barka", "Latitude": 23.64621957, "Longitude": 57.87912813}}, {"type": "Feature", "id": 7, "geometry": {"type": "Polygon", "coordinates": [[[57.878731694050764, 23.6456897268639], [57.878705092403315, 23.645596704637807], [57.87890146099871, 23.645545158946263], [57.87902217277723, 23.6459051992009], [57.87887909502768, 23.645947467928394], [57.878785868046464, 23.645673606656516], [57.878731694050764, 23.6456897268639]]]}, "properties": {"OBJECTID": 7, "Shape_Length": 126.1091695391555, "Shape_Area": 705.7114636239404, "Shade_ID": "SH_007", "Gov_Name": "Al Batinah South", "Wil_Name": "Barka", "Latitude": 23.64573602, "Longitude": 57.8788772}}, {"type": "Feature", "id": 8, "geometry": {"type": "Polygon", "coordinates": [[[57.879202472298594, 23.64545949390998], [57.87932188856352, 23.645822892126276], [57.87908864821705, 23.645888768898292], [57.87896596402851, 23.645525116250198], [57.879202472298594, 23.64545949390998]]]}, "properties": {"OBJECTID": 8, "Shape_Length": 134.27861993105995, "Shape_Area": 1054.1248993058432, "Shade_ID": "SH_008", "Gov_Name": "Al Batinah South", "Wil_Name": "Barka", "Latitude": 23.64567371, "Longitude": 57.87914456}}, {"type": "Feature", "id": 9, "geometry": {"type": "Polygon", "coordinates": [[[57.88045161974314, 23.646130074200975], [57.88065272665416, 23.646712534001438], [57.88018987455461, 23.646854391865162], [57.87998498030418, 23.646269624481747], [57.88045161974314, 23.646130074200975]]]}, "properties": {"OBJECTID": 9, "Shape_Length": 235.5029226831033, "Shape_Area": 3385.617401515003, "Shade_ID": "SH_009", "Gov_Name": "Al Batinah South", "Wil_Name": "Barka", "Latitude": 23.64649144, "Longitude": 57.88031949}}, {"type": "Feature", "id": 10, "geometry": {"type": "Polygon", "coordinates": [[[57.88041840929355, 23.645561339595613], [57.88057079679766, 23.645991213644752], [57.87995945377094, 23.646191204716686], [57.87980482909845, 23.645757580007594], [57.88041840929355, 23.645561339595613]]]}, "properties": {"OBJECTID": 10, "Shape_Length": 233.02272715661684, "Shape_Area": 3329.6970356543097, "Shade_ID": "SH_010", "Gov_Name": "Al Batinah South", "Wil_Name": "Barka", "Latitude": 23.64587544, "Longitude": 57.88018788}}, {"type": "Feature", "id": 11, "geometry": {"type": "Polygon", "coordinates": [[[57.88676159061846, 23.63929213189011], [57.88680357746921, 23.639546640372593], [57.88670180591281, 23.639553232150526], [57.88670679974723, 23.6395788092374], [57.88662464165191, 23.639592080867505], [57.88660744977041, 23.639566051464158], [57.88656549320607, 23.63931598467075], [57.88676159061846, 23.63929213189011]]]}, "properties": {"OBJECTID": 11, "Shape_Length": 101.8607307270816, "Shape_Area": 592.530449524165, "Shade_ID": "SH_011", "Gov_Name": "Al Batinah South", "Wil_Name": "Barka", "Latitude": 23.63943585, "Longitude": 57.8866835}}, {"type": "Feature", "id": 12, "geometry": {"type": "Polygon", "coordinates": [[[57.8867509455743, 23.639227656608583], [57.88707717976382, 23.63919783339974], [57.8870816865406, 23.639361631319478], [57.88700715618407, 23.63937041849863], [57.88701157521685, 23.639428969169558], [57.88702903558282, 23.639455405236532], [57.88707780691973, 23.63945920873136], [57.88707043509983, 23.639549066621043], [57.887002653710155, 23.639551903772585], [57.88693000628027, 23.639555993458284], [57.88694770420066, 23.639617538156006], [57.886817519254365, 23.639632162964755], [57.8867509455743, 23.639227656608583]]]}, "properties": {"OBJECTID": 12, "Shape_Length": 164.21151561538548, "Shape_Area": 1193.5044529291579, "Shade_ID": "SH_012", "Gov_Name": "Al Batinah South", "Wil_Name": "Barka", "Latitude": 23.63939349, "Longitude": 57.88691756}}, {"type": "Feature", "id": 13, "geometry": {"type": "Polygon", "coordinates": [[[57.88184117409556, 23.631045428477503], [57.881945333032206, 23.631393584918346], [57.881659502689665, 23.63146272740397], [57.881558444631175, 23.631114778032416], [57.88184117409556, 23.631045428477503]]]}, "properties": {"OBJECTID": 13, "Shape_Length": 139.85663700826325, "Shape_Area": 1197.767758899664, "Shade_ID": "SH_013", "Gov_Name": "Al Batinah South", "Wil_Name": "Barka", "Latitude": 23.6312544, "Longitude": 57.88175126}}, {"type": "Feature", "id": 14, "geometry": {"type": "Polygon", "coordinates": [[[57.88286335811643, 23.630981447581956], [57.882454833361074, 23.6310823931802], [57.8824216686621, 23.630940874454463], [57.88283497327472, 23.630855461155456], [57.88286335811643, 23.630981447581956]]]}, "properties": {"OBJECTID": 14, "Shape_Length": 116.63104744886627, "Shape_Area": 653.1397474716871, "Shade_ID": "SH_014", "Gov_Name": "Al Batinah South", "Wil_Name": "Barka", "Latitude": 23.63096593, "Longitude": 57.88263966}}, {"type": "Feature", "id": 15, "geometry": {"type": "Polygon", "coordinates": [[[57.88261667004839, 23.630824253215216], [57.882555806601935, 23.63064694208113], [57.88274336754698, 23.630587902204372], [57.882804339031345, 23.630781295906683], [57.88261667004839, 23.630824253215216]]]}, "properties": {"OBJECTID": 15, "Shape_Length": 82.83254815133756, "Shape_Area": 427.85187214748373, "Shade_ID": "SH_015", "Gov_Name": "Al Batinah South", "Wil_Name": "Barka", "Latitude": 23.63070937, "Longitude": 57.88268116}}, {"type": "Feature", "id": 16, "geometry": {"type": "Polygon", "coordinates": [[[57.8824264508041, 23.63091061176837], [57.88236253619591, 23.630701900138323], [57.8825306789366, 23.630653069627282], [57.88260637701835, 23.63086320983999], [57.8824264508041, 23.63091061176837]]]}, "properties": {"OBJECTID": 16, "Shape_Length": 85.59908154951135, "Shape_Area": 449.5883987775105, "Shade_ID": "SH_016", "Gov_Name": "Al Batinah South", "Wil_Name": "Barka", "Latitude": 23.63078315, "Longitude": 57.88248215}}, {"type": "Feature", "id": 17, "geometry": {"type": "Polygon", "coordinates": [[[57.882107388285675, 23.631579671726968], [57.88204176679494, 23.631237445281634], [57.88216699690153, 23.631206064171913], [57.88225454646091, 23.631549287621564], [57.882107388285675, 23.631579671726968]]]}, "properties": {"OBJECTID": 17, "Shape_Length": 106.13731573951688, "Shape_Area": 553.9028551841513, "Shade_ID": "SH_017", "Gov_Name": "Al Batinah South", "Wil_Name": "Barka", "Latitude": 23.63139741, "Longitude": 57.88214383}}, {"type": "Feature", "id": 18, "geometry": {"type": "Polygon", "coordinates": [[[57.88283365826279, 23.631547469701193], [57.882912513904074, 23.63152848366318], [57.88300561804404, 23.63187387339371], [57.88292459240252, 23.63189149264953], [57.88283365826279, 23.631547469701193]]]}, "properties": {"OBJECTID": 18, "Shape_Length": 95.41304040520791, "Shape_Area": 330.25008767695067, "Shade_ID": "SH_018", "Gov_Name": "Al Batinah South", "Wil_Name": "Barka", "Latitude": 23.63171093, "Longitude": 57.88291929}}, {"type": "Feature", "id": 19, "geometry": {"type": "Polygon", "coordinates": [[[57.88771946036117, 23.63375989015873], [57.88769785694532, 23.633671976408642], [57.88782899443411, 23.633645539847365], [57.8878517518781, 23.633733756768837], [57.88771946036117, 23.63375989015873]]]}, "properties": {"OBJECTID": 19, "Shape_Length": 47.51445947807034, "Shape_Area": 137.59185491178735, "Shade_ID": "SH_019", "Gov_Name": "Al Batinah South", "Wil_Name": "Barka", "Latitude": 23.63370284, "Longitude": 57.88777459}}, {"type": "Feature", "id": 20, "geometry": {"type": "Polygon", "coordinates": [[[57.888022934331104, 23.63371050943285], [57.88799675942342, 23.633718099820204], [57.887983931294, 23.633673130793], [57.88795629203849, 23.633678872581974], [57.88794657692664, 23.633650246252163], [57.88790120599934, 23.63365871422503], [57.88787641814466, 23.633565393221005], [57.88791479300436, 23.63355658595967], [57.88789053977065, 23.63348511927892], [57.88794735559743, 23.633473086808827], [57.88798855006942, 23.633588589443534], [57.888022934331104, 23.63371050943285]]]}, "properties": {"OBJECTID": 20, "Shape_Length": 75.19757409669683, "Shape_Area": 195.48721260994577, "Shade_ID": "SH_020", "Gov_Name": "Al Batinah South", "Wil_Name": "Barka", "Latitude": 23.63359196, "Longitude": 57.88794561}}, {"type": "Feature", "id": 21, "geometry": {"type": "Polygon", "coordinates": [[[57.900062713033044, 23.636980788453062], [57.90006076817349, 23.636696329377926], [57.900121972337985, 23.63669463566029], [57.90012391994799, 23.636979477670256], [57.900062713033044, 23.636980788453062]]]}, "properties": {"OBJECTID": 21, "Shape_Length": 75.52545470269322, "Shape_Area": 196.7997002548331, "Shade_ID": "SH_022", "Gov_Name": "Al Batinah South", "Wil_Name": "Barka", "Latitude": 23.63683781, "Longitude": 57.90009235}}, {"type": "Feature", "id": 22, "geometry": {"type": "Polygon", "coordinates": [[[57.87916800715144, 23.64822259776138], [57.879092958384106, 23.648250021678027], [57.879050547527065, 23.64814282680532], [57.879126533760655, 23.648120129445836], [57.87916800715144, 23.64822259776138]]]}, "properties": {"OBJECTID": 22, "Shape_Length": 41.122966791800614, "Shape_Area": 101.27207056244009, "Shade_ID": "SH_023", "Gov_Name": "Al Batinah South", "Wil_Name": "Barka", "Latitude": 23.64818408, "Longitude": 57.87910928}}, {"type": "Feature", "id": 23, "geometry": {"type": "Polygon", "coordinates": [[[57.88525349954211, 23.637812280700047], [57.885194562189035, 23.637544706100332], [57.88556193824344, 23.637483319427208], [57.88562026790604, 23.637749789118534], [57.88525349954211, 23.637812280700047]]]}, "properties": {"OBJECTID": 23, "Shape_Length": 136.45867534197066, "Shape_Area": 1148.0018642709958, "Shade_ID": "SH_024", "Gov_Name": "Al Batinah South", "Wil_Name": "Barka", "Latitude": 23.63764753, "Longitude": 57.88540743}}, {"type": "Feature", "id": 24, "geometry": {"type": "Polygon", "coordinates": [[[57.885865910978474, 23.637705507876248], [57.88580760401098, 23.637442043999208], [57.885971101328, 23.637407966400648], [57.886026484201864, 23.637673476399005], [57.885865910978474, 23.637705507876248]]]}, "properties": {"OBJECTID": 24, "Shape_Length": 93.56355754188156, "Shape_Area": 505.2344840067877, "Shade_ID": "SH_025", "Gov_Name": "Al Batinah South", "Wil_Name": "Barka", "Latitude": 23.6375568, "Longitude": 57.88591775}}]}