{"type": "FeatureCollection", "features": [{"type": "Feature", "id": 13, "geometry": {"type": "Polygon", "coordinates": [[[57.88663381968934, 23.635584242693373], [57.8864919818881, 23.635612500681923], [57.88648809911745, 23.63559232556798], [57.88662900552886, 23.63556493636437], [57.88663381968934, 23.635584242693373]]]}, "properties": {"OBJECTID": 13, "Shape_Length": 33.95428208933351, "Shape_Area": 32.88579364436753, "Solar_ID": "SP_001", "Gov_Name": "Al Batinah South", "Wil_Name": "Barka", "PanelCount": 13, "Latitude": 23.63558859, "Longitude": 57.88656034}}, {"type": "Feature", "id": 14, "geometry": {"type": "Polygon", "coordinates": [[[57.88663946873392, 23.635588353369297], [57.886645974859285, 23.63560851348292], [57.88650377650456, 23.635638845479125], [57.88649858438829, 23.635619022870525], [57.88663946873392, 23.635588353369297]]]}, "properties": {"OBJECTID": 14, "Shape_Length": 34.241949567961264, "Shape_Area": 33.9726092305517, "Solar_ID": "SP_002", "Gov_Name": "Al Batinah South", "Wil_Name": "Barka", "PanelCount": 13, "Latitude": 23.63561362, "Longitude": 57.8865723}}, {"type": "Feature", "id": 15, "geometry": {"type": "Polygon", "coordinates": [[[57.886505799300394, 23.635647482938335], [57.8866493845246, 23.635614188652927], [57.88665402689922, 23.635631423124583], [57.886510845275566, 23.635665402441248], [57.886505799300394, 23.635647482938335]]]}, "properties": {"OBJECTID": 15, "Shape_Length": 34.20120362044723, "Shape_Area": 30.304115632551053, "Solar_ID": "SP_003", "Gov_Name": "Al Batinah South", "Wil_Name": "Barka", "PanelCount": 13, "Latitude": 23.63563974, "Longitude": 57.88657952}}, {"type": "Feature", "id": 16, "geometry": {"type": "Polygon", "coordinates": [[[57.88651433929135, 23.63568942830123], [57.88651109548794, 23.635673733912345], [57.88665987328159, 23.635641835184398], [57.88666298337389, 23.635657906967566], [57.88651433929135, 23.63568942830123]]]}, "properties": {"OBJECTID": 16, "Shape_Length": 34.71717036333313, "Shape_Area": 27.814206212367015, "Solar_ID": "SP_004", "Gov_Name": "Al Batinah South", "Wil_Name": "Barka", "PanelCount": 13, "Latitude": 23.63566567, "Longitude": 57.88658733}}, {"type": "Feature", "id": 17, "geometry": {"type": "Polygon", "coordinates": [[[57.886663789275566, 23.635669268199106], [57.88666782288038, 23.635687671275033], [57.88652599050929, 23.63571776998252], [57.88652096516894, 23.635700149320776], [57.886663789275566, 23.635669268199106]]]}, "properties": {"OBJECTID": 17, "Shape_Length": 33.90715344891598, "Shape_Area": 30.513152053294572, "Solar_ID": "SP_005", "Gov_Name": "Al Batinah South", "Wil_Name": "Barka", "PanelCount": 13, "Latitude": 23.63569363, "Longitude": 57.886595}}, {"type": "Feature", "id": 18, "geometry": {"type": "Polygon", "coordinates": [[[57.89847654050046, 23.637770017141516], [57.89841242887284, 23.637773128823284], [57.89841315061888, 23.637537861210657], [57.89847612124561, 23.637538091641687], [57.89847654050046, 23.637770017141516]]]}, "properties": {"OBJECTID": 18, "Shape_Length": 64.6999261823707, "Shape_Area": 167.63349520130745, "Solar_ID": "SP_006", "Gov_Name": "Al Batinah South", "Wil_Name": "Barka", "PanelCount": 55, "Latitude": 23.63765513, "Longitude": 57.89844448}}, {"type": "Feature", "id": 19, "geometry": {"type": "Polygon", "coordinates": [[[57.88554507015065, 23.635891985079116], [57.88539909079583, 23.635917338461898], [57.88539607075931, 23.635899037947333], [57.88554204960256, 23.635873611411707], [57.88554507015065, 23.635891985079116]]]}, "properties": {"OBJECTID": 19, "Shape_Length": 34.41444731282675, "Shape_Area": 31.098305936664346, "Solar_ID": "SP_007", "Gov_Name": "Al Batinah South", "Wil_Name": "Barka", "PanelCount": 15, "Latitude": 23.63589548, "Longitude": 57.88547062}}, {"type": "Feature", "id": 20, "geometry": {"type": "Polygon", "coordinates": [[[57.88539554686535, 23.635890963640207], [57.885392212164085, 23.635872375898387], [57.885535987837066, 23.635845159162713], [57.8855399431482, 23.63586302170281], [57.88539554686535, 23.635890963640207]]]}, "properties": {"OBJECTID": 20, "Shape_Length": 34.12733252476158, "Shape_Area": 30.79333971654848, "Solar_ID": "SP_008", "Gov_Name": "Al Batinah South", "Wil_Name": "Barka", "PanelCount": 15, "Latitude": 23.63586796, "Longitude": 57.88546554}}, {"type": "Feature", "id": 21, "geometry": {"type": "Polygon", "coordinates": [[[57.88553526642587, 23.63583759990341], [57.88539074860713, 23.63586423018329], [57.88538781459126, 23.635846329293962], [57.885531847761555, 23.635820378279284], [57.88553526642587, 23.63583759990341]]]}, "properties": {"OBJECTID": 21, "Shape_Length": 33.9469453536357, "Shape_Area": 29.558375843329827, "Solar_ID": "SP_009", "Gov_Name": "Al Batinah South", "Wil_Name": "Barka", "PanelCount": 15, "Latitude": 23.63584221, "Longitude": 57.88546103}}, {"type": "Feature", "id": 22, "geometry": {"type": "Polygon", "coordinates": [[[57.88553007624166, 23.635811485572912], [57.88538555845017, 23.635838115847218], [57.885382519474724, 23.635820934502263], [57.885526896596026, 23.635793361192626], [57.88553007624166, 23.635811485572912]]]}, "properties": {"OBJECTID": 22, "Shape_Length": 34.03413519693483, "Shape_Area": 29.750514959934325, "Solar_ID": "SP_0010", "Gov_Name": "Al Batinah South", "Wil_Name": "Barka", "PanelCount": 15, "Latitude": 23.63581585, "Longitude": 57.8854569}}]}