{"type":"FeatureCollection","features":[{"type":"Feature","id":1,"geometry":{"type":"Polygon","coordinates":[[[57.885211576061167,23.635051761510283],[57.885282546702371,23.635387817541652],[57.884850957067087,23.635483321367644],[57.884780747335739,23.635140569886417],[57.885211576061167,23.635051761510283]]]},"properties":{"OBJECTID":1,"Shape_Length":166.83552923891972,"Shape_Area":1726.4057189388313,"Governorate":"Al Batinah South","Wilayat":"Barka","Latitude":23.635266139999999,"Longitude":57.885030819999997,"Pen_ID":"AP_001"}},{"type":"Feature","id":2,"geometry":{"type":"Polygon","coordinates":[[[57.885323023015324,23.635613992020577],[57.884881475809834,23.635711630136939],[57.884865638841468,23.63567133128273],[57.884955700248995,23.635647696505835],[57.884926963597941,23.6355787902069],[57.885298411133405,23.635497063608991],[57.885323023015324,23.635613992020577]]]},"properties":{"OBJECTID":2,"Shape_Length":120.93284153868456,"Shape_Area":546.1234863247962,"Governorate":"Al Batinah South","Wilayat":"Barka","Latitude":23.635602129999999,"Longitude":57.88511201,"Pen_ID":"AP_002"}},{"type":"Feature","id":3,"geometry":{"type":"Polygon","coordinates":[[[57.885519614882682,23.635530043840863],[57.88547596658784,23.635534865915869],[57.885469783563778,23.635501061101206],[57.885571430086138,23.635484932245181],[57.885577619289428,23.635519651959321],[57.885559390953588,23.635522917223931],[57.885565374431188,23.635543959182566],[57.885523224464841,23.635550144673893],[57.885519614882682,23.635530043840863]]]},"properties":{"OBJECTID":3,"Shape_Length":33.608912681867835,"Shape_Area":51.288739614295899,"Governorate":"Al Batinah South","Wilayat":"Barka","Latitude":23.63551558,"Longitude":57.885527439999997,"Pen_ID":"AP_003"}},{"type":"Feature","id":4,"geometry":{"type":"Polygon","coordinates":[[[57.885748859259955,23.635518674181984],[57.885714520297611,23.635431525628817],[57.885879566812655,23.635395371008954],[57.885896096088757,23.635491310006401],[57.885748859259955,23.635518674181984]]]},"properties":{"OBJECTID":4,"Shape_Length":53.647145684309372,"Shape_Area":170.55817094343359,"Governorate":"Al Batinah South","Wilayat":"Barka","Latitude":23.635458140000001,"Longitude":57.885810200000002,"Pen_ID":"AP_004"}},{"type":"Feature","id":5,"geometry":{"type":"Polygon","coordinates":[[[57.885907943026659,23.635484510809697],[57.885891346469371,23.635425778525796],[57.885975447519883,23.635413590916194],[57.885984404429585,23.635470025740023],[57.885907943026659,23.635484510809697]]]},"properties":{"OBJECTID":5,"Shape_Length":29.681457500641208,"Shape_Area":54.135565091290673,"Governorate":"Al Batinah South","Wilayat":"Barka","Latitude":23.63544813,"Longitude":57.885939290000003,"Pen_ID":"AP_005"}},{"type":"Feature","id":6,"geometry":{"type":"Polygon","coordinates":[[[57.885908009277451,23.635398055440607],[57.885905802164579,23.635372218527145],[57.885929179222394,23.635371711082978],[57.885930363442654,23.635396616319198],[57.885908009277451,23.635398055440607]]]},"properties":{"OBJECTID":6,"Shape_Length":10.300729363057867,"Shape_Area":6.5706166209059624,"Governorate":"Al Batinah South","Wilayat":"Barka","Latitude":23.635384559999999,"Longitude":57.885918259999997,"Pen_ID":"AP_006"}},{"type":"Feature","id":7,"geometry":{"type":"Polygon","coordinates":[[[57.885973839078879,23.635331184213442],[57.88597955475268,23.635364867033996],[57.885950506433666,23.635368592457414],[57.885943581613986,23.635336601908968],[57.885973839078879,23.635331184213442]]]},"properties":{"OBJECTID":7,"Shape_Length":13.522255158257133,"Shape_Area":11.323398769564967,"Governorate":"Al Batinah South","Wilayat":"Barka","Latitude":23.635350160000002,"Longitude":57.885961950000002,"Pen_ID":"AP_007"}},{"type":"Feature","id":8,"geometry":{"type":"Polygon","coordinates":[[[57.886145677632619,23.635337320685956],[57.886025043964047,23.635357115168063],[57.886014868959819,23.635325518016156],[57.886138763833088,23.635306828489256],[57.886145677632619,23.635337320685956]]]},"properties":{"OBJECTID":8,"Shape_Length":32.403411412137203,"Shape_Area":44.725304372704812,"Governorate":"Al Batinah South","Wilayat":"Barka","Latitude":23.63533172,"Longitude":57.886080560000003,"Pen_ID":"AP_008"}},{"type":"Feature","id":9,"geometry":{"type":"Polygon","coordinates":[[[57.886167560068806,23.635484271478738],[57.886145062862298,23.635386537634869],[57.886195088670725,23.635370704180904],[57.886179709234817,23.635298081020743],[57.886225323108654,23.635290503604946],[57.886241202827414,23.635367391510702],[57.88661958819592,23.63531294477103],[57.886622935939599,23.635367801213352],[57.886573353887222,23.635375859348798],[57.88658015430287,23.635427495124706],[57.886376765681433,23.635461813922124],[57.886369558012724,23.635441850185739],[57.886167560068806,23.635484271478738]]]},"properties":{"OBJECTID":9,"Shape_Length":138.64195142482441,"Shape_Area":569.58269165531817,"Governorate":"Al Batinah South","Wilayat":"Barka","Latitude":23.63539359,"Longitude":57.886370450000001,"Pen_ID":"AP_009"}},{"type":"Feature","id":10,"geometry":{"type":"Polygon","coordinates":[[[57.885700130847631,23.634227992803666],[57.885762580688009,23.63453529249832],[57.885709586481219,23.63454571002266],[57.885699268435332,23.634507838241383],[57.885612461945747,23.634523927596337],[57.88555800652253,23.634249033190258],[57.885700130847631,23.634227992803666]]]},"properties":{"OBJECTID":10,"Shape_Length":99.120923480917753,"Shape_Area":476.32696303197821,"Governorate":"Al Batinah South","Wilayat":"Barka","Latitude":23.634382339999998,"Longitude":57.885660029999997,"Pen_ID":"AP_010"}},{"type":"Feature","id":11,"geometry":{"type":"Polygon","coordinates":[[[57.8884155290461,23.645198759888203],[57.888443682457904,23.645348253674371],[57.888200055451655,23.645386400452523],[57.888178400849768,23.645224744884885],[57.8884155290461,23.645198759888203]]]},"properties":{"OBJECTID":11,"Shape_Length":84.396580782361795,"Shape_Area":431.34845320697872,"Governorate":"Al Batinah South","Wilayat":"Barka","Latitude":23.64529018,"Longitude":57.88830806,"Pen_ID":"AP_011"}},{"type":"Feature","id":12,"geometry":{"type":"Polygon","coordinates":[[[57.888404432682876,23.645468600040093],[57.887892965961868,23.64553888098591],[57.887878517606893,23.645469749983199],[57.888396292825199,23.645410606386932],[57.888404432682876,23.645468600040093]]]},"properties":{"OBJECTID":12,"Shape_Length":120.2316013690571,"Shape_Area":377.66130895182823,"Governorate":"Al Batinah South","Wilayat":"Barka","Latitude":23.645472909999999,"Longitude":57.888135169999998,"Pen_ID":"AP_012"}},{"type":"Feature","id":13,"geometry":{"type":"Polygon","coordinates":[[[57.888534924495431,23.64517523844874],[57.888784908438232,23.645139466251788],[57.888820168104047,23.645292836389824],[57.888764457731391,23.645299003914495],[57.888765437267594,23.6453213722748],[57.888568321648499,23.645354539246675],[57.888534924495431,23.64517523844874]]]},"properties":{"OBJECTID":13,"Shape_Length":91.943830923925717,"Shape_Area":504.6718252448627,"Governorate":"Al Batinah South","Wilayat":"Barka","Latitude":23.645244089999998,"Longitude":57.88867441,"Pen_ID":"AP_013"}},{"type":"Feature","id":14,"geometry":{"type":"Polygon","coordinates":[[[57.888121225162365,23.644679381952038],[57.888147931583127,23.644958830563333],[57.888074398453277,23.644959957121046],[57.888054440937125,23.644681598837316],[57.888080181856203,23.644681875013738],[57.888121225162365,23.644679381952038]]]},"properties":{"OBJECTID":14,"Shape_Length":76.269716928546131,"Shape_Area":220.99554382077233,"Governorate":"Al Batinah South","Wilayat":"Barka","Latitude":23.644822420000001,"Longitude":57.888099740000001,"Pen_ID":"AP_014"}},{"type":"Feature","id":17,"geometry":{"type":"Polygon","coordinates":[[[57.888328062407865,23.645145199291303],[57.888153092262215,23.645165065742923],[57.888144813047077,23.645104998227584],[57.888177103550049,23.645100953914696],[57.888160983281978,23.64497368835012],[57.888175938413774,23.644972775361154],[57.888176335158242,23.644987107716737],[57.888311800813582,23.644973927222274],[57.888314556657626,23.645002955516446],[57.88834610780826,23.645002675410609],[57.888348388982138,23.645030228794212],[57.888316698405283,23.645034546083455],[57.888328062407865,23.645145199291303]]]},"properties":{"OBJECTID":17,"Shape_Length":84.284364251424506,"Shape_Area":321.81355862365922,"Governorate":"Al Batinah South","Wilayat":"Barka","Latitude":23.645069060000001,"Longitude":57.888243090000003,"Pen_ID":"AP_017"}},{"type":"Feature","id":18,"geometry":{"type":"Polygon","coordinates":[[[57.888154742302753,23.645024446696993],[57.888159682616646,23.645091405757551],[57.888127373511999,23.645092693618317],[57.888123630268225,23.645025727700013],[57.888154742302753,23.645024446696993]]]},"properties":{"OBJECTID":18,"Shape_Length":21.330217124353513,"Shape_Area":24.04332184966751,"Governorate":"Al Batinah South","Wilayat":"Barka","Latitude":23.645058779999999,"Longitude":57.88814137,"Pen_ID":"AP_018"}},{"type":"Feature","id":19,"geometry":{"type":"Polygon","coordinates":[[[57.883826492684626,23.643461457415107],[57.885266656918311,23.643245951450535],[57.88527656422135,23.643333288227986],[57.884988134279752,23.64338649990691],[57.884969476250895,23.643323696008238],[57.884622670659958,23.643370388492912],[57.884625969828797,23.643394611480851],[57.883835577493372,23.643511280182761],[57.883826492684626,23.643461457415107]]]},"properties":{"OBJECTID":19,"Shape_Length":321.45189244642165,"Shape_Area":899.90516896803888,"Governorate":"Al Batinah South","Wilayat":"Barka","Latitude":23.64337493,"Longitude":57.884617329999998,"Pen_ID":"AP_019"}},{"type":"Feature","id":20,"geometry":{"type":"Polygon","coordinates":[[[57.884638253041651,23.643471707853465],[57.884896710983377,23.643450268912517],[57.884943078620175,23.643685577047172],[57.88491129669648,23.643685758418187],[57.884933547703653,23.643772140546172],[57.884727168880431,23.643803929322058],[57.884691707140519,23.643596244596218],[57.884659961113194,23.643597095882591],[57.884638253041651,23.643471707853465]]]},"properties":{"OBJECTID":20,"Shape_Length":127.93814752494703,"Shape_Area":881.9605248410503,"Governorate":"Al Batinah South","Wilayat":"Barka","Latitude":23.64361602,"Longitude":57.884800990000002,"Pen_ID":"AP_020"}},{"type":"Feature","id":21,"geometry":{"type":"Polygon","coordinates":[[[57.884653231000009,23.643857937832163],[57.884661723740209,23.643931351810814],[57.884584249401954,23.643944521639835],[57.884574398325476,23.643885181794765],[57.884580457076922,23.64388514723252],[57.884577436710657,23.643868418286683],[57.884653231000009,23.643857937832163]]]},"properties":{"OBJECTID":21,"Shape_Length":33.169880506390733,"Shape_Area":67.100131218243305,"Governorate":"Al Batinah South","Wilayat":"Barka","Latitude":23.643900890000001,"Longitude":57.884618160000002,"Pen_ID":"AP_021"}},{"type":"Feature","id":22,"geometry":{"type":"Polygon","coordinates":[[[57.885789835796807,23.643932604278611],[57.886000260701593,23.643875184440326],[57.886044087592936,23.644067437762519],[57.885838141570183,23.644103537409389],[57.885789835796807,23.643932604278611]]]},"properties":{"OBJECTID":22,"Shape_Length":85.075344114839424,"Shape_Area":451.27229016971285,"Governorate":"Al Batinah South","Wilayat":"Barka","Latitude":23.643993600000002,"Longitude":57.885919749999999,"Pen_ID":"AP_022"}},{"type":"Feature","id":23,"geometry":{"type":"Polygon","coordinates":[[[57.884140813122563,23.631903632989477],[57.884153412793957,23.631958454867995],[57.883931174472742,23.632003344056393],[57.883918178379815,23.631948162234245],[57.884140813122563,23.631903632989477]]]},"properties":{"OBJECTID":23,"Shape_Length":58.904589726391123,"Shape_Area":144.64233967345547,"Governorate":"Al Batinah South","Wilayat":"Barka","Latitude":23.631953419999999,"Longitude":57.884035750000002,"Pen_ID":"AP_023"}},{"type":"Feature","id":24,"geometry":{"type":"Polygon","coordinates":[[[57.884172778554742,23.631845649712222],[57.883909219714177,23.631906770922544],[57.883894230787803,23.631848691250102],[57.884159394641806,23.631791560282242],[57.884172778554742,23.631845649712222]]]},"properties":{"OBJECTID":24,"Shape_Length":68.254919684969977,"Shape_Area":176.93045298948755,"Governorate":"Al Batinah South","Wilayat":"Barka","Latitude":23.631848519999998,"Longitude":57.88403229,"Pen_ID":"AP_024"}},{"type":"Feature","id":25,"geometry":{"type":"Polygon","coordinates":[[[57.883886080792891,23.631810203627612],[57.883868712290464,23.631750320274506],[57.884133873522657,23.631692826283263],[57.884149663868811,23.631752718599124],[57.883886080792891,23.631810203627612]]]},"properties":{"OBJECTID":25,"Shape_Length":69.105502991217577,"Shape_Area":189.58528648690876,"Governorate":"Al Batinah South","Wilayat":"Barka","Latitude":23.631751510000001,"Longitude":57.884009460000001,"Pen_ID":"AP_025"}},{"type":"Feature","id":26,"geometry":{"type":"Polygon","coordinates":[[[57.883856543446512,23.631700950329133],[57.883841197096842,23.631648326198022],[57.884110658820326,23.631584990246857],[57.884128034732868,23.631645964593481],[57.883856543446512,23.631700950329133]]]},"properties":{"OBJECTID":26,"Shape_Length":69.736644154055554,"Shape_Area":184.44625801617281,"Governorate":"Al Batinah South","Wilayat":"Barka","Latitude":23.63164433,"Longitude":57.883987390000001,"Pen_ID":"AP_026"}},{"type":"Feature","id":27,"geometry":{"type":"Polygon","coordinates":[[[57.883826033370916,23.631583035471369],[57.883805830489713,23.631507768721711],[57.88407160786555,23.631450416750955],[57.88408825936007,23.631523376160317],[57.883826033370916,23.631583035471369]]]},"properties":{"OBJECTID":27,"Shape_Length":72.237481376864224,"Shape_Area":233.16223825925115,"Governorate":"Al Batinah South","Wilayat":"Barka","Latitude":23.63151628,"Longitude":57.883947050000003,"Pen_ID":"AP_027"}},{"type":"Feature","id":28,"geometry":{"type":"Polygon","coordinates":[[[57.883869714052189,23.631422568211939],[57.883850290583474,23.631345994613426],[57.884033616869907,23.6313057891171],[57.884052702948132,23.631380280031184],[57.883869714052189,23.631422568211939]]]},"properties":{"OBJECTID":28,"Shape_Length":55.649157949730537,"Shape_Area":165.22025372083991,"Governorate":"Al Batinah South","Wilayat":"Barka","Latitude":23.631363759999999,"Longitude":57.883951170000003,"Pen_ID":"AP_028"}},{"type":"Feature","id":29,"geometry":{"type":"Polygon","coordinates":[[[57.883755945262813,23.631163432092599],[57.883719592723679,23.630990304535267],[57.883987562772525,23.630940064668739],[57.884027494625492,23.631113603487904],[57.883755945262813,23.631163432092599]]]},"properties":{"OBJECTID":29,"Shape_Length":95.305471833029387,"Shape_Area":549.66296163798597,"Governorate":"Al Batinah South","Wilayat":"Barka","Latitude":23.631052010000001,"Longitude":57.883872820000001,"Pen_ID":"AP_029"}},{"type":"Feature","id":30,"geometry":{"type":"Polygon","coordinates":[[[57.883771236145819,23.6315456562862],[57.883786829365761,23.631590519640877],[57.883793364277281,23.63161725682739],[57.883735449917381,23.631628565145061],[57.883727988656226,23.63160241940896],[57.883732991351209,23.631604039246927],[57.883721058944509,23.631556877165149],[57.883771236145819,23.6315456562862]]]},"properties":{"OBJECTID":30,"Shape_Length":28.452228117371593,"Shape_Area":46.427066034946549,"Governorate":"Al Batinah South","Wilayat":"Barka","Latitude":23.63158799,"Longitude":57.883756220000002,"Pen_ID":"AP_030"}},{"type":"Feature","id":32,"geometry":{"type":"Polygon","coordinates":[[[57.885144854480529,23.630747325556015],[57.885101441721304,23.630563514963701],[57.885437687753573,23.63049872994436],[57.885479885487975,23.630690432290024],[57.885144854480529,23.630747325556015]]]},"properties":{"OBJECTID":32,"Shape_Length":112.27938688240332,"Shape_Area":741.17204202362802,"Governorate":"Al Batinah South","Wilayat":"Barka","Latitude":23.63062467,"Longitude":57.885292030000002,"Pen_ID":"AP_032"}},{"type":"Feature","id":33,"geometry":{"type":"Polygon","coordinates":[[[57.883776422329028,23.631778081137394],[57.883759462061889,23.631707151133249],[57.883809968056276,23.631695249162277],[57.88382531782517,23.631766932571683],[57.883776422329028,23.631778081137394]]]},"properties":{"OBJECTID":33,"Shape_Length":26.587557799667884,"Shape_Area":42.130126036522078,"Governorate":"Al Batinah South","Wilayat":"Barka","Latitude":23.631736650000001,"Longitude":57.883792769999999,"Pen_ID":"AP_033"}},{"type":"Feature","id":34,"geometry":{"type":"Polygon","coordinates":[[[57.883430344539995,23.631504920049881],[57.883532663102024,23.631919556671114],[57.883475346932372,23.631930332213596],[57.883372989072086,23.631517557267053],[57.883430344539995,23.631504920049881]]]},"properties":{"OBJECTID":34,"Shape_Length":105.94286507358069,"Shape_Area":281.43508690376711,"Governorate":"Al Batinah South","Wilayat":"Barka","Latitude":23.631717800000001,"Longitude":57.88345279,"Pen_ID":"AP_034"}},{"type":"Feature","id":35,"geometry":{"type":"Polygon","coordinates":[[[57.882125612650505,23.631749289085008],[57.882115146370836,23.631715294393803],[57.882277818256348,23.631673918629687],[57.882286733688588,23.631709521694646],[57.882125612650505,23.631749289085008]]]},"properties":{"OBJECTID":35,"Shape_Length":42.187863388895423,"Shape_Area":68.071016365306889,"Governorate":"Al Batinah South","Wilayat":"Barka","Latitude":23.631711859999999,"Longitude":57.882201760000001,"Pen_ID":"AP_035"}},{"type":"Feature","id":36,"geometry":{"type":"Polygon","coordinates":[[[57.882727911998288,23.63161380085084],[57.882811866559344,23.631919017010482],[57.882705143001616,23.631945045760666],[57.8826769651752,23.631805789251995],[57.882647659147764,23.631808993459124],[57.882659692305374,23.631918184033363],[57.882573029784886,23.631933915883483],[57.882549917755696,23.631802894794998],[57.882519576684778,23.631807004452483],[57.882517574833599,23.631793105677659],[57.88250008035839,23.631798002091436],[57.88247860455968,23.631726656858142],[57.882527295450636,23.631715827789307],[57.882516725127374,23.631666323990824],[57.882669556065224,23.631632519321169],[57.882668830938179,23.631627886424944],[57.882727911998288,23.63161380085084]]]},"properties":{"OBJECTID":36,"Shape_Length":148.89244482544606,"Shape_Area":750.10242531555889,"Governorate":"Al Batinah South","Wilayat":"Barka","Latitude":23.631779649999999,"Longitude":57.882653449999999,"Pen_ID":"AP_036"}},{"type":"Feature","id":37,"geometry":{"type":"Polygon","coordinates":[[[57.881686779531954,23.63187300400541],[57.881768806737,23.631853552528234],[57.881809040731511,23.631990471856007],[57.881724001987003,23.632005694535817],[57.881686779531954,23.63187300400541]]]},"properties":{"OBJECTID":37,"Shape_Length":48.356682707133245,"Shape_Area":134.76515926669444,"Governorate":"Al Batinah South","Wilayat":"Barka","Latitude":23.631930860000001,"Longitude":57.88174746,"Pen_ID":"AP_037"}},{"type":"Feature","id":38,"geometry":{"type":"Polygon","coordinates":[[[57.881801795855147,23.632708022272318],[57.881949664867804,23.632684478827386],[57.881959342876669,23.632730309909579],[57.881812525603763,23.632755446950991],[57.881801795855147,23.632708022272318]]]},"properties":{"OBJECTID":38,"Shape_Length":41.073563409978036,"Shape_Area":80.400175522266039,"Governorate":"Al Batinah South","Wilayat":"Barka","Latitude":23.63271962,"Longitude":57.881880379999998,"Pen_ID":"AP_038"}},{"type":"Feature","id":39,"geometry":{"type":"Polygon","coordinates":[[[57.882085939392653,23.632444060974571],[57.882125724556623,23.632594973297604],[57.882077244580259,23.632603243189763],[57.882037204660982,23.632454830549378],[57.882085939392653,23.632444060974571]]]},"properties":{"OBJECTID":39,"Shape_Length":44.268716366528452,"Shape_Area":86.453937922442549,"Governorate":"Al Batinah South","Wilayat":"Barka","Latitude":23.63252404,"Longitude":57.882081530000001,"Pen_ID":"AP_039"}},{"type":"Feature","id":40,"geometry":{"type":"Polygon","coordinates":[[[57.887585481276957,23.632692943485612],[57.887619289010196,23.632868459936557],[57.887546162175674,23.632884067435658],[57.887540064454761,23.63285468427032],[57.88751633122417,23.632860894968587],[57.887520072949393,23.632901004443355],[57.887494589497031,23.63290498702829],[57.887510716286535,23.633083482245567],[57.887469963759827,23.633087712956893],[57.887420504231706,23.632723411102667],[57.887461582424315,23.632718498435771],[57.887585481276957,23.632692943485612]]]},"properties":{"OBJECTID":40,"Shape_Length":122.15817858672608,"Shape_Area":440.49249938125541,"Governorate":"Al Batinah South","Wilayat":"Barka","Latitude":23.63283959,"Longitude":57.887509090000002,"Pen_ID":"AP_040"}},{"type":"Feature","id":41,"geometry":{"type":"Polygon","coordinates":[[[57.887733893664176,23.633007540542561],[57.88772230252885,23.632965717469911],[57.887745715010347,23.632962096237058],[57.887746809854576,23.632967593154994],[57.887764842817923,23.632964346824199],[57.887766953393424,23.632971603680389],[57.887781510420623,23.632969424950002],[57.887778421993303,23.63295424903373],[57.887906591030237,23.632933445494306],[57.887926919030946,23.633041130295183],[57.887749413889274,23.633070285379397],[57.88770468997847,23.633077416468137],[57.887687801167438,23.633017716912157],[57.887733893664176,23.633007540542561]]]},"properties":{"OBJECTID":41,"Shape_Length":73.805204224020031,"Shape_Area":255.12875005174945,"Governorate":"Al Batinah South","Wilayat":"Barka","Latitude":23.633007790000001,"Longitude":57.887813600000001,"Pen_ID":"AP_041"}},{"type":"Feature","id":42,"geometry":{"type":"Polygon","coordinates":[[[57.88830854820656,23.629546012058871],[57.888335405030617,23.629539943232256],[57.888320456314339,23.629484869623933],[57.888572376607179,23.629426348423188],[57.888578612185697,23.629450295323853],[57.888614314550104,23.629443535417753],[57.888643626582109,23.629581225332323],[57.888411802706365,23.629632960550534],[57.888392647578527,23.629533005841498],[57.888374902571186,23.629536578446832],[57.888376493159967,23.629561651146858],[57.888314309312399,23.629573597962811],[57.88830854820656,23.629546012058871]]]},"properties":{"OBJECTID":42,"Shape_Length":107.38371671426404,"Shape_Area":492.85462643828652,"Governorate":"Al Batinah South","Wilayat":"Barka","Latitude":23.62952744,"Longitude":57.888490009999998,"Pen_ID":"AP_042"}},{"type":"Feature","id":43,"geometry":{"type":"Polygon","coordinates":[[[57.888198287787617,23.629527700592043],[57.888211067046967,23.629561701476025],[57.888127360868289,23.629583157472016],[57.888115361743544,23.629549561263445],[57.888198287787617,23.629527700592043]]]},"properties":{"OBJECTID":43,"Shape_Length":25.561862644408695,"Shape_Area":34.83578764149383,"Governorate":"Al Batinah South","Wilayat":"Barka","Latitude":23.62955552,"Longitude":57.888163140000003,"Pen_ID":"AP_043"}},{"type":"Feature","id":44,"geometry":{"type":"Polygon","coordinates":[[[57.887313174485115,23.629543309476382],[57.886882894245055,23.629650259075227],[57.886812583000086,23.629612502692837],[57.886559472650632,23.628756579286581],[57.886598529579118,23.628679782930867],[57.886625449756394,23.628671488559203],[57.886852756873566,23.629489748779609],[57.887271012529681,23.629393187085526],[57.887313174485115,23.629543309476382]]]},"properties":{"OBJECTID":44,"Shape_Length":318.94432389452709,"Shape_Area":1636.7212688243344,"Governorate":"Al Batinah South","Wilayat":"Barka","Latitude":23.62932601,"Longitude":57.886890430000001,"Pen_ID":"AP_044"}},{"type":"Feature","id":46,"geometry":{"type":"Polygon","coordinates":[[[57.883041760254258,23.643037525336428],[57.883018431580389,23.642874779178836],[57.882957196343575,23.642882122217596],[57.882935477622929,23.642635928594377],[57.883486447830904,23.642547853881599],[57.88354735873601,23.64299780579384],[57.883041760254258,23.643037525336428]]]},"properties":{"OBJECTID":46,"Shape_Length":210.82432582920711,"Shape_Area":2641.8158014060155,"Governorate":"Al Batinah South","Wilayat":"Barka","Latitude":23.64279973,"Longitude":57.883251440000002,"Pen_ID":"AP_046"}},{"type":"Feature","id":47,"geometry":{"type":"Polygon","coordinates":[[[57.883344110951327,23.643529984094371],[57.883039423284281,23.643574993435763],[57.882961651409893,23.643141517714831],[57.883254804972303,23.643108259811083],[57.883344110951327,23.643529984094371]]]},"properties":{"OBJECTID":47,"Shape_Length":157.82154057667577,"Shape_Area":1480.4238444037865,"Governorate":"Al Batinah South","Wilayat":"Barka","Latitude":23.643340370000001,"Longitude":57.88314973,"Pen_ID":"AP_047"}},{"type":"Feature","id":48,"geometry":{"type":"Polygon","coordinates":[[[57.885354387414075,23.641447978275199],[57.885363302310537,23.641494634412968],[57.885430086452025,23.64148316095423],[57.885440411146014,23.641526458175971],[57.885327179096699,23.641543842699313],[57.88530570548145,23.641455530546466],[57.885354387414075,23.641447978275199]]]},"properties":{"OBJECTID":48,"Shape_Length":43.847711186122226,"Shape_Area":82.100977763427792,"Governorate":"Al Batinah South","Wilayat":"Barka","Latitude":23.641501609999999,"Longitude":57.885365190000002,"Pen_ID":"AP_048"}},{"type":"Feature","id":49,"geometry":{"type":"Polygon","coordinates":[[[57.884315119311005,23.641656038195716],[57.884300072459183,23.641555698393205],[57.884690677791042,23.641493265230341],[57.884702873874652,23.641572886553003],[57.884315119311005,23.641656038195716]]]},"properties":{"OBJECTID":49,"Shape_Length":101.16427066290603,"Shape_Area":406.68253932783358,"Governorate":"Al Batinah South","Wilayat":"Barka","Latitude":23.641570869999999,"Longitude":57.884494740000001,"Pen_ID":"AP_049"}},{"type":"Feature","id":50,"geometry":{"type":"Polygon","coordinates":[[[57.88426254752261,23.641661333557259],[57.883637466051567,23.641757428230981],[57.883633128740264,23.641731871685227],[57.883666445082525,23.641731042380364],[57.883664234072349,23.641712029126051],[57.883643921155851,23.641710865944823],[57.883638721496155,23.641685953776562],[57.883662842287912,23.641685656467068],[57.883662252451607,23.641674321087891],[57.883896486953361,23.641639117196053],[57.883897942269058,23.641657424840567],[57.884093200456228,23.641623773212483],[57.884090063371382,23.641603223487092],[57.884251986794851,23.641582702709229],[57.88426254752261,23.641661333557259]]]},"properties":{"OBJECTID":50,"Shape_Length":155.86747138229569,"Shape_Area":511.68394496105469,"Governorate":"Al Batinah South","Wilayat":"Barka","Latitude":23.641671639999998,"Longitude":57.883952170000001,"Pen_ID":"AP_050"}},{"type":"Feature","id":51,"geometry":{"type":"Polygon","coordinates":[[[57.885031390995962,23.639587402007923],[57.884812148236172,23.639630861218887],[57.884788719047194,23.639501650688452],[57.884731512301968,23.639511090309131],[57.884718988710453,23.639455203249192],[57.8849944420135,23.6394091853033],[57.885031390995962,23.639587402007923]]]},"properties":{"OBJECTID":51,"Shape_Length":98.270005591486722,"Shape_Area":501.12913770874445,"Governorate":"Al Batinah South","Wilayat":"Barka","Latitude":23.63951552,"Longitude":57.884892149999999,"Pen_ID":"AP_051"}},{"type":"Feature","id":52,"geometry":{"type":"Polygon","coordinates":[[[57.881664656732902,23.642011626994005],[57.881605415174427,23.64203319797187],[57.88154277257069,23.641870924300871],[57.881535446180322,23.641870217197184],[57.881518357117372,23.641828844918496],[57.881592232977525,23.641805941659175],[57.881615257465782,23.641842783164886],[57.881592843229683,23.641856650032835],[57.881623649755532,23.64192167674112],[57.881675275876603,23.641896651872997],[57.881712690537036,23.641976629557437],[57.881659442985082,23.642002413310856],[57.881664656732902,23.642011626994005]]]},"properties":{"OBJECTID":52,"Shape_Length":77.365530527638995,"Shape_Area":212.89168654346415,"Governorate":"Al Batinah South","Wilayat":"Barka","Latitude":23.641925019999999,"Longitude":57.881612840000003,"Pen_ID":"AP_052"}},{"type":"Feature","id":53,"geometry":{"type":"Polygon","coordinates":[[[57.882102742371771,23.643383208050135],[57.882076195723286,23.643303347502588],[57.882047570464273,23.643308012767807],[57.882030464505554,23.643258175890651],[57.882061465227501,23.643251598595668],[57.882044929143852,23.643198873665334],[57.88212271109817,23.643177645933978],[57.882180206308952,23.64336629938088],[57.882102742371771,23.643383208050135]]]},"properties":{"OBJECTID":53,"Shape_Length":65.411045888210424,"Shape_Area":195.12761715678025,"Governorate":"Al Batinah South","Wilayat":"Barka","Latitude":23.643281229999999,"Longitude":57.882107040000001,"Pen_ID":"AP_053"}},{"type":"Feature","id":54,"geometry":{"type":"Polygon","coordinates":[[[57.882380896918121,23.643237141939277],[57.882376558242157,23.643156226588378],[57.882442723510721,23.643156100267202],[57.882437298943671,23.643236820988538],[57.882380896918121,23.643237141939277]]]},"properties":{"OBJECTID":54,"Shape_Length":30.426316958127323,"Shape_Area":55.932845255057032,"Governorate":"Al Batinah South","Wilayat":"Barka","Latitude":23.643195500000001,"Longitude":57.882409359999997,"Pen_ID":"AP_054"}},{"type":"Feature","id":55,"geometry":{"type":"Polygon","coordinates":[[[57.8826558932141,23.642536205841715],[57.882744579009646,23.643121905961863],[57.882696065069936,23.643125680206033],[57.882600202589288,23.642538910869941],[57.8826558932141,23.642536205841715]]]},"properties":{"OBJECTID":55,"Shape_Length":141.82963818851346,"Shape_Area":348.32449450531703,"Governorate":"Al Batinah South","Wilayat":"Barka","Latitude":23.642824170000001,"Longitude":57.882673150000002,"Pen_ID":"AP_055"}},{"type":"Feature","id":56,"geometry":{"type":"Polygon","coordinates":[[[57.882459584721865,23.643283169997417],[57.882449985942117,23.643249169562488],[57.882554511137549,23.643230508050291],[57.882562552399428,23.643264996940513],[57.882459584721865,23.643283169997417]]]},"properties":{"OBJECTID":56,"Shape_Length":29.349042920316165,"Shape_Area":41.95724596867398,"Governorate":"Al Batinah South","Wilayat":"Barka","Latitude":23.643256910000002,"Longitude":57.8825067,"Pen_ID":"AP_056"}},{"type":"Feature","id":57,"geometry":{"type":"Polygon","coordinates":[[[57.891730152912082,23.644746712367606],[57.891776969928287,23.644741047433687],[57.891829876971649,23.645057648319842],[57.891784208492588,23.645060069613468],[57.891730152912082,23.644746712367606]]]},"properties":{"OBJECTID":57,"Shape_Length":80.079486394286832,"Shape_Area":166.93454029905601,"Governorate":"Al Batinah South","Wilayat":"Barka","Latitude":23.644900419999999,"Longitude":57.891780179999998,"Pen_ID":"AP_057"}},{"type":"Feature","id":58,"geometry":{"type":"Polygon","coordinates":[[[57.891891289777192,23.645457320432843],[57.89190210126857,23.64551869812535],[57.891872207433011,23.645520785751504],[57.891863476378198,23.645459690532107],[57.891891289777192,23.645457320432843]]]},"properties":{"OBJECTID":58,"Shape_Length":19.614371800136809,"Shape_Area":20.199928024559554,"Governorate":"Al Batinah South","Wilayat":"Barka","Latitude":23.645489479999998,"Longitude":57.891882340000002,"Pen_ID":"AP_058"}},{"type":"Feature","id":59,"geometry":{"type":"Polygon","coordinates":[[[57.892862111854541,23.644499278373083],[57.892631119606826,23.644523399506731],[57.892624890681148,23.644452529091097],[57.892677327018539,23.644446241753968],[57.892696972743956,23.644432085770081],[57.892722708578816,23.644431476977317],[57.892742905825649,23.644424914590541],[57.892792369705127,23.644422557874517],[57.892852597316619,23.644422902040887],[57.892862111854541,23.644499278373083]]]},"properties":{"OBJECTID":59,"Shape_Length":64.039455729960707,"Shape_Area":207.74864259735961,"Governorate":"Al Batinah South","Wilayat":"Barka","Latitude":23.644471370000002,"Longitude":57.892744880000002,"Pen_ID":"AP_059"}},{"type":"Feature","id":60,"geometry":{"type":"Polygon","coordinates":[[[57.892463799857254,23.64454001679216],[57.892175115820329,23.644569534405729],[57.892164341675354,23.644458716483747],[57.892307507609772,23.644450902873249],[57.892303867559868,23.644429974196772],[57.892421671789677,23.644408116315802],[57.892425978676492,23.644490508129536],[57.892457938109573,23.644486410645115],[57.892463799857254,23.64454001679216]]]},"properties":{"OBJECTID":60,"Shape_Length":89.567114841570486,"Shape_Area":364.37332145225878,"Governorate":"Al Batinah South","Wilayat":"Barka","Latitude":23.644497260000001,"Longitude":57.892311540000001,"Pen_ID":"AP_060"}},{"type":"Feature","id":61,"geometry":{"type":"Polygon","coordinates":[[[57.892176999867189,23.64456934202326],[57.892076223808282,23.64457954266183],[57.892061921462179,23.644460373307719],[57.892163042098879,23.644447359953027],[57.892176999867189,23.64456934202326]]]},"properties":{"OBJECTID":61,"Shape_Length":47.610813835456376,"Shape_Area":139.31378038001566,"Governorate":"Al Batinah South","Wilayat":"Barka","Latitude":23.64451407,"Longitude":57.892119729999997,"Pen_ID":"AP_061"}},{"type":"Feature","id":62,"geometry":{"type":"Polygon","coordinates":[[[57.890596841848918,23.644309995830831],[57.890546402053374,23.644018624572819],[57.890615064813382,23.644009956949493],[57.8906275995638,23.644082261661964],[57.89066709405212,23.644080856146644],[57.890706802103949,23.644296416930406],[57.890596841848918,23.644309995830831]]]},"properties":{"OBJECTID":62,"Shape_Length":87.400055663268063,"Shape_Area":331.54703412477119,"Governorate":"Al Batinah South","Wilayat":"Barka","Latitude":23.644169519999998,"Longitude":57.890624449999997,"Pen_ID":"AP_062"}},{"type":"Feature","id":63,"geometry":{"type":"Polygon","coordinates":[[[57.891660376390149,23.641774229001118],[57.891627180400661,23.641632607246649],[57.892182223860786,23.64152627813877],[57.892203327370019,23.641653465813341],[57.892002400189213,23.641688463526748],[57.891913286314249,23.641703018975928],[57.891918696441785,23.641726930683205],[57.891660376390149,23.641774229001118]]]},"properties":{"OBJECTID":63,"Shape_Length":147.77187973697954,"Shape_Area":859.70430981361324,"Governorate":"Al Batinah South","Wilayat":"Barka","Latitude":23.641647989999999,"Longitude":57.891908720000004,"Pen_ID":"AP_063"}},{"type":"Feature","id":64,"geometry":{"type":"Polygon","coordinates":[[[57.898653071751227,23.638383644986188],[57.898340831196464,23.638385788062632],[57.898339952627914,23.638289803358845],[57.898571042730268,23.638289128505665],[57.898567545306307,23.638346800627204],[57.898652822964259,23.63834720249865],[57.898653071751227,23.638383644986188]]]},"properties":{"OBJECTID":64,"Shape_Length":85.179853873175219,"Shape_Area":281.8711223435497,"Governorate":"Al Batinah South","Wilayat":"Barka","Latitude":23.638340670000002,"Longitude":57.898474010000001,"Pen_ID":"AP_064"}},{"type":"Feature","id":65,"geometry":{"type":"Polygon","coordinates":[[[57.899265874247952,23.638382183924517],[57.899072288770455,23.638381931593589],[57.899072442316985,23.63834369574117],[57.899265210554788,23.638342004619862],[57.899265874247952,23.638382183924517]]]},"properties":{"OBJECTID":65,"Shape_Length":48.093177547656062,"Shape_Area":85.541984284318673,"Governorate":"Al Batinah South","Wilayat":"Barka","Latitude":23.63836246,"Longitude":57.899169749999999,"Pen_ID":"AP_065"}},{"type":"Feature","id":66,"geometry":{"type":"Polygon","coordinates":[[[57.899318407993754,23.638145895189169],[57.898936480413489,23.63814777966887],[57.89891954996056,23.638133078040546],[57.898914256863584,23.637886565313998],[57.899319227636859,23.637886308524497],[57.899318407993754,23.638145895189169]]]},"properties":{"OBJECTID":66,"Shape_Length":138.68156405431122,"Shape_Area":1180.3695511063418,"Governorate":"Al Batinah South","Wilayat":"Barka","Latitude":23.638016159999999,"Longitude":57.899117939999996,"Pen_ID":"AP_066"}},{"type":"Feature","id":67,"geometry":{"type":"Polygon","coordinates":[[[57.898897508580824,23.63813097399424],[57.898879578442738,23.638149048788812],[57.898412888167364,23.638149840816478],[57.89840704578323,23.637888209031647],[57.898894205363163,23.637890301535279],[57.898897508580824,23.63813097399424]]]},"properties":{"OBJECTID":67,"Shape_Length":155.6318370420498,"Shape_Area":1426.2098663998024,"Governorate":"Al Batinah South","Wilayat":"Barka","Latitude":23.638019079999999,"Longitude":57.898652210000002,"Pen_ID":"AP_067"}},{"type":"Feature","id":68,"geometry":{"type":"Polygon","coordinates":[[[57.899402420983357,23.638308029206357],[57.898919707324318,23.63831246344456],[57.898919872468028,23.638184756100124],[57.898936982710076,23.638168216065896],[57.89937004003059,23.638164940425135],[57.899372193287789,23.638267589616966],[57.899403110761575,23.638267219752574],[57.899402420983357,23.638308029206357]]]},"properties":{"OBJECTID":68,"Shape_Length":129.12621578119274,"Shape_Area":745.69913981794548,"Governorate":"Al Batinah South","Wilayat":"Barka","Latitude":23.638239649999999,"Longitude":57.899150460000001,"Pen_ID":"AP_068"}},{"type":"Feature","id":69,"geometry":{"type":"Polygon","coordinates":[[[57.900159204494749,23.637678597012261],[57.900158810256698,23.637685889891134],[57.900134156904315,23.6376851713256],[57.900135642174,23.637637859668683],[57.900135267405652,23.637630795245265],[57.900171245372519,23.637632287152297],[57.90017101902815,23.637637752796291],[57.900175127806456,23.637637760561024],[57.900172901015473,23.637678708996336],[57.900159204494749,23.637678597012261]]]},"properties":{"OBJECTID":69,"Shape_Length":19.983145975054725,"Shape_Area":22.446641624142721,"Governorate":"Al Batinah South","Wilayat":"Barka","Latitude":23.637657560000001,"Longitude":57.900153639999999,"Pen_ID":"AP_069"}},{"type":"Feature","id":70,"geometry":{"type":"Polygon","coordinates":[[[57.900416173155364,23.634529933362622],[57.900128689300836,23.634459889103148],[57.900121568585348,23.634443616908463],[57.900415904903795,23.634436810956942],[57.900416173155364,23.634529933362622]]]},"properties":{"OBJECTID":70,"Shape_Length":72.620428862287582,"Shape_Area":178.39436496091375,"Governorate":"Al Batinah South","Wilayat":"Barka","Latitude":23.634471139999999,"Longitude":57.90030522,"Pen_ID":"AP_070"}},{"type":"Feature","id":71,"geometry":{"type":"Polygon","coordinates":[[[57.900913875660031,23.634537918811692],[57.900450210337723,23.634544350380228],[57.900450761580707,23.634409078313826],[57.900914432429921,23.634403667333924],[57.900913875660031,23.634537918811692]]]},"properties":{"OBJECTID":71,"Shape_Length":124.4457885296348,"Shape_Area":705.67984451376765,"Governorate":"Al Batinah South","Wilayat":"Barka","Latitude":23.634473759999999,"Longitude":57.900682029999999,"Pen_ID":"AP_071"}},{"type":"Feature","id":73,"geometry":{"type":"Polygon","coordinates":[[[57.900592798868558,23.634663047828969],[57.900528252569281,23.634615134139796],[57.900556821390325,23.634580817555822],[57.900621361732753,23.63462786149092],[57.900592798868558,23.634663047828969]]]},"properties":{"OBJECTID":73,"Shape_Length":26.503585890632849,"Shape_Area":40.650673370094793,"Governorate":"Al Batinah South","Wilayat":"Barka","Latitude":23.634621800000001,"Longitude":57.900574880000001,"Pen_ID":"AP_073"}},{"type":"Feature","id":74,"geometry":{"type":"Polygon","coordinates":[[[57.900615324036401,23.634677055664245],[57.900614196012349,23.63465030776095],[57.900645593261423,23.634649690118039],[57.900644698649877,23.634691458162369],[57.900629352912723,23.634691547265586],[57.900629260665973,23.634678062191412],[57.900615324036401,23.634677055664245]]]},"properties":{"OBJECTID":74,"Shape_Length":15.277189993953751,"Shape_Area":11.94985719076999,"Governorate":"Al Batinah South","Wilayat":"Barka","Latitude":23.634667919999998,"Longitude":57.900631529999998,"Pen_ID":"AP_074"}},{"type":"Feature","id":75,"geometry":{"type":"Polygon","coordinates":[[[57.901514845535928,23.635158632547935],[57.90145770011528,23.635157224216943],[57.901460734671232,23.635117618633757],[57.901518353088342,23.635119240981755],[57.901514845535928,23.635158632547935]]]},"properties":{"OBJECTID":75,"Shape_Length":20.483625911075571,"Shape_Area":25.654280743270675,"Governorate":"Al Batinah South","Wilayat":"Barka","Latitude":23.63513815,"Longitude":57.901487889999999,"Pen_ID":"AP_075"}},{"type":"Feature","id":76,"geometry":{"type":"Polygon","coordinates":[[[57.901361215819193,23.634996387564122],[57.901358924699814,23.634937671513608],[57.901404939646525,23.634934140865855],[57.901409829117092,23.634993059485161],[57.901361215819193,23.634996387564122]]]},"properties":{"OBJECTID":76,"Shape_Length":22.730401230457073,"Shape_Area":31.569557629084521,"Governorate":"Al Batinah South","Wilayat":"Barka","Latitude":23.634965579999999,"Longitude":57.901383770000002,"Pen_ID":"AP_076"}},{"type":"Feature","id":77,"geometry":{"type":"Polygon","coordinates":[[[57.901251155947747,23.634887399065885],[57.901252267256574,23.634842800957262],[57.901283899824158,23.634842182719964],[57.901284448764891,23.634887857725371],[57.901251155947747,23.634887399065885]]]},"properties":{"OBJECTID":77,"Shape_Length":16.620597518041979,"Shape_Area":16.548619056998504,"Governorate":"Al Batinah South","Wilayat":"Barka","Latitude":23.634865250000001,"Longitude":57.901268010000003,"Pen_ID":"AP_077"}},{"type":"Feature","id":78,"geometry":{"type":"Polygon","coordinates":[[[57.901425894986112,23.634891386465597],[57.90142559565075,23.634847667235345],[57.901472803752128,23.63484587009135],[57.901473585058071,23.634891109307105],[57.901425894986112,23.634891386465597]]]},"properties":{"OBJECTID":78,"Shape_Length":19.534680792794667,"Shape_Area":23.842721161770722,"Governorate":"Al Batinah South","Wilayat":"Barka","Latitude":23.634869040000002,"Longitude":57.90144961,"Pen_ID":"AP_078"}},{"type":"Feature","id":79,"geometry":{"type":"Polygon","coordinates":[[[57.901373058171245,23.634792873123985],[57.901366788107751,23.634739210088451],[57.901415426116436,23.634730770684666],[57.901421345235818,23.634787154374887],[57.901373058171245,23.634792873123985]]]},"properties":{"OBJECTID":79,"Shape_Length":22.262620601333929,"Shape_Area":30.604095550957151,"Governorate":"Al Batinah South","Wilayat":"Barka","Latitude":23.63476241,"Longitude":57.901394340000003,"Pen_ID":"AP_079"}},{"type":"Feature","id":81,"geometry":{"type":"Polygon","coordinates":[[[57.900361905326967,23.641237368374487],[57.900460876634455,23.641276402429799],[57.900438074198043,23.641325785130071],[57.900529151722232,23.641361851012569],[57.90054048463886,23.641336134475743],[57.900602766727388,23.641353824941586],[57.900495915895817,23.64174367172253],[57.900197724426178,23.641627982249709],[57.900201790890321,23.641601430914761],[57.900361905326967,23.641237368374487]]]},"properties":{"OBJECTID":81,"Shape_Length":160.73889856663578,"Shape_Area":1334.6421092008375,"Governorate":"Al Batinah South","Wilayat":"Barka","Latitude":23.641501819999998,"Longitude":57.900406150000002,"Pen_ID":"AP_081"}},{"type":"Feature","id":82,"geometry":{"type":"Polygon","coordinates":[[[57.900275893208573,23.641690709645655],[57.900189390199529,23.641676739011857],[57.900197724426178,23.641627982249709],[57.900284195634619,23.641661530710884],[57.900275893208573,23.641690709645655]]]},"properties":{"OBJECTID":82,"Shape_Length":27.333148309340771,"Shape_Area":40.294011985597095,"Governorate":"Al Batinah South","Wilayat":"Barka","Latitude":23.641663149999999,"Longitude":57.900233409999998,"Pen_ID":"AP_082"}},{"type":"Feature","id":83,"geometry":{"type":"Polygon","coordinates":[[[57.900275893208573,23.641690709645655],[57.900252643894547,23.641825277907081],[57.900164028062683,23.641811597710863],[57.900189390199529,23.641676739011857],[57.900275893208573,23.641690709645655]]]},"properties":{"OBJECTID":83,"Shape_Length":48.363964151140536,"Shape_Area":137.0081355113461,"Governorate":"Al Batinah South","Wilayat":"Barka","Latitude":23.641751330000002,"Longitude":57.900220410000003,"Pen_ID":"AP_083"}},{"type":"Feature","id":84,"geometry":{"type":"Polygon","coordinates":[[[57.900252643894547,23.641825277907081],[57.900232892367093,23.641941177600074],[57.900145481433206,23.641926933129646],[57.900164028062683,23.641811597710863],[57.900252643894547,23.641825277907081]]]},"properties":{"OBJECTID":84,"Shape_Length":44.118362229753139,"Shape_Area":117.94200124707751,"Governorate":"Al Batinah South","Wilayat":"Barka","Latitude":23.641876140000001,"Longitude":57.900198830000001,"Pen_ID":"AP_084"}},{"type":"Feature","id":85,"geometry":{"type":"Polygon","coordinates":[[[57.900232892367093,23.641941177600074],[57.900223556259576,23.641989661091237],[57.900303464952856,23.642011463650316],[57.900293007654255,23.642072756436949],[57.900164535358293,23.642062369458468],[57.900161387057246,23.642087994203283],[57.900115416381574,23.642081023743948],[57.900145481433206,23.641926933129646],[57.900232892367093,23.641941177600074]]]},"properties":{"OBJECTID":85,"Shape_Length":67.973252146610918,"Shape_Area":209.14416047419542,"Governorate":"Al Batinah South","Wilayat":"Barka","Latitude":23.642014150000001,"Longitude":57.90019916,"Pen_ID":"AP_085"}},{"type":"Feature","id":86,"geometry":{"type":"Polygon","coordinates":[[[57.901063105504498,23.641550384755107],[57.901023424483185,23.641787766187711],[57.90086844136875,23.64177507622535],[57.900914714161708,23.641530860895188],[57.901063105504498,23.641550384755107]]]},"properties":{"OBJECTID":86,"Shape_Length":85.201734053653638,"Shape_Area":420.32908738809209,"Governorate":"Al Batinah South","Wilayat":"Barka","Latitude":23.641661679999999,"Longitude":57.900966910000001,"Pen_ID":"AP_086"}},{"type":"Feature","id":87,"geometry":{"type":"Polygon","coordinates":[[[57.894548514791687,23.643638988147575],[57.894435327184311,23.643307819716181],[57.894553002672275,23.643257563621585],[57.894599894172686,23.643349924828836],[57.894642737894841,23.643333151889042],[57.894692166632645,23.643451591740998],[57.89473557066276,23.643586592100867],[57.894548514791687,23.643638988147575]]]},"properties":{"OBJECTID":87,"Shape_Length":117.29009442203669,"Shape_Area":724.3913051412253,"Governorate":"Al Batinah South","Wilayat":"Barka","Latitude":23.64345578,"Longitude":57.894582810000003,"Pen_ID":"AP_087"}},{"type":"Feature","id":88,"geometry":{"type":"Polygon","coordinates":[[[57.894340779989122,23.643218777982369],[57.894129926061638,23.642895130747643],[57.894215868197776,23.64282940189085],[57.894365875696529,23.642952045170659],[57.894384601326529,23.64299847070339],[57.894423626883402,23.643114361324422],[57.894342697441907,23.64315353363256],[57.894374670028107,23.643204230746928],[57.894340779989122,23.643218777982369]]]},"properties":{"OBJECTID":88,"Shape_Length":112.19225908515794,"Shape_Area":573.58435311359517,"Governorate":"Al Batinah South","Wilayat":"Barka","Latitude":23.643006400000001,"Longitude":57.894286630000003,"Pen_ID":"AP_088"}},{"type":"Feature","id":89,"geometry":{"type":"Polygon","coordinates":[[[57.894713846154282,23.643648240406005],[57.894749679184883,23.643644182425756],[57.894768680644816,23.643688458512283],[57.894804797342182,23.643791005733899],[57.894764831773209,23.643801978050412],[57.894713846154282,23.643648240406005]]]},"properties":{"OBJECTID":89,"Shape_Length":42.942894218366874,"Shape_Area":70.797750524148697,"Governorate":"Al Batinah South","Wilayat":"Barka","Latitude":23.643722969999999,"Longitude":57.894759319999999,"Pen_ID":"AP_089"}},{"type":"Feature","id":90,"geometry":{"type":"Polygon","coordinates":[[[57.885830193502898,23.6332502870696],[57.885815378558398,23.633254065751583],[57.885831743110266,23.633385464379817],[57.88573981261618,23.633435576714426],[57.885755161064047,23.6335264004659],[57.885578800691405,23.633598837737903],[57.885545365041857,23.633604065756593],[57.885533473937336,23.63355311379161],[57.885555872427602,23.633547816016399],[57.885478964007568,23.63323576299052],[57.885803972788558,23.633162477963193],[57.885830193502898,23.6332502870696]]]},"properties":{"OBJECTID":90,"Shape_Length":148.21592970289922,"Shape_Area":1160.4693695289077,"Governorate":"Al Batinah South","Wilayat":"Barka","Latitude":23.633363280000001,"Longitude":57.885657940000002,"Pen_ID":"AP_090"}},{"type":"Feature","id":91,"geometry":{"type":"Polygon","coordinates":[[[57.886332730873946,23.635775737970118],[57.886464547788258,23.635748515557349],[57.886475104719246,23.635783669993597],[57.88634811500836,23.635819331405767],[57.886332730873946,23.635775737970118]]]},"properties":{"OBJECTID":91,"Shape_Length":36.43566582367994,"Shape_Area":62.150405915888399,"Governorate":"Al Batinah South","Wilayat":"Barka","Latitude":23.63578236,"Longitude":57.886402670000003,"Pen_ID":"AP_091"}},{"type":"Feature","id":92,"geometry":{"type":"Polygon","coordinates":[[[57.883712340113412,23.645705757887853],[57.883560266943768,23.645407683479942],[57.883647539692937,23.645371445747013],[57.883794532871825,23.645674259193836],[57.883712340113412,23.645705757887853]]]},"properties":{"OBJECTID":92,"Shape_Length":92.037327970721066,"Shape_Area":344.68973267435075,"Governorate":"Al Batinah South","Wilayat":"Barka","Latitude":23.64553793,"Longitude":57.883677810000002,"Pen_ID":"AP_092"}},{"type":"Feature","id":93,"geometry":{"type":"Polygon","coordinates":[[[57.891446958928185,23.634969331280058],[57.89123100433995,23.634281264997671],[57.891605861010561,23.634235820518732],[57.891800545865472,23.634866000712144],[57.891446958928185,23.634969331280058]]]},"properties":{"OBJECTID":93,"Shape_Length":228.25507183694475,"Shape_Area":2883.8573924609714,"Governorate":"Al Batinah South","Wilayat":"Barka","Latitude":23.6345882,"Longitude":57.891518259999998,"Pen_ID":"AP_093"}}]}