{"type":"FeatureCollection","features":[{"type":"Feature","id":1,"geometry":{"type":"Polygon","coordinates":[[[57.883778719663674,23.6395119607343],[57.885009934058452,23.639302158321733],[57.885464721357259,23.641224248701381],[57.884216343529516,23.641427896507391],[57.883778719663674,23.6395119607343]]]},"properties":{"OBJECTID":1,"Governorate":"North Al Batinah","Wilayat":"Barka","Land_Cover_Type":"Agricultural","Latitude":23.64036844,"Longitude":57.884618349999997,"Farm_ID":"F_345","Land_Cover_ID":"LC_345","Shape_Length":691.62332169429044,"Shape_Area":27911.425664824332}},{"type":"Feature","id":2,"geometry":{"type":"Polygon","coordinates":[[[57.884112367144645,23.641463642662703],[57.882688816135548,23.641657332805568],[57.882395569458666,23.639690028815227],[57.883714921687179,23.639532788930062],[57.884112367144645,23.641463642662703]]]},"properties":{"OBJECTID":2,"Governorate":"North Al Batinah","Wilayat":"Barka","Land_Cover_Type":"Agricultural","Latitude":23.640598929999999,"Longitude":57.883228860000003,"Farm_ID":"F_346","Land_Cover_ID":"LC_346","Shape_Length":719.93503343864097,"Shape_Area":30872.961143345226}},{"type":"Feature","id":3,"geometry":{"type":"Polygon","coordinates":[[[57.883836678344835,23.639433298821881],[57.882947852198377,23.635652254095529],[57.884250668357296,23.635340659642658],[57.885012680711249,23.639243046438768],[57.883836678344835,23.639433298821881]]]},"properties":{"OBJECTID":3,"Governorate":"North Al Batinah","Wilayat":"Barka","Land_Cover_Type":"Agricultural","Latitude":23.637378959999999,"Longitude":57.884006300000003,"Farm_ID":"F_347","Land_Cover_ID":"LC_347","Shape_Length":1126.4400095096262,"Shape_Area":56114.59058243037}},{"type":"Feature","id":4,"geometry":{"type":"Polygon","coordinates":[[[57.882888208647266,23.635667077291441],[57.883708024059651,23.639454426162203],[57.882407275324489,23.639649087090774],[57.881632491751503,23.635969702156515],[57.882888208647266,23.635667077291441]]]},"properties":{"OBJECTID":4,"Governorate":"North Al Batinah","Wilayat":"Barka","Land_Cover_Type":"Agricultural","Latitude":23.63768958,"Longitude":57.882663290000004,"Farm_ID":"F_348","Land_Cover_ID":"LC_348","Shape_Length":1109.3861817023419,"Shape_Area":56134.496041580016}},{"type":"Feature","id":5,"geometry":{"type":"Polygon","coordinates":[[[57.88287130986614,23.635608693201956],[57.881619442935545,23.63592867718674],[57.881036594858607,23.633937484413593],[57.882398032038097,23.63360710509297],[57.88287130986614,23.635608693201956]]]},"properties":{"OBJECTID":5,"Governorate":"North Al Batinah","Wilayat":"Barka","Land_Cover_Type":"Agricultural","Latitude":23.63475729,"Longitude":57.88197693,"Farm_ID":"F_349","Land_Cover_ID":"LC_349","Shape_Length":731.28690820055988,"Shape_Area":31401.058395891348}},{"type":"Feature","id":6,"geometry":{"type":"Polygon","coordinates":[[[57.882488121626807,23.633590297980657],[57.883840701693025,23.633269407610406],[57.88423567673518,23.635280953397125],[57.882949584624583,23.635591757049593],[57.882488121626807,23.633590297980657]]]},"properties":{"OBJECTID":6,"Governorate":"North Al Batinah","Wilayat":"Barka","Land_Cover_Type":"Agricultural","Latitude":23.634424899999999,"Longitude":57.88337645,"Farm_ID":"F_350","Land_Cover_ID":"LC_350","Shape_Length":730.97947485989039,"Shape_Area":31425.987439937548}},{"type":"Feature","id":7,"geometry":{"type":"Polygon","coordinates":[[[57.880956920792016,23.633908402332178],[57.88092376684434,23.633083657621974],[57.883673958295901,23.632329649354638],[57.883851357273663,23.633232500017446],[57.880956920792016,23.633908402332178]]]},"properties":{"OBJECTID":7,"Governorate":"North Al Batinah","Wilayat":"Barka","Land_Cover_Type":"Agricultural","Latitude":23.633134219999999,"Longitude":57.882382190000001,"Farm_ID":"F_351","Land_Cover_ID":"LC_351","Shape_Length":790.25528271430665,"Shape_Area":28384.449929822236}},{"type":"Feature","id":8,"geometry":{"type":"Polygon","coordinates":[[[57.880892893815151,23.633038639585696],[57.880750931408251,23.631181596113862],[57.883179398054075,23.630157310574212],[57.883665343308117,23.632281323120374],[57.880892893815151,23.633038639585696]],[[57.882384237834692,23.63210769412029],[57.882299714547138,23.632125813451648],[57.8822035061877,23.632150152684492],[57.882227931337532,23.632229339912442],[57.882405545908746,23.63218458234422],[57.882390183555415,23.632130663867322],[57.882384237834692,23.63210769412029]],[[57.88251207292992,23.632071706940639],[57.882476430930609,23.632080611121253],[57.88248437722919,23.632110851071293],[57.88251813915079,23.632102998972702],[57.88251207292992,23.632071706940639]],[[57.882611479955187,23.632047362867539],[57.882547306166458,23.63206046850253],[57.882564818784438,23.632124822931534],[57.882629795493429,23.632109962321241],[57.882611479955187,23.632047362867539]],[[57.883135904473207,23.630282015357214],[57.882905071178982,23.63032266266196],[57.882937553383258,23.630498168928824],[57.883174130650488,23.630464829165344],[57.883135904473207,23.630282015357214]]]},"properties":{"OBJECTID":8,"Governorate":"North Al Batinah","Wilayat":"Barka","Land_Cover_Type":"Agricultural","Latitude":23.63167778,"Longitude":57.882156969999997,"Farm_ID":"F_352","Land_Cover_ID":"LC_352","Shape_Length":1200.6601794738519,"Shape_Area":60901.277635982129}},{"type":"Feature","id":9,"geometry":{"type":"Polygon","coordinates":[[[57.886571982049148,23.633809894847481],[57.88433779950703,23.634192626258443],[57.883927999986106,23.632325178974842],[57.886183607511612,23.631922439690737],[57.886571982049148,23.633809894847481]],[[57.885890202744655,23.633503196563051],[57.885785278960689,23.633526818271736],[57.885824784943885,23.633684804051938],[57.885927256692,23.633664340350546],[57.885890202744655,23.633503196563051]],[[57.884226413795943,23.633274610219775],[57.884196824924018,23.633279532415091],[57.884213069680982,23.633365011530056],[57.884241885453825,23.633358684748966],[57.884243364474564,23.633379804834586],[57.884289951553846,23.633372850174784],[57.884263950543357,23.633286369040345],[57.884229575406913,23.633290086563779],[57.884226413795943,23.633274610219775]],[[57.885807226513414,23.633157812429122],[57.885464525410129,23.633241714391801],[57.885544766337667,23.633601047073984],[57.885842267599614,23.633408567692925],[57.885807226513414,23.633157812429122]],[[57.884249498392457,23.633031933764254],[57.88420432124019,23.633043572487725],[57.88421134972473,23.6330703538008],[57.884255802688855,23.633060069484749],[57.884249498392457,23.633031933764254]]]},"properties":{"OBJECTID":9,"Governorate":"North Al Batinah","Wilayat":"Barka","Land_Cover_Type":"Agricultural","Latitude":23.63305063,"Longitude":57.885245980000001,"Farm_ID":"F_353","Land_Cover_ID":"LC_353","Shape_Length":1143.3512835787537,"Shape_Area":47898.325635631576}},{"type":"Feature","id":10,"geometry":{"type":"Polygon","coordinates":[[[57.884038284170998,23.632245419494438],[57.884037792548483,23.632243742347111],[57.884027367691367,23.632195408385801],[57.884047537360907,23.632190640162818],[57.884024020994275,23.632110739960876],[57.883933493924317,23.632130101064615],[57.883940497718136,23.632157747800353],[57.883874094572519,23.632171703047508],[57.883251953797703,23.629730903782349],[57.88532939476724,23.629234759052078],[57.886156116327797,23.631842055852296],[57.884038284170998,23.632245419494438]]]},"properties":{"OBJECTID":10,"Governorate":"North Al Batinah","Wilayat":"Barka","Land_Cover_Type":"Agricultural","Latitude":23.630778880000001,"Longitude":57.884672690000002,"Farm_ID":"F_354","Land_Cover_ID":"LC_354","Shape_Length":1054.3811290318988,"Shape_Area":66644.982131351571}},{"type":"Feature","id":11,"geometry":{"type":"Polygon","coordinates":[[[57.887260509573615,23.634100348982585],[57.887351354684192,23.635073096080877],[57.884634867268971,23.635559211391563],[57.884318267575075,23.634499063579728],[57.884468271808515,23.634331121183067],[57.886956488692043,23.633839522691204],[57.887260509573615,23.634100348982585]]]},"properties":{"OBJECTID":11,"Governorate":"North Al Batinah","Wilayat":"Barka","Land_Cover_Type":"Agricultural","Latitude":23.63469636,"Longitude":57.885872110000001,"Farm_ID":"F_357","Land_Cover_ID":"LC_357","Shape_Length":838.16086119957208,"Shape_Area":40460.292646392576}},{"type":"Feature","id":12,"geometry":{"type":"Polygon","coordinates":[[[57.884747998439707,23.636412747443575],[57.884631099199204,23.635598666504016],[57.88733235831954,23.635092429313524],[57.887291710560561,23.635321620609009],[57.887301754379635,23.63573517793084],[57.887565794491465,23.636956583820805],[57.884988381732924,23.637441217449549],[57.884747998439707,23.636412747443575]],[[57.887064174731499,23.635612092483665],[57.886680517060292,23.635699248150729],[57.886188692368833,23.635808290322757],[57.88632027900556,23.636389903105005],[57.887195343223517,23.636192219273678],[57.887064174731499,23.635612092483665]]]},"properties":{"OBJECTID":12,"Governorate":"North Al Batinah","Wilayat":"Barka","Land_Cover_Type":"Agricultural","Latitude":23.636308509999999,"Longitude":57.886016410000003,"Farm_ID":"F_358","Land_Cover_ID":"LC_358","Shape_Length":1281.5247188243748,"Shape_Area":50018.884933402995}},{"type":"Feature","id":13,"geometry":{"type":"Polygon","coordinates":[[[57.887923361634329,23.638906270331432],[57.885507899194046,23.63931392782888],[57.885142584364836,23.63748922216395],[57.887497564072198,23.637084278107608],[57.887923361634329,23.638906270331432]]]},"properties":{"OBJECTID":13,"Governorate":"North Al Batinah","Wilayat":"Barka","Land_Cover_Type":"Agricultural","Latitude":23.638202039999999,"Longitude":57.886519460000002,"Farm_ID":"F_359","Land_Cover_ID":"LC_359","Shape_Length":906.6436817176924,"Shape_Area":50933.026110846251}},{"type":"Feature","id":14,"geometry":{"type":"Polygon","coordinates":[[[57.888508527457844,23.639233114283591],[57.888760170319344,23.640687713183492],[57.888574652107962,23.640712645942031],[57.88585710491995,23.641153866991313],[57.885547377623034,23.639405201725772],[57.888273177006369,23.638912223442787],[57.888508527457844,23.639233114283591]]]},"properties":{"OBJECTID":14,"Governorate":"North Al Batinah","Wilayat":"Barka","Land_Cover_Type":"Agricultural","Latitude":23.640035220000001,"Longitude":57.887152499999999,"Farm_ID":"F_360","Land_Cover_ID":"LC_360","Shape_Length":986.07382601345148,"Shape_Area":59563.308115144318}},{"type":"Feature","id":15,"geometry":{"type":"Polygon","coordinates":[[[57.883036239255084,23.643576800801149],[57.882673724201638,23.641751386478369],[57.88547498397341,23.641310053444158],[57.885823073180575,23.643155124121609],[57.883036239255084,23.643576800801149]]]},"properties":{"OBJECTID":15,"Governorate":"North Al Batinah","Wilayat":"Barka","Land_Cover_Type":"Agricultural","Latitude":23.642447050000001,"Longitude":57.884253970000003,"Farm_ID":"F_362","Land_Cover_ID":"LC_362","Shape_Length":990.75731940301296,"Shape_Area":59641.589071036702}},{"type":"Feature","id":16,"geometry":{"type":"Polygon","coordinates":[[[57.883298777330872,23.644487008154723],[57.883027451089951,23.643592331646847],[57.885864974911449,23.643151756985088],[57.885992122684428,23.643803745623494],[57.883298777330872,23.644487008154723]],[[57.884431014357034,23.6435184598818],[57.88423025560261,23.643547924525201],[57.884255678031884,23.643688331476362],[57.884454734666022,23.643659402164552],[57.884431014357034,23.6435184598818]]]},"properties":{"OBJECTID":16,"Governorate":"North Al Batinah","Wilayat":"Barka","Land_Cover_Type":"Agricultural","Latitude":23.643774749999999,"Longitude":57.884469979999999,"Farm_ID":"F_364","Land_Cover_ID":"LC_364","Shape_Length":827.49116146079632,"Shape_Area":25090.634997553825}},{"type":"Feature","id":17,"geometry":{"type":"Polygon","coordinates":[[[57.88600515988324,23.643876063257402],[57.88625951708061,23.645121866491944],[57.88477065932689,23.645463998206779],[57.884669835858425,23.645223079422081],[57.884423016761964,23.644621582707277],[57.884291022259589,23.644330640811766],[57.88600515988324,23.643876063257402]]]},"properties":{"OBJECTID":17,"Governorate":"North Al Batinah","Wilayat":"Barka","Land_Cover_Type":"Agricultural","Latitude":23.644681550000001,"Longitude":57.885334710000002,"Farm_ID":"F_365","Land_Cover_ID":"LC_365","Shape_Length":613.50748856251403,"Shape_Area":23115.883803440891}},{"type":"Feature","id":18,"geometry":{"type":"Polygon","coordinates":[[[57.884910899331189,23.64775146827855],[57.884004141855989,23.645808027228227],[57.886234360049599,23.645179332551407],[57.886673324067999,23.647320990496002],[57.884910899331189,23.64775146827855]],[[57.885366074314817,23.646047308917488],[57.885316669603881,23.646057560494889],[57.885332150890385,23.646118361101298],[57.885383096468054,23.646107030432006],[57.885366074314817,23.646047308917488]],[[57.885357239913027,23.645940540102551],[57.885287022070763,23.645959456556366],[57.885305328014823,23.646038043948341],[57.885372858722924,23.646021633845425],[57.885357239913027,23.645940540102551]],[[57.88506113521418,23.645900727763681],[57.884993472911496,23.645917977551296],[57.885020872778846,23.646019683684806],[57.885024327878654,23.64601852503284],[57.88508633624172,23.646006548754965],[57.88506113521418,23.645900727763681]],[[57.884834639719777,23.645720399313198],[57.884649691426858,23.645776890120935],[57.884721894290657,23.645970678109055],[57.884898652458453,23.645927189405327],[57.884834639719777,23.645720399313198]]]},"properties":{"OBJECTID":18,"Governorate":"North Al Batinah","Wilayat":"Barka","Land_Cover_Type":"Agricultural","Latitude":23.646479110000001,"Longitude":57.885454439999997,"Farm_ID":"F_366","Land_Cover_ID":"LC_366","Shape_Length":1078.8787341496834,"Shape_Area":49441.415029608004}},{"type":"Feature","id":19,"geometry":{"type":"Polygon","coordinates":[[[57.889607851775999,23.644337701814234],[57.889812995872759,23.645482862037582],[57.88735602833993,23.645989840695986],[57.887301710828034,23.645680350680664],[57.886659685313795,23.645778995298524],[57.886527143206798,23.64486863380483],[57.887923106675373,23.644629045198975],[57.889607851775999,23.644337701814234]],[[57.887024697965458,23.645466117739623],[57.886718134924678,23.645508253072109],[57.886727233092188,23.645591589558581],[57.887031574821499,23.645557331042337],[57.887024697965458,23.645466117739623]],[[57.887301820501676,23.645339944376293],[57.887198800771678,23.645353288797093],[57.887209447835147,23.645419686874341],[57.887307733300865,23.645406368633605],[57.887301820501676,23.645339944376293]],[[57.887962037221399,23.645023660866499],[57.887616323730533,23.645069070425677],[57.887642331615893,23.645266615871005],[57.887657647562747,23.645265409133273],[57.887925634195796,23.645240043941559],[57.887915608489855,23.645129635025814],[57.887968943760541,23.645124412603565],[57.887962037221399,23.645023660866499]]]},"properties":{"OBJECTID":19,"Governorate":"North Al Batinah","Wilayat":"Barka","Land_Cover_Type":"Agricultural","Latitude":23.645164770000001,"Longitude":57.888231259999998,"Farm_ID":"F_367","Land_Cover_ID":"LC_367","Shape_Length":1141.2540685531656,"Shape_Area":39605.895970983816}},{"type":"Feature","id":20,"geometry":{"type":"Polygon","coordinates":[[[57.893135532834741,23.645849223712226],[57.892769538572004,23.643530567785426],[57.892825680232711,23.643519327625555],[57.89280535161371,23.643385398689553],[57.892748340832348,23.643396271727909],[57.892747701514637,23.643392211931129],[57.892666476652025,23.642927712562322],[57.893018002579481,23.642866178842169],[57.893156162756846,23.64336341426409],[57.893110890521804,23.643369378694715],[57.893118183556275,23.64340719142583],[57.893164583026937,23.643401478814077],[57.89317018745902,23.643415549029889],[57.893519796225867,23.643328093544103],[57.89347478732347,23.643208213419172],[57.893685132828971,23.643136920562679],[57.893676081823727,23.643084244167216],[57.893754005863016,23.643063605033753],[57.893779441420357,23.643141674264065],[57.894008958567689,23.643099679422278],[57.894044843456776,23.643216274679769],[57.894096829968404,23.643203460268481],[57.894375425570757,23.643220624805657],[57.894569786810948,23.643668983384792],[57.894678316780649,23.643647499755595],[57.894901646077408,23.644141836765591],[57.895162008947359,23.644858613451923],[57.895377355413565,23.64534238947228],[57.895168815118623,23.64546640277463],[57.894937443433818,23.645535816668556],[57.894449246221669,23.64566077539045],[57.894085293452179,23.645730952769703],[57.893507661036914,23.645809036289425],[57.893135532834741,23.645849223712226]],[[57.894628465055341,23.643672363318512],[57.894530139185342,23.64369600629745],[57.894577247380887,23.643842578746629],[57.89461136095241,23.643836088476451],[57.89467503940584,23.643824183671086],[57.894628465055341,23.643672363318512]],[[57.893177506170247,23.643439518330474],[57.893113992126047,23.643453107839317],[57.893134383128903,23.64351340334446],[57.893193136818482,23.643503211069287],[57.893177506170247,23.643439518330474]]]},"properties":{"OBJECTID":20,"Governorate":"North Al Batinah","Wilayat":"Barka","Land_Cover_Type":"Agricultural","Latitude":23.644485339999999,"Longitude":57.893908539999998,"Farm_ID":"F_370","Land_Cover_ID":"LC_370","Shape_Length":1200.7917460268582,"Shape_Area":58095.350818277038}},{"type":"Feature","id":21,"geometry":{"type":"Polygon","coordinates":[[[57.892730307565301,23.643680626580817],[57.891481369367604,23.643826222017225],[57.891308219631227,23.642640717746062],[57.891246482076419,23.642216622823263],[57.891277457965977,23.642110071780007],[57.891392729485553,23.641964821082091],[57.891442538366981,23.641925235802294],[57.89147305074254,23.641911818643329],[57.892193523306887,23.641741389639275],[57.892419572748103,23.641686505955121],[57.892421472107294,23.641708242176701],[57.892730307565301,23.643680626580817]]]},"properties":{"OBJECTID":21,"Governorate":"North Al Batinah","Wilayat":"Barka","Land_Cover_Type":"Agricultural","Latitude":23.642800600000001,"Longitude":57.89197463,"Farm_ID":"F_371","Land_Cover_ID":"LC_371","Shape_Length":673.29361176236034,"Shape_Area":27121.334982040629}},{"type":"Feature","id":22,"geometry":{"type":"Polygon","coordinates":[[[57.891426928643192,23.643831987582708],[57.890485480149152,23.643943469058247],[57.890108837933802,23.642155396450228],[57.890552463468232,23.642076359581026],[57.890584642634181,23.642120892928844],[57.890738566540442,23.642095037309499],[57.890772895871706,23.64225372677646],[57.890935431488991,23.642222037423821],[57.891189688551229,23.642177433485809],[57.89124738496006,23.642617932027189],[57.891305693445858,23.643003110757736],[57.891426928643192,23.643831987582708]]]},"properties":{"OBJECTID":22,"Governorate":"North Al Batinah","Wilayat":"Barka","Land_Cover_Type":"Agricultural","Latitude":23.643004250000001,"Longitude":57.890785649999998,"Farm_ID":"F_372","Land_Cover_ID":"LC_372","Shape_Length":612.50716613496775,"Shape_Area":19919.019031653563}},{"type":"Feature","id":23,"geometry":{"type":"Polygon","coordinates":[[[57.890913184615378,23.646058979412096],[57.89053632874127,23.643974651619242],[57.891353710753634,23.643888527644286],[57.891407883866492,23.644202206850984],[57.891677480072339,23.644162639490947],[57.89186852229777,23.645326409447531],[57.891962832304579,23.645906673199672],[57.890913184615378,23.646058979412096]],[[57.891594183087157,23.644931526694958],[57.891335639532457,23.644976443263843],[57.891394915688771,23.645191616756765],[57.891628579023973,23.645150122652847],[57.891594183087157,23.644931526694958]]]},"properties":{"OBJECTID":23,"Governorate":"North Al Batinah","Wilayat":"Barka","Land_Cover_Type":"Agricultural","Latitude":23.64497867,"Longitude":57.891240969999998,"Farm_ID":"F_373","Land_Cover_ID":"LC_373","Shape_Length":784.69083847658874,"Shape_Area":23926.559785557885}},{"type":"Feature","id":24,"geometry":{"type":"Polygon","coordinates":[[[57.891751999302073,23.644616587966439],[57.89164978098092,23.643996623386261],[57.891701150993136,23.64430685121777],[57.891982806106789,23.644261444364261],[57.89194517220151,23.64395846706357],[57.89164978098092,23.643996623386261],[57.891627688285411,23.643862631261221],[57.892364903855302,23.643788335961698],[57.892733275541275,23.643750760700648],[57.892750555764636,23.643769029505716],[57.892860647383813,23.644500908944796],[57.891751999302073,23.644616587966439]]]},"properties":{"OBJECTID":24,"Governorate":"North Al Batinah","Wilayat":"Barka","Land_Cover_Type":"Agricultural","Latitude":23.644188119999999,"Longitude":57.892297069999998,"Farm_ID":"F_374","Land_Cover_ID":"LC_374","Shape_Length":524.2782472187738,"Shape_Area":8602.819960063307}},{"type":"Feature","id":25,"geometry":{"type":"Polygon","coordinates":[[[57.878230609765737,23.648969883506552],[57.87715066329303,23.645755085248762],[57.877178437463627,23.645748093629717],[57.877183612500346,23.645759170979723],[57.877231759518558,23.64574533075611],[57.877872533808883,23.645532293315828],[57.878307578988768,23.645408942956028],[57.878569918880252,23.64531249452871],[57.878654083387488,23.645288046757287],[57.878386906889716,23.644489800426719],[57.878315918474591,23.644274618212375],[57.879974563688165,23.643956109468004],[57.880194997883464,23.643914277708799],[57.880467006312344,23.645361027987423],[57.881102631252553,23.648424308543888],[57.878238792655715,23.648997496673644],[57.878230609765737,23.648969883506552]],[[57.878754478110721,23.646298826284021],[57.878617546494944,23.646338935626606],[57.878698780635737,23.646568709411405],[57.878832878811401,23.646530187616786],[57.878754478110721,23.646298826284021]]]},"properties":{"OBJECTID":25,"Governorate":"North Al Batinah","Wilayat":"Barka","Land_Cover_Type":"Agricultural","Latitude":23.646614809999999,"Longitude":57.879241350000001,"Farm_ID":"F_375","Land_Cover_ID":"LC_375","Shape_Length":1741.42883701511,"Shape_Area":145749.3786155222}},{"type":"Feature","id":26,"geometry":{"type":"Polygon","coordinates":[[[57.882225294886801,23.639765953919465],[57.882342749852164,23.640534443545224],[57.882489758025585,23.641561667305041],[57.882520328854838,23.641625995191639],[57.882747525715047,23.643146253840321],[57.882758807386494,23.643235569127736],[57.88259020031019,23.643272342443357],[57.882180252158335,23.643364656203868],[57.882143944279278,23.643372088333344],[57.882100080149783,23.643382710177899],[57.882008545581677,23.643403321565039],[57.881903342127195,23.643424970735797],[57.881859830341632,23.643264468902338],[57.881751975110788,23.642865291758234],[57.881687686149789,23.642612777322306],[57.881638414891498,23.642313510146533],[57.881486903163179,23.641988743393966],[57.881365209115671,23.641734973565281],[57.881239867917905,23.641436755401678],[57.881177873422153,23.641266909975549],[57.881041047680348,23.640910092356624],[57.880994566413165,23.640837636338642],[57.880963444372469,23.640811218471612],[57.880877051668627,23.640785988845348],[57.880737312522015,23.640753254899685],[57.88066044848474,23.640575069546188],[57.88054065149575,23.640341664331029],[57.880585878290354,23.640240597081625],[57.880756415584571,23.640071538984607],[57.882225294886801,23.639765953919465]]]},"properties":{"OBJECTID":26,"Governorate":"North Al Batinah","Wilayat":"Barka","Land_Cover_Type":"Agricultural","Latitude":23.641416939999999,"Longitude":57.88183849,"Farm_ID":"F_376","Land_Cover_ID":"LC_376","Shape_Length":1049.7872423765493,"Shape_Area":47846.295058152245}},{"type":"Feature","id":27,"geometry":{"type":"Polygon","coordinates":[[[57.881903342127195,23.643424970735797],[57.880765697075994,23.643711711440492],[57.880679839837967,23.643670525536709],[57.880423297467097,23.643010234612714],[57.880559833247041,23.642765474029986],[57.881639794341567,23.642460013608854],[57.881663049999524,23.642463143741423],[57.881903342127195,23.643424970735797]]]},"properties":{"OBJECTID":27,"Governorate":"North Al Batinah","Wilayat":"Barka","Land_Cover_Type":"Agricultural","Latitude":23.6431024,"Longitude":57.881168819999999,"Farm_ID":"F_377","Land_Cover_ID":"LC_377","Shape_Length":465.2013141378967,"Shape_Area":14147.550293784172}},{"type":"Feature","id":28,"geometry":{"type":"Polygon","coordinates":[[[57.890705744025183,23.63166082834007],[57.888914039735575,23.632138800279073],[57.88741104977619,23.632483968742143],[57.887275466198759,23.631885645032483],[57.886993712945369,23.630471462685058],[57.886867014500673,23.629810574511115],[57.889740712903944,23.629094284262717],[57.889990953647555,23.629650392876293],[57.890705744025183,23.63166082834007]]]},"properties":{"OBJECTID":28,"Governorate":"North Al Batinah","Wilayat":"Barka","Land_Cover_Type":"Agricultural","Latitude":23.63079699,"Longitude":57.88869631,"Farm_ID":"F_378","Land_Cover_ID":"LC_378","Shape_Length":1254.0339881273146,"Shape_Area":99233.594664784381}},{"type":"Feature","id":29,"geometry":{"type":"Polygon","coordinates":[[[57.886881122843562,23.629650844539182],[57.886809331366514,23.629608289796327],[57.886558895109012,23.6287565582006],[57.886600359454704,23.62867871121545],[57.886773837234379,23.628608999885465],[57.88767129943276,23.628223717691117],[57.888662432671147,23.627794578325283],[57.88909491180403,23.627603091875041],[57.88916731629778,23.627633704496954],[57.88926774944219,23.627889929751966],[57.889455117850282,23.628382153509222],[57.889658391335125,23.628908932438126],[57.889622317232941,23.628973534599364],[57.886881122843562,23.629650844539182]]]},"properties":{"OBJECTID":29,"Governorate":"North Al Batinah","Wilayat":"Barka","Land_Cover_Type":"Agricultural","Latitude":23.628702870000001,"Longitude":57.888138550000001,"Farm_ID":"F_379","Land_Cover_ID":"LC_379","Shape_Length":852.48356053949578,"Shape_Area":40038.926747152909}},{"type":"Feature","id":30,"geometry":{"type":"Polygon","coordinates":[[[57.887664626620769,23.634834269353803],[57.88741588572563,23.632723388751462],[57.888624491301861,23.632474184420541],[57.889925558971562,23.632207895588483],[57.890531450983381,23.632092367827802],[57.890808069224988,23.632041468627396],[57.890831220197001,23.63215254004151],[57.890900712189826,23.632481060107573],[57.890925578506021,23.632604531575907],[57.890992646597901,23.632904650005703],[57.891098384760696,23.633391388829065],[57.89112001670324,23.633499994135704],[57.891199887211769,23.633882544114432],[57.89120925542796,23.633945845045563],[57.891196671579181,23.63394929620506],[57.891202593159967,23.633971211677274],[57.891224232867621,23.634046320948226],[57.890507482131881,23.634241136666169],[57.889966049710537,23.634385223221912],[57.889627730468526,23.634461430261759],[57.888836710443513,23.634619777725462],[57.887985609160054,23.634798403247292],[57.887664626620769,23.634834269353803]]]},"properties":{"OBJECTID":30,"Governorate":"North Al Batinah","Wilayat":"Barka","Land_Cover_Type":"Agricultural","Latitude":23.633438850000001,"Longitude":57.889274929999999,"Farm_ID":"F_380","Land_Cover_ID":"LC_380","Shape_Length":1190.3596261227826,"Shape_Area":85487.906682585599}},{"type":"Feature","id":31,"geometry":{"type":"Polygon","coordinates":[[[57.901858083764836,23.636131653423824],[57.901596064203325,23.636113976602001],[57.90160238402671,23.636044756932975],[57.899097316861095,23.636061743258587],[57.898467975341894,23.635207991015907],[57.898404023620728,23.63511899113384],[57.898272776320638,23.634939101290406],[57.898226587551356,23.634875499284924],[57.898207862031697,23.634850944154827],[57.898199476831941,23.634593968487785],[57.898195327788024,23.634451672341235],[57.899818892094778,23.634417956548667],[57.900577687915167,23.634406232476969],[57.902424266976936,23.634390275362559],[57.902641107865925,23.634388638837219],[57.902358928437039,23.635152577274049],[57.902029974395134,23.636041755999475],[57.901857314039724,23.636040185924109],[57.901858083764836,23.636131653423824]]]},"properties":{"OBJECTID":31,"Governorate":"North Al Batinah","Wilayat":"Barka","Land_Cover_Type":"Agricultural","Latitude":23.635177840000001,"Longitude":57.90043988,"Farm_ID":"F_381","Land_Cover_ID":"LC_381","Shape_Length":1170.7938677452491,"Shape_Area":70547.861460914093}},{"type":"Feature","id":32,"geometry":{"type":"Polygon","coordinates":[[[57.900180315184024,23.637480666631848],[57.900190146031555,23.638211780302179],[57.900190962319755,23.638377595846951],[57.8982159886556,23.638387846959308],[57.898205317432001,23.63749145030307],[57.899770901329013,23.637477710751188],[57.900180315184024,23.637480666631848]]]},"properties":{"OBJECTID":32,"Governorate":"North Al Batinah","Wilayat":"Barka","Land_Cover_Type":"Agricultural","Latitude":23.637933109999999,"Longitude":57.899199070000002,"Farm_ID":"F_383","Land_Cover_ID":"LC_383","Shape_Length":601.49526684403486,"Shape_Area":20065.40200295471}},{"type":"Feature","id":33,"geometry":{"type":"Polygon","coordinates":[[[57.898207713516712,23.637435567466078],[57.898199404842288,23.636561227503634],[57.899914068634132,23.636560777355363],[57.900175599916174,23.636558407095904],[57.900179683375228,23.636871281824742],[57.900182620519544,23.637387406484851],[57.900181806711323,23.637441727556141],[57.899747492594834,23.637439197022498],[57.898427114190639,23.637432164266965],[57.898207713516712,23.637435567466078]]]},"properties":{"OBJECTID":33,"Governorate":"North Al Batinah","Wilayat":"Barka","Land_Cover_Type":"Agricultural","Latitude":23.63699862,"Longitude":57.899193750000002,"Farm_ID":"F_385","Land_Cover_ID":"LC_385","Shape_Length":597.57262298350076,"Shape_Area":19547.371431649037}},{"type":"Feature","id":34,"geometry":{"type":"Polygon","coordinates":[[[57.899740464589691,23.644217175596179],[57.900095661509297,23.642209215014208],[57.900195709438236,23.642223374409696],[57.900209522067236,23.64214421412364],[57.900110098603655,23.642127601647129],[57.90020311947233,23.641601738417442],[57.900242646502079,23.641511054020064],[57.900392804791444,23.641170348054153],[57.900522216467067,23.64087223243973],[57.900591714101822,23.640714126561129],[57.901661397192122,23.640781181742412],[57.901888497233919,23.640793932957358],[57.901828814925715,23.641106578477707],[57.901573674707564,23.642502799129602],[57.901512878501755,23.642840240948232],[57.901405763863977,23.643422784464949],[57.901330643181709,23.643831821669281],[57.901320059197822,23.64388701777532],[57.900011466489964,23.644159649109017],[57.899740464589691,23.644217175596179]]]},"properties":{"OBJECTID":34,"Governorate":"North Al Batinah","Wilayat":"Barka","Land_Cover_Type":"Agricultural","Latitude":23.642427009999999,"Longitude":57.900821649999997,"Farm_ID":"F_386","Land_Cover_ID":"LC_386","Shape_Length":1064.8493124787394,"Shape_Area":55849.708444923657}},{"type":"Feature","id":35,"geometry":{"type":"Polygon","coordinates":[[[57.877085356180061,23.645562617377134],[57.876857013520741,23.644871950680205],[57.877161079199588,23.64477502480737],[57.877346370721177,23.645313956204635],[57.877391905461693,23.64546727202487],[57.877085356180061,23.645562617377134]]]},"properties":{"OBJECTID":35,"Governorate":"North Al Batinah","Wilayat":"Barka","Land_Cover_Type":"Agricultural","Latitude":23.645169660000001,"Longitude":57.877125470000003,"Farm_ID":"F_387","Land_Cover_ID":"LC_387","Shape_Length":225.94920830996779,"Shape_Area":2655.1715536437855}},{"type":"Feature","id":36,"geometry":{"type":"Polygon","coordinates":[[[57.883105180270199,23.63045712812087],[57.882955418268857,23.630488307283862],[57.8829333622541,23.630474443170176],[57.882910265247503,23.630345670090168],[57.882922880616093,23.630326612149727],[57.882994095320278,23.630312217178432],[57.882997452026274,23.630327436842837],[57.883051352338526,23.630318886545961],[57.88305310257897,23.630337362352972],[57.883137324071896,23.6303216441544],[57.883159788582766,23.630452110681343],[57.883152626065147,23.630460542173267],[57.883146760007428,23.63046415346794],[57.883140356270268,23.630466692017304],[57.883133609168098,23.630468080791847],[57.883126723434366,23.630468277650717],[57.883119908009157,23.63046727662045],[57.883115728831775,23.630465538365254],[57.883111831861171,23.63046323604582],[57.883108292767091,23.630460414367636],[57.883105180270199,23.63045712812087]]]},"properties":{"OBJECTID":36,"Governorate":"North Al Batinah","Wilayat":"Barka","Land_Cover_Type":"Residential","Latitude":23.630398370000002,"Longitude":57.883031000000003,"Farm_ID":"F_905","Land_Cover_ID":"LC_905","Shape_Length":82.125740580662693,"Shape_Area":381.06959935473702}},{"type":"Feature","id":37,"geometry":{"type":"Polygon","coordinates":[[[57.898619395535796,23.637029878028443],[57.898618475844891,23.636955898103299],[57.898817888342677,23.636955124672912],[57.898815902139646,23.637028930859781],[57.898759460544866,23.637029066455383],[57.898758720315136,23.637133453036746],[57.898658282290178,23.637133079434321],[57.898661316542807,23.637030400147012],[57.898619395535796,23.637029878028443]]]},"properties":{"OBJECTID":37,"Governorate":"North Al Batinah","Wilayat":"Barka","Land_Cover_Type":"Residential","Latitude":23.63702924,"Longitude":57.89871437,"Farm_ID":"F_908","Land_Cover_ID":"LC_908","Shape_Length":79.917158441128038,"Shape_Area":281.74615848168327}},{"type":"Feature","id":38,"geometry":{"type":"Polygon","coordinates":[[[57.898853864491954,23.636935989724769],[57.898799510038437,23.636937834728766],[57.898798978140249,23.636829631387968],[57.898855432376763,23.636831216294077],[57.898853864491954,23.636935989724769]]]},"properties":{"OBJECTID":38,"Governorate":"North Al Batinah","Wilayat":"Barka","Land_Cover_Type":"Residential","Latitude":23.63688333,"Longitude":57.898826800000002,"Farm_ID":"F_909","Land_Cover_ID":"LC_909","Shape_Length":34.891534024778387,"Shape_Area":66.633023328498382}},{"type":"Feature","id":39,"geometry":{"type":"Polygon","coordinates":[[[57.884728015859828,23.644198541177417],[57.884749304896928,23.644294378965068],[57.884552773913413,23.644349269308311],[57.884524385136523,23.644263254516197],[57.88455215219502,23.644256773744925],[57.884552123122525,23.644252448500531],[57.884661731579769,23.64422420705932],[57.884663566521368,23.644228522000926],[57.884693861978633,23.644222027682929],[57.884691237390328,23.644207735114254],[57.884728015859828,23.644198541177417]]]},"properties":{"OBJECTID":39,"Governorate":"North Al Batinah","Wilayat":"Barka","Land_Cover_Type":"Residential","Latitude":23.64427684,"Longitude":57.884639380000003,"Farm_ID":"F_910","Land_Cover_ID":"LC_910","Shape_Length":65.919397886824925,"Shape_Area":216.98362892917658}},{"type":"Feature","id":40,"geometry":{"type":"Polygon","coordinates":[[[57.889469026091561,23.628417092561691],[57.889660469528856,23.628906892841467],[57.889620752230734,23.628973905755888],[57.889342774086415,23.62903986952622],[57.889147955883637,23.628537356701006],[57.889166595800937,23.628527257792186],[57.889145922186742,23.628477162985138],[57.889318530790021,23.628420964766036],[57.889338692733844,23.628475558601565],[57.889361156179753,23.628469434402831],[57.889357794716048,23.628453465262282],[57.889469026091561,23.628417092561691]]]},"properties":{"OBJECTID":40,"Governorate":"North Al Batinah","Wilayat":"Barka","Land_Cover_Type":"Residential","Latitude":23.62872351,"Longitude":57.889402089999997,"Farm_ID":"F_911","Land_Cover_ID":"LC_911","Shape_Length":203.88785334909863,"Shape_Area":2265.4337024123761}},{"type":"Feature","id":41,"geometry":{"type":"Polygon","coordinates":[[[57.889342774086415,23.62903986952622],[57.889620752230734,23.628973905755888],[57.889620104763388,23.62897499782207],[57.889342774086415,23.62903986952622]]]},"properties":{"OBJECTID":41,"Governorate":"North Al Batinah","Wilayat":"Barka","Land_Cover_Type":"Residential","Latitude":23.628996260000001,"Longitude":57.889527880000003,"Farm_ID":"F_913","Land_Cover_ID":"LC_913","Shape_Length":58.608300343511914,"Shape_Area":1.4731639704933173}},{"type":"Feature","id":42,"geometry":{"type":"Polygon","coordinates":[[[57.891407883866492,23.644202206850984],[57.891353710753634,23.643888527644286],[57.891627688285411,23.643862631261221],[57.891677480072339,23.644162639490947],[57.891407883866492,23.644202206850984]]]},"properties":{"OBJECTID":42,"Governorate":"North Al Batinah","Wilayat":"Barka","Land_Cover_Type":"Residential","Latitude":23.644028930000001,"Longitude":57.891515630000001,"Farm_ID":"F_917","Land_Cover_ID":"LC_917","Shape_Length":124.70800876800429,"Shape_Area":961.03887626255732}},{"type":"Feature","id":43,"geometry":{"type":"Polygon","coordinates":[[[57.891700890501667,23.644306606143292],[57.89164978098092,23.643996623386261],[57.89194517220151,23.64395846706357],[57.891982806106789,23.644261444364261],[57.891700890501667,23.644306606143292]]]},"properties":{"OBJECTID":43,"Governorate":"North Al Batinah","Wilayat":"Barka","Land_Cover_Type":"Residential","Latitude":23.644129800000002,"Longitude":57.891818819999997,"Farm_ID":"F_918","Land_Cover_ID":"LC_918","Shape_Length":128.09070726804902,"Shape_Area":1019.9604507126024}},{"type":"Feature","id":44,"geometry":{"type":"Polygon","coordinates":[[[57.89467503940584,23.643824183671086],[57.894577247380887,23.643842578746629],[57.894530139185342,23.64369600629745],[57.894628465055341,23.643672363318512],[57.89467503940584,23.643824183671086]]]},"properties":{"OBJECTID":44,"Governorate":"North Al Batinah","Wilayat":"Barka","Land_Cover_Type":"Residential","Latitude":23.643758470000002,"Longitude":57.894602900000002,"Farm_ID":"F_919","Land_Cover_ID":"LC_919","Shape_Length":54.938659115807752,"Shape_Area":176.34214325010299}},{"type":"Feature","id":45,"geometry":{"type":"Polygon","coordinates":[[[57.891221972331522,23.642172663329116],[57.891189688551229,23.642177433485809],[57.891123546695731,23.64218903669369],[57.890772895871706,23.64225372677646],[57.890753788040691,23.642165401888377],[57.890108837933802,23.642155396450228],[57.890061666652301,23.641923135701258],[57.89114193728895,23.641723542952118],[57.891221972331522,23.642172663329116]]]},"properties":{"OBJECTID":45,"Governorate":"North Al Batinah","Wilayat":"Barka","Land_Cover_Type":"Residential","Latitude":23.641999240000001,"Longitude":57.890702849999997,"Farm_ID":"F_923","Land_Cover_ID":"LC_923","Shape_Length":311.38326185681797,"Shape_Area":4514.0148919415251}},{"type":"Feature","id":46,"geometry":{"type":"Polygon","coordinates":[[[57.885544767299756,23.63360104435889],[57.885464525410129,23.633241714391801],[57.885807226513414,23.633157812429122],[57.885842267599614,23.633408567692925],[57.885544767299756,23.63360104435889]]]},"properties":{"OBJECTID":46,"Governorate":"North Al Batinah","Wilayat":"Barka","Land_Cover_Type":"Residential","Latitude":23.63335494,"Longitude":57.885654000000002,"Farm_ID":"F_926","Land_Cover_ID":"LC_926","Shape_Length":141.86479365312701,"Shape_Area":1192.7831052563029}},{"type":"Feature","id":47,"geometry":{"type":"Polygon","coordinates":[[[57.882937553383258,23.630498168928824],[57.882905071178982,23.63032266266196],[57.883135904473207,23.630282015357214],[57.883174130650488,23.630464829165344],[57.882937553383258,23.630498168928824]]]},"properties":{"OBJECTID":47,"Governorate":"North Al Batinah","Wilayat":"Barka","Land_Cover_Type":"Residential","Latitude":23.630392050000001,"Longitude":57.883039080000003,"Farm_ID":"F_929","Land_Cover_ID":"LC_929","Shape_Length":88.71306512786802,"Shape_Area":487.6790580870059}},{"type":"Feature","id":48,"geometry":{"type":"Polygon","coordinates":[[[57.883898531916721,23.632273587294858],[57.883874094572519,23.632171703047508],[57.883940497718136,23.632157747800353],[57.883933493924317,23.632130101064615],[57.884024020994275,23.632110739960876],[57.884047537360907,23.632190640162818],[57.884027367691367,23.632195408385801],[57.884038038359741,23.632244580920769],[57.884036685388345,23.632243979875494],[57.883898531916721,23.632273587294858]]]},"properties":{"OBJECTID":48,"Governorate":"North Al Batinah","Wilayat":"Barka","Land_Cover_Type":"Residential","Latitude":23.632194949999999,"Longitude":57.883964280000001,"Farm_ID":"F_930","Land_Cover_ID":"LC_930","Shape_Length":62.588293402089263,"Shape_Area":211.1327985121579}},{"type":"Feature","id":49,"geometry":{"type":"Polygon","coordinates":[[[57.882237202367833,23.632227003899331],[57.882227931337532,23.632229339912442],[57.8822035061877,23.632150152684492],[57.882384237834692,23.63210769412029],[57.882405545908746,23.63218458234422],[57.882237202367833,23.632227003899331]]]},"properties":{"OBJECTID":49,"Governorate":"North Al Batinah","Wilayat":"Barka","Land_Cover_Type":"Residential","Latitude":23.632167989999999,"Longitude":57.882304730000001,"Farm_ID":"F_935","Land_Cover_ID":"LC_935","Shape_Length":55.710567304251889,"Shape_Area":169.18282412556135}},{"type":"Feature","id":50,"geometry":{"type":"Polygon","coordinates":[[[57.88248437722919,23.632110851071293],[57.882476430930609,23.632080611121253],[57.88251207292992,23.632071706940639],[57.88251813915079,23.632102998972702],[57.88248437722919,23.632110851071293]]]},"properties":{"OBJECTID":50,"Governorate":"North Al Batinah","Wilayat":"Barka","Land_Cover_Type":"Residential","Latitude":23.632091379999999,"Longitude":57.882497770000001,"Farm_ID":"F_936","Land_Cover_ID":"LC_936","Shape_Length":14.283463538688579,"Shape_Area":12.721258149454496}},{"type":"Feature","id":51,"geometry":{"type":"Polygon","coordinates":[[[57.882564818784438,23.632124822931534],[57.882547306166458,23.63206046850253],[57.882611479955187,23.632047362867539],[57.882629795493429,23.632109962321241],[57.882564818784438,23.632124822931534]]]},"properties":{"OBJECTID":51,"Governorate":"North Al Batinah","Wilayat":"Barka","Land_Cover_Type":"Residential","Latitude":23.632085780000001,"Longitude":57.882588249999998,"Farm_ID":"F_937","Land_Cover_ID":"LC_937","Shape_Length":28.058722572276061,"Shape_Area":49.125102977240815}},{"type":"Feature","id":52,"geometry":{"type":"Polygon","coordinates":[[[57.886188692368833,23.635808290322757],[57.887064174731499,23.635612092483665],[57.887195343223517,23.636192219273678],[57.88632027900556,23.636389903105005],[57.886188692368833,23.635808290322757]]]},"properties":{"OBJECTID":52,"Governorate":"North Al Batinah","Wilayat":"Barka","Land_Cover_Type":"Residential","Latitude":23.636000660000001,"Longitude":57.886691929999998,"Farm_ID":"F_939","Land_Cover_ID":"LC_939","Shape_Length":315.20407194009346,"Shape_Area":6034.3246878760119}},{"type":"Feature","id":53,"geometry":{"type":"Polygon","coordinates":[[[57.884255678031884,23.643688331476362],[57.88423025560261,23.643547924525201],[57.884431014357034,23.6435184598818],[57.884454734666022,23.643659402164552],[57.884255678031884,23.643688331476362]]]},"properties":{"OBJECTID":53,"Governorate":"North Al Batinah","Wilayat":"Barka","Land_Cover_Type":"Residential","Latitude":23.643603420000002,"Longitude":57.884342940000003,"Farm_ID":"F_944","Land_Cover_ID":"LC_944","Shape_Length":72.842490779480158,"Shape_Area":325.69354878048068}},{"type":"Feature","id":54,"geometry":{"type":"Polygon","coordinates":[[[57.884721894290657,23.645970678109055],[57.884649691426858,23.645776890120935],[57.884834639719777,23.645720399313198],[57.884898652458453,23.645927189405327],[57.884721894290657,23.645970678109055]]]},"properties":{"OBJECTID":54,"Governorate":"North Al Batinah","Wilayat":"Barka","Land_Cover_Type":"Residential","Latitude":23.64584752,"Longitude":57.884776600000002,"Farm_ID":"F_946","Land_Cover_ID":"LC_946","Shape_Length":85.028483497530388,"Shape_Area":447.52202991834173}},{"type":"Feature","id":55,"geometry":{"type":"Polygon","coordinates":[[[57.878698780635737,23.646568709411405],[57.878617546494944,23.646338935626606],[57.878754478110721,23.646298826284021],[57.878832878811401,23.646530187616786],[57.878698780635737,23.646568709411405]]]},"properties":{"OBJECTID":55,"Governorate":"North Al Batinah","Wilayat":"Barka","Land_Cover_Type":"Residential","Latitude":23.646433720000001,"Longitude":57.878725799999998,"Farm_ID":"F_949","Land_Cover_ID":"LC_949","Shape_Length":82.574085939002032,"Shape_Area":388.29546990567712}},{"type":"Feature","id":56,"geometry":{"type":"Polygon","coordinates":[[[57.887031574821499,23.645557331042337],[57.886727233092188,23.645591589558581],[57.886718134924678,23.645508253072109],[57.887024697965458,23.645466117739623],[57.887031574821499,23.645557331042337]]]},"properties":{"OBJECTID":56,"Governorate":"North Al Batinah","Wilayat":"Barka","Land_Cover_Type":"Residential","Latitude":23.645530480000001,"Longitude":57.886877599999998,"Farm_ID":"F_951","Land_Cover_ID":"LC_951","Shape_Length":82.28510852594367,"Shape_Area":304.50398758402952}},{"type":"Feature","id":57,"geometry":{"type":"Polygon","coordinates":[[[57.887209447835147,23.645419686874341],[57.887198800771678,23.645353288797093],[57.887301820501676,23.645339944376293],[57.887307733300865,23.645406368633605],[57.887209447835147,23.645419686874341]]]},"properties":{"OBJECTID":57,"Governorate":"North Al Batinah","Wilayat":"Barka","Land_Cover_Type":"Residential","Latitude":23.64537958,"Longitude":57.887254339999998,"Farm_ID":"F_954","Land_Cover_ID":"LC_954","Shape_Length":35.55455396890757,"Shape_Area":76.735742501161909}},{"type":"Feature","id":58,"geometry":{"type":"Polygon","coordinates":[[[57.891394915688771,23.645191616756765],[57.891335639532457,23.644976443263843],[57.891594183087157,23.644931526694958],[57.891628579023973,23.645150122652847],[57.891394915688771,23.645191616756765]]]},"properties":{"OBJECTID":58,"Governorate":"North Al Batinah","Wilayat":"Barka","Land_Cover_Type":"Residential","Latitude":23.64506063,"Longitude":57.891487849999997,"Farm_ID":"F_955","Land_Cover_ID":"LC_955","Shape_Length":100.14315072230519,"Shape_Area":625.64414131399155}},{"type":"Feature","id":59,"geometry":{"type":"Polygon","coordinates":[[[57.887642331615893,23.645266615871005],[57.887616323730533,23.645069070425677],[57.887962037221399,23.645023660866499],[57.887968943760541,23.645124412603565],[57.887915608489855,23.645129635025814],[57.887925634195796,23.645240043941559],[57.887642331615893,23.645266615871005]]]},"properties":{"OBJECTID":59,"Governorate":"North Al Batinah","Wilayat":"Barka","Land_Cover_Type":"Residential","Latitude":23.64514475,"Longitude":57.887787869999997,"Farm_ID":"F_957","Land_Cover_ID":"LC_957","Shape_Length":115.61252990638243,"Shape_Area":728.58917528891425}},{"type":"Feature","id":60,"geometry":{"type":"Polygon","coordinates":[[[57.886709177222087,23.646103992146575],[57.886659685313795,23.645778995298524],[57.887301710828034,23.645680350680664],[57.88735602833993,23.645989840695986],[57.886709177222087,23.646103992146575]]]},"properties":{"OBJECTID":60,"Governorate":"North Al Batinah","Wilayat":"Barka","Land_Cover_Type":"Residential","Latitude":23.64588899,"Longitude":57.887004269999998,"Farm_ID":"F_960","Land_Cover_ID":"LC_960","Shape_Length":204.61451093238594,"Shape_Area":2371.1913691913123}},{"type":"Feature","id":61,"geometry":{"type":"Polygon","coordinates":[[[57.885305328014823,23.646038043948341],[57.885287022070763,23.645959456556366],[57.885357239913027,23.645940540102551],[57.885372858722924,23.646021633845425],[57.885305328014823,23.646038043948341]]]},"properties":{"OBJECTID":61,"Governorate":"North Al Batinah","Wilayat":"Barka","Land_Cover_Type":"Residential","Latitude":23.645989589999999,"Longitude":57.885330670000002,"Farm_ID":"F_962","Land_Cover_ID":"LC_962","Shape_Length":32.603802234498474,"Shape_Area":65.484309634681921}},{"type":"Feature","id":62,"geometry":{"type":"Polygon","coordinates":[[[57.885332150890385,23.646118361101298],[57.885316669603881,23.646057560494889],[57.885366074314817,23.646047308917488],[57.885383096468054,23.646107030432006],[57.885332150890385,23.646118361101298]]]},"properties":{"OBJECTID":62,"Governorate":"North Al Batinah","Wilayat":"Barka","Land_Cover_Type":"Residential","Latitude":23.646082750000001,"Longitude":57.885349499999997,"Farm_ID":"F_964","Land_Cover_ID":"LC_964","Shape_Length":24.262097316627955,"Shape_Area":36.126644923263655}},{"type":"Feature","id":63,"geometry":{"type":"Polygon","coordinates":[[[57.885020872778846,23.646019683684806],[57.884993472911496,23.645917977551296],[57.88506113521418,23.645900727763681],[57.88508633624172,23.646006548754965],[57.885020872778846,23.646019683684806]]]},"properties":{"OBJECTID":63,"Governorate":"North Al Batinah","Wilayat":"Barka","Land_Cover_Type":"Residential","Latitude":23.64596079,"Longitude":57.885040539999999,"Farm_ID":"F_966","Land_Cover_ID":"LC_966","Shape_Length":37.592116251885059,"Shape_Area":82.512116706754583}},{"type":"Feature","id":64,"geometry":{"type":"Polygon","coordinates":[[[57.884500026688968,23.644809256788321],[57.88477065932689,23.645463998206779],[57.88394807693637,23.64566194857235],[57.883665722125322,23.645171478181286],[57.883471952058748,23.644818470376467],[57.88341458616226,23.644711237275853],[57.884317341291855,23.644388652088796],[57.884500026688968,23.644809256788321]]]},"properties":{"OBJECTID":64,"Governorate":"North Al Batinah","Wilayat":"Barka","Land_Cover_Type":"Residential","Latitude":23.645042549999999,"Longitude":57.884112600000002,"Farm_ID":"F_968","Land_Cover_ID":"LC_968","Shape_Length":431.71427773953303,"Shape_Area":11393.4072276447}},{"type":"Feature","id":65,"geometry":{"type":"Polygon","coordinates":[[[57.893164583026937,23.643401478814077],[57.893118183556275,23.64340719142583],[57.893110890521804,23.643369378694715],[57.893157304058995,23.643365740644761],[57.893164583026937,23.643401478814077]]]},"properties":{"OBJECTID":65,"Governorate":"North Al Batinah","Wilayat":"Barka","Land_Cover_Type":"Residential","Latitude":23.643385989999999,"Longitude":57.893137529999997,"Farm_ID":"F_971","Land_Cover_ID":"LC_971","Shape_Length":17.804288529603781,"Shape_Area":19.658312894342075}},{"type":"Feature","id":66,"geometry":{"type":"Polygon","coordinates":[[[57.893134383128903,23.64351340334446],[57.893113992126047,23.643453107839317],[57.893180315548889,23.643438724497269],[57.893193136818482,23.643503211069287],[57.893134383128903,23.64351340334446]]]},"properties":{"OBJECTID":66,"Governorate":"North Al Batinah","Wilayat":"Barka","Land_Cover_Type":"Residential","Latitude":23.643476379999999,"Longitude":57.893155489999998,"Farm_ID":"F_973","Land_Cover_ID":"LC_973","Shape_Length":27.299239744203,"Shape_Area":46.369678676957257}},{"type":"Feature","id":67,"geometry":{"type":"Polygon","coordinates":[[[57.892748340832348,23.643396271727909],[57.89280535161371,23.643385398689553],[57.892818239668735,23.643470307070451],[57.892825680232711,23.643519327625555],[57.892769538572004,23.643530567785426],[57.892748340832348,23.643396271727909]]]},"properties":{"OBJECTID":67,"Governorate":"North Al Batinah","Wilayat":"Barka","Land_Cover_Type":"Residential","Latitude":23.643457739999999,"Longitude":57.89278719,"Farm_ID":"F_975","Land_Cover_ID":"LC_975","Shape_Length":41.797063229984481,"Shape_Area":88.282498898296623}}]}