{"type":"FeatureCollection","features":[{"type":"Feature","id":1,"geometry":{"type":"Polygon","coordinates":[[[57.880111906342307,23.643648044974217],[57.881096544069365,23.648419250911772],[57.878237137408753,23.648992614332389],[57.877153666686553,23.645757046262332],[57.877182786747632,23.645747958835027],[57.877189533586368,23.645764208939859],[57.878649724779315,23.645290159648933],[57.878318645566438,23.644284247113717],[57.880089549777828,23.643924376960282],[57.879998142637142,23.643682497310838],[57.880111906342307,23.643648044974217]]]},"properties":{"OBJECTID":1,"Shape_Length":1716.0068165234588,"Shape_Area":145832.7236007493,"Farm_ID":"B22","Gov_Name":"Al Batinah South","Wil_Name":"Barka","Latitude":23.646609300000001,"Longitude":57.879239439999999}},{"type":"Feature","id":2,"geometry":{"type":"Polygon","coordinates":[[[57.881793388585848,23.643197440198659],[57.881527973706966,23.643445930417414],[57.881321120179656,23.643535147184501],[57.880754474675285,23.643687019437646],[57.880534719194543,23.643035706190801],[57.880645513033855,23.642872834715696],[57.881626330428951,23.642563491834046],[57.881793388585848,23.643197440198659]]]},"properties":{"OBJECTID":2,"Shape_Length":396.86093241185864,"Shape_Area":10322.102861712174,"Farm_ID":"B16","Gov_Name":"Al Batinah South","Wil_Name":"Barka","Latitude":23.643127849999999,"Longitude":57.881168819999999}},{"type":"Feature","id":3,"geometry":{"type":"Polygon","coordinates":[[[57.88190231152052,23.643425527547517],[57.881727851249387,23.642554928557203],[57.880976444241419,23.640818808258008],[57.880751331400099,23.640756801623311],[57.88055457218563,23.640320429682632],[57.880582500701237,23.640254937368589],[57.880738428969494,23.640084669764835],[57.880938351170478,23.639973195076848],[57.881265983489399,23.639870671350874],[57.881795880397981,23.639768046550934],[57.882070430142903,23.639735562480794],[57.882202918459704,23.639727474918683],[57.882233416145112,23.639751285850608],[57.882473992408599,23.641455250150777],[57.882519794637325,23.641611389010613],[57.882759413426506,23.643235298331327],[57.88190231152052,23.643425527547517]]]},"properties":{"OBJECTID":3,"Shape_Length":1053.4580648174506,"Shape_Area":48829.375472861764,"Farm_ID":"B15","Gov_Name":"Al Batinah South","Wil_Name":"Barka","Latitude":23.641368920000001,"Longitude":57.881832299999999}},{"type":"Feature","id":4,"geometry":{"type":"Polygon","coordinates":[[[57.886708304449648,23.646105710501228],[57.886638011871099,23.645487681218114],[57.886565937815902,23.644884521414419],[57.889546317872863,23.644364858975994],[57.889738730340717,23.645478223075493],[57.886708304449648,23.646105710501228]]]},"properties":{"OBJECTID":4,"Shape_Length":887.0132593708754,"Shape_Area":40690.452604313577,"Farm_ID":"B01","Gov_Name":"Al Batinah South","Wil_Name":"Barka","Latitude":23.645203330000001,"Longitude":57.888152249999997}},{"type":"Feature","id":5,"geometry":{"type":"Polygon","coordinates":[[[57.883946494743988,23.645674971756236],[57.883536949482398,23.644951519402756],[57.883299289019924,23.644434410263685],[57.88302162562303,23.643578913502381],[57.885862041882561,23.64315763729461],[57.886248017195335,23.645122526523526],[57.883946494743988,23.645674971756236]]]},"properties":{"OBJECTID":5,"Shape_Length":1008.5042436361782,"Shape_Area":63964.324281987079,"Farm_ID":"B02","Gov_Name":"Al Batinah South","Wil_Name":"Barka","Latitude":23.644363640000002,"Longitude":57.884710120000001}},{"type":"Feature","id":6,"geometry":{"type":"Polygon","coordinates":[[[57.883038922795627,23.643575068541612],[57.882732505182076,23.641738225586504],[57.885474383525789,23.64131159050137],[57.885812850984941,23.643165258579071],[57.883038922795627,23.643575068541612]]]},"properties":{"OBJECTID":6,"Shape_Length":984.07460763623976,"Shape_Area":58995.841775091714,"Farm_ID":"B13","Gov_Name":"Al Batinah South","Wil_Name":"Barka","Latitude":23.642447319999999,"Longitude":57.88427093}},{"type":"Feature","id":7,"geometry":{"type":"Polygon","coordinates":[[[57.885408358913047,23.641215599952375],[57.882702179565428,23.64164133517464],[57.882687818738027,23.641428357122585],[57.882408725912121,23.639855816304546],[57.88230446727809,23.639056028935698],[57.882198295676893,23.638438407438031],[57.882122038306164,23.63805047505555],[57.881354592932666,23.635124704535642],[57.880975964531537,23.633947164235614],[57.883833564292068,23.633245815190325],[57.885408358913047,23.641215599952375]]]},"properties":{"OBJECTID":7,"Shape_Length":2349.9730382947869,"Shape_Area":245249.46241609225,"Farm_ID":"B14","Gov_Name":"Al Batinah South","Wil_Name":"Barka","Latitude":23.637451970000001,"Longitude":57.883288110000002}},{"type":"Feature","id":8,"geometry":{"type":"Polygon","coordinates":[[[57.880975964531537,23.633947164235614],[57.880940154937541,23.633820928819425],[57.880832027015217,23.631983860122158],[57.88341980883137,23.631351468800595],[57.883833564292068,23.633245815190325],[57.880975964531537,23.633947164235614]]]},"properties":{"OBJECTID":8,"Shape_Length":1006.8567409546902,"Shape_Area":61707.682970929105,"Farm_ID":"B07","Gov_Name":"Al Batinah South","Wil_Name":"Barka","Latitude":23.632649730000001,"Longitude":57.882262089999998}},{"type":"Feature","id":9,"geometry":{"type":"Polygon","coordinates":[[[57.883150392021363,23.630147451098939],[57.88341980883137,23.631351468800595],[57.880832027015217,23.631983860122158],[57.880786708866495,23.631204245725566],[57.882491913738541,23.630425100573568],[57.883150392021363,23.630147451098939]]]},"properties":{"OBJECTID":9,"Shape_Length":763.69356170677383,"Shape_Area":29457.968162792895,"Farm_ID":"B08","Gov_Name":"Al Batinah South","Wil_Name":"Barka","Latitude":23.631140219999999,"Longitude":57.882145680000001}},{"type":"Feature","id":10,"geometry":{"type":"Polygon","coordinates":[[[57.883899517207617,23.632275348336787],[57.883250841169797,23.629730469355934],[57.883508265447134,23.629661793799787],[57.883566476348406,23.629612256007032],[57.885331490638471,23.62922746369857],[57.886161503163315,23.631842045853535],[57.883899517207617,23.632275348336787]]]},"properties":{"OBJECTID":10,"Shape_Length":1047.1682517455465,"Shape_Area":67617.243738869613,"Farm_ID":"B06","Gov_Name":"Al Batinah South","Wil_Name":"Barka","Latitude":23.63077397,"Longitude":57.884668699999999}},{"type":"Feature","id":11,"geometry":{"type":"Polygon","coordinates":[[[57.884380758069298,23.634238570889881],[57.884352569536695,23.634105512587404],[57.88430838451734,23.634110055586376],[57.883923292489648,23.632338184760393],[57.886181234096142,23.631910634902219],[57.886593873429639,23.633818678868302],[57.884380758069298,23.634238570889881]]]},"properties":{"OBJECTID":11,"Shape_Length":900.66513843423957,"Shape_Area":50571.623171493018,"Farm_ID":"B04","Gov_Name":"Al Batinah South","Wil_Name":"Barka","Latitude":23.633075739999999,"Longitude":57.885259230000003}},{"type":"Feature","id":12,"geometry":{"type":"Polygon","coordinates":[[[57.88721698569352,23.634073506519776],[57.887334631663329,23.634917866156364],[57.887245703281039,23.635438831605974],[57.887521196572685,23.636843436282838],[57.887530294046734,23.636973972103512],[57.885031117495814,23.63740934993444],[57.884383593568998,23.634440758201741],[57.884482920783825,23.634395716572026],[57.885660691759128,23.634117411867564],[57.886901306358418,23.633868074886049],[57.88721698569352,23.634073506519776]]]},"properties":{"OBJECTID":12,"Shape_Length":1224.1353816349572,"Shape_Area":94053.597452345784,"Farm_ID":"B05","Gov_Name":"Al Batinah South","Wil_Name":"Barka","Latitude":23.63561911,"Longitude":57.886014330000002}},{"type":"Feature","id":13,"geometry":{"type":"Polygon","coordinates":[[[57.888318176214909,23.639014894932146],[57.88844386460859,23.63923271610393],[57.888567827804273,23.63968128492888],[57.888690629390673,23.640203653245095],[57.888746408970292,23.640636669309863],[57.888601089846013,23.640694123438426],[57.88586390454352,23.64114535706431],[57.885486601816339,23.639379289180631],[57.888217854113989,23.638948687136715],[57.888318176214909,23.639014894932146]]]},"properties":{"OBJECTID":13,"Shape_Length":980.30671571942753,"Shape_Area":59401.953921836401,"Farm_ID":"B03","Gov_Name":"Al Batinah South","Wil_Name":"Barka","Latitude":23.640032860000002,"Longitude":57.887121290000003}},{"type":"Feature","id":14,"geometry":{"type":"Polygon","coordinates":[[[57.893039440679829,23.645747650170804],[57.890914160485394,23.646058305440139],[57.890536194057887,23.643974162860488],[57.892734447593909,23.643751695082894],[57.892750928228239,23.643769304642429],[57.893039440679829,23.645747650170804]]]},"properties":{"OBJECTID":14,"Shape_Length":902.59518727024511,"Shape_Area":50988.115123370539,"Farm_ID":"B17","Gov_Name":"Al Batinah South","Wil_Name":"Barka","Latitude":23.644878110000001,"Longitude":57.891800089999997}},{"type":"Feature","id":15,"geometry":{"type":"Polygon","coordinates":[[[57.892734714150599,23.643680715014408],[57.890486847107951,23.643941188767133],[57.89006112855391,23.641924316557677],[57.892388522971444,23.641493541597729],[57.892734714150599,23.643680715014408]]]},"properties":{"OBJECTID":15,"Shape_Length":945.4446479107728,"Shape_Area":55812.916590539775,"Farm_ID":"B18","Gov_Name":"Al Batinah South","Wil_Name":"Barka","Latitude":23.64274958,"Longitude":57.891430249999999}},{"type":"Feature","id":16,"geometry":{"type":"Polygon","coordinates":[[[57.893018390552854,23.642853857921676],[57.893103302063452,23.643233856346846],[57.894198826705313,23.643040356568061],[57.894370162973267,23.643305634106845],[57.894441422416833,23.643275796989872],[57.894582590597132,23.643368922210332],[57.894688394663362,23.64362546506074],[57.894829556851114,23.643970533690005],[57.895005944131292,23.644413313335974],[57.895381039630806,23.645348407863079],[57.895216365254939,23.645460114781972],[57.894178426699149,23.645703140126972],[57.893133633778668,23.645849807276779],[57.8929710787977,23.644814974350098],[57.892667169309178,23.642923303689319],[57.893018390552854,23.642853857921676]]]},"properties":{"OBJECTID":16,"Shape_Length":1052.4476208730864,"Shape_Area":60170.542526167977,"Farm_ID":"B19","Gov_Name":"Al Batinah South","Wil_Name":"Barka","Latitude":23.64444215,"Longitude":57.893909540000003}},{"type":"Feature","id":17,"geometry":{"type":"Polygon","coordinates":[[[57.887664892492779,23.634835025615004],[57.887420398069203,23.632722495867444],[57.890808713956083,23.63204113074201],[57.891227497420779,23.634049942978606],[57.889834555494438,23.634417951700861],[57.887664892492779,23.634835025615004]]]},"properties":{"OBJECTID":17,"Shape_Length":1189.3819042449479,"Shape_Area":84861.409293339981,"Farm_ID":"B11","Gov_Name":"Al Batinah South","Wil_Name":"Barka","Latitude":23.633437829999998,"Longitude":57.889277130000004}},{"type":"Feature","id":18,"geometry":{"type":"Polygon","coordinates":[[[57.886884486959097,23.629651089041186],[57.886812978174468,23.629613829038519],[57.886558404834282,23.628758578747473],[57.886598780692282,23.628683009526863],[57.889094226383591,23.62760495097185],[57.889167688867332,23.62763414854156],[57.889658295718348,23.628908854408223],[57.889619987511459,23.62897519990754],[57.886884486959097,23.629651089041186]]]},"properties":{"OBJECTID":18,"Shape_Length":852.1932810174518,"Shape_Area":40132.789638026778,"Farm_ID":"B09","Gov_Name":"Al Batinah South","Wil_Name":"Barka","Latitude":23.62870242,"Longitude":57.888138150000003}},{"type":"Feature","id":19,"geometry":{"type":"Polygon","coordinates":[[[57.890711150747094,23.63166651363186],[57.887405669840213,23.632483406118052],[57.886868766388304,23.629815533892693],[57.889738768735185,23.629096573277582],[57.890711150747094,23.63166651363186]]]},"properties":{"OBJECTID":19,"Shape_Length":1254.2647177233669,"Shape_Area":97878.164615192305,"Farm_ID":"B10","Gov_Name":"Al Batinah South","Wil_Name":"Barka","Latitude":23.630795859999999,"Longitude":57.888690850000003}},{"type":"Feature","id":20,"geometry":{"type":"Polygon","coordinates":[[[57.899098922153762,23.636065971746238],[57.898206148478891,23.63485009604161],[57.898195305999685,23.634450202967859],[57.902644247723117,23.634385752018108],[57.902029440873989,23.636042727327233],[57.899098922153762,23.636065971746238]]]},"properties":{"OBJECTID":20,"Shape_Length":1153.5252757584706,"Shape_Area":70204.428661662139,"Farm_ID":"B21","Gov_Name":"Al Batinah South","Wil_Name":"Barka","Latitude":23.635178329999999,"Longitude":57.900436300000003}},{"type":"Feature","id":21,"geometry":{"type":"Polygon","coordinates":[[[57.900190795921567,23.638377061218119],[57.898214265408569,23.638388314859455],[57.898199395073071,23.636558789835423],[57.900176395040113,23.636557554380897],[57.900190795921567,23.638377061218119]]]},"properties":{"OBJECTID":21,"Shape_Length":807.31472498226162,"Shape_Area":40734.307456326431,"Farm_ID":"B20","Gov_Name":"Al Batinah South","Wil_Name":"Barka","Latitude":23.637470400000002,"Longitude":57.899194309999999}},{"type":"Feature","id":22,"geometry":{"type":"Polygon","coordinates":[[[57.89974033084966,23.644216399624977],[57.900181348885248,23.641715716088083],[57.900198783609227,23.641616853259357],[57.900285671772096,23.641405068154132],[57.900592527703026,23.640713392055066],[57.901889312058188,23.640791374887971],[57.901317991428208,23.643890585669759],[57.89974033084966,23.644216399624977]]]},"properties":{"OBJECTID":22,"Shape_Length":1044.9259600534792,"Shape_Area":56053.988275718781,"Farm_ID":"B23","Gov_Name":"Al Batinah South","Wil_Name":"Barka","Latitude":23.642425410000001,"Longitude":57.900820529999997}},{"type":"Feature","id":23,"geometry":{"type":"Polygon","coordinates":[[[57.884891166135091,23.647738823251366],[57.88401336983312,23.645823226903296],[57.884432217664077,23.645698238453555],[57.886244760994202,23.645183784571984],[57.88667437704639,23.647270501222437],[57.886647836050564,23.647318164735641],[57.884891166135091,23.647738823251366]]]},"properties":{"OBJECTID":23,"Shape_Length":894.79656420114702,"Shape_Area":49924.906305771685,"Farm_ID":"B12","Gov_Name":"Al Batinah South","Wil_Name":"Barka","Latitude":23.646471569999999,"Longitude":57.885451439999997}}]}