{"type":"FeatureCollection","features":[{"type":"Feature","id":1,"geometry":{"type":"Polygon","coordinates":[[[57.877584661791929,23.646998163787508],[57.877493430780675,23.646741636345272],[57.877519506931904,23.64673183900339],[57.877515923763958,23.646717188639709],[57.87754526645611,23.646709260490155],[57.877549663091749,23.646722689641631],[57.877576953838613,23.646715808164195],[57.877665378520156,23.646972562788157],[57.877584661791929,23.646998163787508]]]},"properties":{"OBJECTID":1,"Shape_Length":80.512543511744383,"Shape_Area":270.24817821751725,"Governorate":"Al Batinah South","Wilayat":"Barka","Crop_Type":null,"Latitude":23.6468533,"Longitude":57.87757878,"Greenhouse_ID":"GH_001"}},{"type":"Feature","id":2,"geometry":{"type":"Polygon","coordinates":[[[57.877700664589142,23.646662121826957],[57.877705886996161,23.646676613879148],[57.877732977809806,23.646667835887786],[57.877830750618593,23.646925668296706],[57.877817593120085,23.646929788210866],[57.877820379113587,23.646938689709625],[57.877763918768942,23.646956970340021],[57.877760315114891,23.646948072565834],[57.877746706593626,23.646952043290121],[57.877647484439976,23.646694886492522],[57.877676917953778,23.64668587757965],[57.877671145525213,23.646670797948453],[57.877700664589142,23.646662121826957]]]},"properties":{"OBJECTID":2,"Shape_Length":84.225166586907505,"Shape_Area":287.97898832844993,"Governorate":"Al Batinah South","Wilayat":"Barka","Crop_Type":null,"Latitude":23.646810240000001,"Longitude":57.877739550000001,"Greenhouse_ID":"GH_002"}},{"type":"Feature","id":3,"geometry":{"type":"Polygon","coordinates":[[[57.877793953935011,23.646629419103459],[57.877800725647013,23.64664452920054],[57.877831685640821,23.646634779123445],[57.877929113597027,23.646891744543499],[57.877846310182981,23.646920223338647],[57.877747025343851,23.646663982805332],[57.877773019685151,23.646653831831106],[57.877766180917284,23.646639251386308],[57.877793953935011,23.646629419103459]]]},"properties":{"OBJECTID":3,"Shape_Length":82.096107190893036,"Shape_Area":280.72928516796071,"Governorate":"Al Batinah South","Wilayat":"Barka","Crop_Type":null,"Latitude":23.646774300000001,"Longitude":57.87783718,"Greenhouse_ID":"GH_003"}},{"type":"Feature","id":4,"geometry":{"type":"Polygon","coordinates":[[[57.877945222682058,23.646875057071298],[57.877847790363788,23.646630226148478],[57.877869079875353,23.646623061574463],[57.877864123137336,23.646606656857383],[57.877898699377532,23.646594468432504],[57.877903935424911,23.646611296069938],[57.877932771995837,23.646599669409149],[57.87802813147109,23.646849300768835],[57.877945222682058,23.646875057071298]]]},"properties":{"OBJECTID":4,"Shape_Length":80.218811512433675,"Shape_Area":271.62221573667694,"Governorate":"Al Batinah South","Wilayat":"Barka","Crop_Type":null,"Latitude":23.64673453,"Longitude":57.877936910000003,"Greenhouse_ID":"GH_004"}},{"type":"Feature","id":5,"geometry":{"type":"Polygon","coordinates":[[[57.878510501350462,23.646368452619264],[57.87822188318799,23.646467192212114],[57.878192569749302,23.646394136900597],[57.878482887384592,23.64629444570091],[57.878510501350462,23.646368452619264]]]},"properties":{"OBJECTID":5,"Shape_Length":80.292711469314952,"Shape_Area":272.26482954336012,"Governorate":"Al Batinah South","Wilayat":"Barka","Crop_Type":null,"Latitude":23.64638098,"Longitude":57.878352049999997,"Greenhouse_ID":"GH_005"}},{"type":"Feature","id":6,"geometry":{"type":"Polygon","coordinates":[[[57.878207533020138,23.646182716514854],[57.878194602619104,23.646187503539444],[57.87819722025089,23.646196444823111],[57.878141399310039,23.646214987502489],[57.878137403406299,23.646204169049724],[57.878122760812957,23.646208022826741],[57.878034978767552,23.64594888578592],[57.878062799538327,23.645939475884205],[57.878058359386948,23.645925552943801],[57.878084239407912,23.645917395925554],[57.878089745177896,23.645929244507485],[57.878114260508291,23.64592330262807],[57.878207533020138,23.646182716514854]]]},"properties":{"OBJECTID":6,"Shape_Length":83.06279346090966,"Shape_Area":278.7960256453789,"Governorate":"Al Batinah South","Wilayat":"Barka","Crop_Type":null,"Latitude":23.646068100000001,"Longitude":57.878120809999999,"Greenhouse_ID":"GH_006"}},{"type":"Feature","id":7,"geometry":{"type":"Polygon","coordinates":[[[57.878202298674978,23.645881736523361],[57.878206618063111,23.645897247965156],[57.878234914742478,23.64589039861302],[57.878325622461155,23.646144937942115],[57.878239157851468,23.646175206136917],[57.878150537763503,23.645916721504971],[57.878179310965542,23.645905174641758],[57.878174467902042,23.645890819548669],[57.878202298674978,23.645881736523361]]]},"properties":{"OBJECTID":7,"Shape_Length":81.743957068469214,"Shape_Area":282.62526782058893,"Governorate":"Al Batinah South","Wilayat":"Barka","Crop_Type":null,"Latitude":23.646029460000001,"Longitude":57.87823667,"Greenhouse_ID":"GH_007"}},{"type":"Feature","id":8,"geometry":{"type":"Polygon","coordinates":[[[57.879442815078654,23.645410492689628],[57.879470534210384,23.645400431007527],[57.879465465106783,23.64538439909758],[57.879495769393088,23.645374742735495],[57.879500403181268,23.645390773500722],[57.879528872639426,23.645383104639098],[57.879618209671555,23.645643043944126],[57.879532144996723,23.645669389797295],[57.879442815078654,23.645410492689628]]]},"properties":{"OBJECTID":8,"Shape_Length":82.537691405860727,"Shape_Area":286.07242323074138,"Governorate":"Al Batinah South","Wilayat":"Barka","Crop_Type":null,"Latitude":23.645523130000001,"Longitude":57.879529380000001,"Greenhouse_ID":"GH_008"}},{"type":"Feature","id":9,"geometry":{"type":"Polygon","coordinates":[[[57.879388711083259,23.645423414502599],[57.879419382248152,23.64541598606953],[57.879506737754724,23.645677703335323],[57.879491867716382,23.645682571014202],[57.879496587359974,23.64569442942182],[57.879437828270611,23.645711181926615],[57.879436124549279,23.645698752751631],[57.879418863754161,23.645702084999257],[57.879332673249515,23.645443316337076],[57.8793614680242,23.645433122126526],[57.879354620360118,23.645417079525664],[57.879384296860373,23.645409428231332],[57.879388711083259,23.645423414502599]]]},"properties":{"OBJECTID":9,"Shape_Length":85.79884091198528,"Shape_Area":297.69341847546229,"Governorate":"Al Batinah South","Wilayat":"Barka","Crop_Type":null,"Latitude":23.64556108,"Longitude":57.879419939999998,"Greenhouse_ID":"GH_009"}},{"type":"Feature","id":10,"geometry":{"type":"Polygon","coordinates":[[[57.885951398386339,23.631435402292635],[57.886040821410219,23.631790117590231],[57.88595103706021,23.631806428227208],[57.885864402136832,23.631451541601365],[57.885951398386339,23.631435402292635]]]},"properties":{"OBJECTID":10,"Shape_Length":98.981638648106838,"Shape_Area":370.33446793715518,"Governorate":"Al Batinah South","Wilayat":"Barka","Crop_Type":null,"Latitude":23.63162178,"Longitude":57.885952150000001,"Greenhouse_ID":"GH_010"}},{"type":"Feature","id":11,"geometry":{"type":"Polygon","coordinates":[[[57.885729722519784,23.631477252454143],[57.885818497977183,23.631460366953977],[57.885906743938008,23.631815178474056],[57.885819382821211,23.631832056856393],[57.885729722519784,23.631477252454143]]]},"properties":{"OBJECTID":11,"Shape_Length":98.989638455230363,"Shape_Area":369.8803504372699,"Governorate":"Al Batinah South","Wilayat":"Barka","Crop_Type":null,"Latitude":23.631645760000001,"Longitude":57.885818469999997,"Greenhouse_ID":"GH_011"}},{"type":"Feature","id":12,"geometry":{"type":"Polygon","coordinates":[[[57.885595347872304,23.631502693200272],[57.885682507266857,23.63148587571084],[57.885772038998127,23.631840821776002],[57.885684618181038,23.63185728314653],[57.885595347872304,23.631502693200272]]]},"properties":{"OBJECTID":12,"Shape_Length":98.835175267097824,"Shape_Area":366.56295366960518,"Governorate":"Al Batinah South","Wilayat":"Barka","Crop_Type":null,"Latitude":23.63167172,"Longitude":57.885683649999997,"Greenhouse_ID":"GH_012"}},{"type":"Feature","id":13,"geometry":{"type":"Polygon","coordinates":[[[57.885550287874779,23.631512122410765],[57.885639685069286,23.631866354897635],[57.885551736205727,23.631881270223793],[57.885462730635325,23.631527512334696],[57.885550287874779,23.631512122410765]]]},"properties":{"OBJECTID":13,"Shape_Length":98.688289600344973,"Shape_Area":366.11644369906281,"Governorate":"Al Batinah South","Wilayat":"Barka","Crop_Type":null,"Latitude":23.631696900000001,"Longitude":57.885551139999997,"Greenhouse_ID":"GH_013"}},{"type":"Feature","id":14,"geometry":{"type":"Polygon","coordinates":[[[57.885418004312271,23.631537290043497],[57.885506840066427,23.631889865740288],[57.885414626562323,23.631906212516068],[57.885330637316244,23.631553423043101],[57.885418004312271,23.631537290043497]]]},"properties":{"OBJECTID":14,"Shape_Length":98.733039860886379,"Shape_Area":373.51409154988988,"Governorate":"Al Batinah South","Wilayat":"Barka","Crop_Type":null,"Latitude":23.631723229999999,"Longitude":57.885417920000002,"Greenhouse_ID":"GH_014"}}]}