{"type":"FeatureCollection","features":[{"type":"Feature","id":1,"geometry":{"type":"Polygon","coordinates":[[[57.884480474813103,23.643742157998417],[57.88445034411945,23.643539451026154],[57.884576181414168,23.643517714947073],[57.884611318099587,23.643727246792171],[57.884480474813103,23.643742157998417]]]},"properties":{"OBJECTID":1,"Shape_Length":72.634373974641832,"Shape_Area":305.50145984117199,"Governorate":"Al Batinah South","Wilayat":"Barka","Latitude":23.643632100000001,"Longitude":57.884530040000001,"Shadehouse_ID":"SH_001"}},{"type":"Feature","id":2,"geometry":{"type":"Polygon","coordinates":[[[57.879276438259872,23.647489319056284],[57.878965860183371,23.647582185561085],[57.878882356200435,23.647320274618242],[57.879198238824998,23.64723223741478],[57.879276438259872,23.647489319056284]]]},"properties":{"OBJECTID":2,"Shape_Length":126.74996022992126,"Shape_Area":1000.5090798470899,"Governorate":"Al Batinah South","Wilayat":"Barka","Latitude":23.647405930000001,"Longitude":57.87908006,"Shadehouse_ID":"SH_002"}},{"type":"Feature","id":3,"geometry":{"type":"Polygon","coordinates":[[[57.878475127898234,23.646915311635436],[57.878461765862383,23.64687792360407],[57.878693170308139,23.646812539542385],[57.878707275656311,23.646847296841475],[57.878475127898234,23.646915311635436]]]},"properties":{"OBJECTID":3,"Shape_Length":58.001409391049549,"Shape_Area":104.76367578822931,"Governorate":"Al Batinah South","Wilayat":"Barka","Latitude":23.646863620000001,"Longitude":57.87858318,"Shadehouse_ID":"SH_003"}},{"type":"Feature","id":4,"geometry":{"type":"Polygon","coordinates":[[[57.878667373794784,23.64674321899388],[57.878437420934084,23.646812632084771],[57.87835201528091,23.646568165993227],[57.878585300155727,23.646502699193668],[57.878667373794784,23.64674321899388]]]},"properties":{"OBJECTID":4,"Shape_Length":105.90500755687239,"Shape_Area":698.06339777656751,"Governorate":"Al Batinah South","Wilayat":"Barka","Latitude":23.646656629999999,"Longitude":57.878510120000001,"Shadehouse_ID":"SH_004"}},{"type":"Feature","id":5,"geometry":{"type":"Polygon","coordinates":[[[57.878536924544562,23.646506255519423],[57.878351121378955,23.646561742095628],[57.878324816867561,23.646491045177189],[57.878512696575896,23.646435274103048],[57.878536924544562,23.646506255519423]]]},"properties":{"OBJECTID":5,"Shape_Length":56.568780345272536,"Shape_Area":165.34478990127187,"Governorate":"Al Batinah South","Wilayat":"Barka","Latitude":23.64649854,"Longitude":57.878431300000003,"Shadehouse_ID":"SH_005"}},{"type":"Feature","id":6,"geometry":{"type":"Polygon","coordinates":[[[57.879182507899195,23.646085079631384],[57.879255825057783,23.646295371772919],[57.879072488638471,23.646353254944081],[57.87900103521595,23.646144234686346],[57.879182507899195,23.646085079631384]]]},"properties":{"OBJECTID":6,"Shape_Length":88.119998440138147,"Shape_Area":479.71133427903129,"Governorate":"Al Batinah South","Wilayat":"Barka","Latitude":23.64621957,"Longitude":57.879128129999998,"Shadehouse_ID":"SH_006"}},{"type":"Feature","id":7,"geometry":{"type":"Polygon","coordinates":[[[57.878731694050764,23.6456897268639],[57.878705092403315,23.645596704637807],[57.878901460998712,23.645545158946263],[57.879022172777233,23.6459051992009],[57.878879095027678,23.645947467928394],[57.878785868046464,23.645673606656516],[57.878731694050764,23.6456897268639]]]},"properties":{"OBJECTID":7,"Shape_Length":126.1091695391555,"Shape_Area":705.7114636239404,"Governorate":"Al Batinah South","Wilayat":"Barka","Latitude":23.645736020000001,"Longitude":57.878877199999998,"Shadehouse_ID":"SH_007"}},{"type":"Feature","id":8,"geometry":{"type":"Polygon","coordinates":[[[57.879202472298594,23.645459493909978],[57.879321888563517,23.645822892126276],[57.879088648217049,23.645888768898292],[57.878965964028509,23.645525116250198],[57.879202472298594,23.645459493909978]]]},"properties":{"OBJECTID":8,"Shape_Length":134.27861993105995,"Shape_Area":1054.1248993058432,"Governorate":"Al Batinah South","Wilayat":"Barka","Latitude":23.645673710000001,"Longitude":57.87914456,"Shadehouse_ID":"SH_008"}},{"type":"Feature","id":9,"geometry":{"type":"Polygon","coordinates":[[[57.880451619743141,23.646130074200975],[57.880652726654162,23.646712534001438],[57.88018987455461,23.646854391865162],[57.879984980304179,23.646269624481747],[57.880451619743141,23.646130074200975]]]},"properties":{"OBJECTID":9,"Shape_Length":235.50292268310329,"Shape_Area":3385.6174015150032,"Governorate":"Al Batinah South","Wilayat":"Barka","Latitude":23.646491439999998,"Longitude":57.880319489999998,"Shadehouse_ID":"SH_009"}},{"type":"Feature","id":10,"geometry":{"type":"Polygon","coordinates":[[[57.880418409293547,23.645561339595613],[57.880570796797663,23.645991213644752],[57.879959453770937,23.646191204716686],[57.879804829098447,23.645757580007594],[57.880418409293547,23.645561339595613]]]},"properties":{"OBJECTID":10,"Shape_Length":233.02272715661684,"Shape_Area":3329.6970356543097,"Governorate":"Al Batinah South","Wilayat":"Barka","Latitude":23.645875440000001,"Longitude":57.880187880000001,"Shadehouse_ID":"SH_010"}},{"type":"Feature","id":11,"geometry":{"type":"Polygon","coordinates":[[[57.886761590618462,23.639292131890109],[57.886803577469209,23.639546640372593],[57.886701805912807,23.639553232150526],[57.88670679974723,23.639578809237399],[57.886624641651913,23.639592080867505],[57.886607449770409,23.639566051464158],[57.886565493206071,23.639315984670748],[57.886761590618462,23.639292131890109]]]},"properties":{"OBJECTID":11,"Shape_Length":101.8607307270816,"Shape_Area":592.53044952416496,"Governorate":"Al Batinah South","Wilayat":"Barka","Latitude":23.639435850000002,"Longitude":57.886683499999997,"Shadehouse_ID":"SH_011"}},{"type":"Feature","id":12,"geometry":{"type":"Polygon","coordinates":[[[57.886750945574299,23.639227656608583],[57.887077179763821,23.639197833399741],[57.887081686540597,23.639361631319478],[57.887007156184069,23.639370418498629],[57.887011575216853,23.639428969169558],[57.88702903558282,23.639455405236532],[57.887077806919727,23.63945920873136],[57.88707043509983,23.639549066621043],[57.887002653710155,23.639551903772585],[57.886930006280267,23.639555993458284],[57.886947704200658,23.639617538156006],[57.886817519254365,23.639632162964755],[57.886750945574299,23.639227656608583]]]},"properties":{"OBJECTID":12,"Shape_Length":164.21151561538548,"Shape_Area":1193.5044529291579,"Governorate":"Al Batinah South","Wilayat":"Barka","Latitude":23.63939349,"Longitude":57.886917560000001,"Shadehouse_ID":"SH_012"}},{"type":"Feature","id":13,"geometry":{"type":"Polygon","coordinates":[[[57.881841174095563,23.631045428477503],[57.881945333032206,23.631393584918346],[57.881659502689665,23.631462727403971],[57.881558444631175,23.631114778032416],[57.881841174095563,23.631045428477503]]]},"properties":{"OBJECTID":13,"Shape_Length":139.85663700826325,"Shape_Area":1197.7677588996639,"Governorate":"Al Batinah South","Wilayat":"Barka","Latitude":23.6312544,"Longitude":57.881751260000001,"Shadehouse_ID":"SH_013"}},{"type":"Feature","id":14,"geometry":{"type":"Polygon","coordinates":[[[57.882863358116431,23.630981447581956],[57.882454833361074,23.631082393180201],[57.882421668662097,23.630940874454463],[57.882834973274718,23.630855461155456],[57.882863358116431,23.630981447581956]]]},"properties":{"OBJECTID":14,"Shape_Length":116.63104744886627,"Shape_Area":653.13974747168709,"Governorate":"Al Batinah South","Wilayat":"Barka","Latitude":23.630965929999999,"Longitude":57.882639660000002,"Shadehouse_ID":"SH_014"}},{"type":"Feature","id":15,"geometry":{"type":"Polygon","coordinates":[[[57.882616670048392,23.630824253215216],[57.882555806601935,23.630646942081128],[57.882743367546979,23.630587902204372],[57.882804339031345,23.630781295906683],[57.882616670048392,23.630824253215216]]]},"properties":{"OBJECTID":15,"Shape_Length":82.832548151337562,"Shape_Area":427.85187214748373,"Governorate":"Al Batinah South","Wilayat":"Barka","Latitude":23.630709370000002,"Longitude":57.882681159999997,"Shadehouse_ID":"SH_015"}},{"type":"Feature","id":16,"geometry":{"type":"Polygon","coordinates":[[[57.882426450804097,23.630910611768371],[57.882362536195913,23.630701900138323],[57.882530678936597,23.630653069627282],[57.882606377018348,23.63086320983999],[57.882426450804097,23.630910611768371]]]},"properties":{"OBJECTID":16,"Shape_Length":85.599081549511354,"Shape_Area":449.58839877751052,"Governorate":"Al Batinah South","Wilayat":"Barka","Latitude":23.630783149999999,"Longitude":57.882482150000001,"Shadehouse_ID":"SH_016"}},{"type":"Feature","id":17,"geometry":{"type":"Polygon","coordinates":[[[57.882107388285675,23.631579671726968],[57.882041766794941,23.631237445281634],[57.882166996901532,23.631206064171913],[57.882254546460914,23.631549287621564],[57.882107388285675,23.631579671726968]]]},"properties":{"OBJECTID":17,"Shape_Length":106.13731573951688,"Shape_Area":553.90285518415135,"Governorate":"Al Batinah South","Wilayat":"Barka","Latitude":23.631397410000002,"Longitude":57.882143829999997,"Shadehouse_ID":"SH_017"}},{"type":"Feature","id":18,"geometry":{"type":"Polygon","coordinates":[[[57.88283365826279,23.631547469701193],[57.882912513904074,23.631528483663178],[57.883005618044038,23.631873873393712],[57.882924592402517,23.63189149264953],[57.88283365826279,23.631547469701193]]]},"properties":{"OBJECTID":18,"Shape_Length":95.413040405207909,"Shape_Area":330.25008767695067,"Governorate":"Al Batinah South","Wilayat":"Barka","Latitude":23.631710930000001,"Longitude":57.882919289999997,"Shadehouse_ID":"SH_018"}},{"type":"Feature","id":19,"geometry":{"type":"Polygon","coordinates":[[[57.887719460361168,23.633759890158728],[57.887697856945323,23.633671976408642],[57.887828994434109,23.633645539847365],[57.887851751878102,23.633733756768837],[57.887719460361168,23.633759890158728]]]},"properties":{"OBJECTID":19,"Shape_Length":47.514459478070343,"Shape_Area":137.59185491178735,"Governorate":"Al Batinah South","Wilayat":"Barka","Latitude":23.633702840000002,"Longitude":57.887774589999999,"Shadehouse_ID":"SH_019"}},{"type":"Feature","id":20,"geometry":{"type":"Polygon","coordinates":[[[57.888022934331104,23.633710509432849],[57.887996759423423,23.633718099820204],[57.887983931294002,23.633673130792999],[57.887956292038488,23.633678872581974],[57.887946576926637,23.633650246252163],[57.887901205999341,23.633658714225032],[57.887876418144657,23.633565393221005],[57.887914793004363,23.633556585959671],[57.887890539770652,23.633485119278919],[57.887947355597433,23.633473086808827],[57.887988550069423,23.633588589443534],[57.888022934331104,23.633710509432849]]]},"properties":{"OBJECTID":20,"Shape_Length":75.197574096696826,"Shape_Area":195.48721260994577,"Governorate":"Al Batinah South","Wilayat":"Barka","Latitude":23.63359196,"Longitude":57.887945610000003,"Shadehouse_ID":"SH_020"}},{"type":"Feature","id":22,"geometry":{"type":"Polygon","coordinates":[[[57.900062713033044,23.636980788453062],[57.900060768173489,23.636696329377926],[57.900121972337985,23.636694635660291],[57.900123919947987,23.636979477670256],[57.900062713033044,23.636980788453062]]]},"properties":{"OBJECTID":22,"Shape_Length":75.525454702693224,"Shape_Area":196.79970025483311,"Governorate":"Al Batinah South","Wilayat":"Barka","Latitude":23.636837809999999,"Longitude":57.900092350000001,"Shadehouse_ID":"SH_022"}},{"type":"Feature","id":23,"geometry":{"type":"Polygon","coordinates":[[[57.879168007151442,23.648222597761379],[57.879092958384106,23.648250021678027],[57.879050547527065,23.648142826805319],[57.879126533760655,23.648120129445836],[57.879168007151442,23.648222597761379]]]},"properties":{"OBJECTID":23,"Shape_Length":41.122966791800614,"Shape_Area":101.27207056244009,"Governorate":"Al Batinah South","Wilayat":"Barka","Latitude":23.64818408,"Longitude":57.879109280000002,"Shadehouse_ID":"SH_023"}},{"type":"Feature","id":24,"geometry":{"type":"Polygon","coordinates":[[[57.88525349954211,23.637812280700047],[57.885194562189035,23.637544706100332],[57.885561938243441,23.637483319427208],[57.885620267906042,23.637749789118534],[57.88525349954211,23.637812280700047]]]},"properties":{"OBJECTID":24,"Shape_Length":136.45867534197066,"Shape_Area":1148.0018642709958,"Governorate":"Al Batinah South","Wilayat":"Barka","Latitude":23.637647529999999,"Longitude":57.885407430000001,"Shadehouse_ID":"SH_024"}},{"type":"Feature","id":25,"geometry":{"type":"Polygon","coordinates":[[[57.885865910978474,23.637705507876248],[57.885807604010978,23.637442043999208],[57.885971101328003,23.637407966400648],[57.886026484201864,23.637673476399005],[57.885865910978474,23.637705507876248]]]},"properties":{"OBJECTID":25,"Shape_Length":93.563557541881565,"Shape_Area":505.23448400678768,"Governorate":"Al Batinah South","Wilayat":"Barka","Latitude":23.637556799999999,"Longitude":57.885917749999997,"Shadehouse_ID":"SH_025"}}]}