{"type":"FeatureCollection","features":[{"type":"Feature","id":1,"geometry":{"type":"Polygon","coordinates":[[[57.886633819689337,23.635584242693373],[57.886491981888099,23.635612500681923],[57.88648809911745,23.635592325567981],[57.88662900552886,23.635564936364371],[57.886633819689337,23.635584242693373]]]},"properties":{"OBJECTID":1,"Shape_Length":33.95428208933351,"Shape_Area":32.885793644367531,"Governorate":null,"Wilayat":"Barka","Panels_Count":13,"Latitude":23.635588590000001,"Longitude":57.886560340000003,"Solar_Panel_ID":"SP_001"}},{"type":"Feature","id":2,"geometry":{"type":"Polygon","coordinates":[[[57.886639468733918,23.635588353369297],[57.886645974859285,23.635608513482921],[57.886503776504561,23.635638845479125],[57.886498584388292,23.635619022870525],[57.886639468733918,23.635588353369297]]]},"properties":{"OBJECTID":2,"Shape_Length":34.241949567961264,"Shape_Area":33.972609230551697,"Governorate":null,"Wilayat":"Barka","Panels_Count":13,"Latitude":23.635613620000001,"Longitude":57.886572299999997,"Solar_Panel_ID":"SP_002"}},{"type":"Feature","id":4,"geometry":{"type":"Polygon","coordinates":[[[57.886505799300394,23.635647482938335],[57.886649384524603,23.635614188652927],[57.886654026899222,23.635631423124583],[57.886510845275566,23.635665402441248],[57.886505799300394,23.635647482938335]]]},"properties":{"OBJECTID":4,"Shape_Length":34.201203620447231,"Shape_Area":30.304115632551053,"Governorate":null,"Wilayat":"Barka","Panels_Count":13,"Latitude":23.635639739999998,"Longitude":57.886579519999998,"Solar_Panel_ID":"SP_004"}},{"type":"Feature","id":5,"geometry":{"type":"Polygon","coordinates":[[[57.886514339291352,23.63568942830123],[57.88651109548794,23.635673733912345],[57.886659873281587,23.635641835184398],[57.886662983373888,23.635657906967566],[57.886514339291352,23.63568942830123]]]},"properties":{"OBJECTID":5,"Shape_Length":34.717170363333132,"Shape_Area":27.814206212367015,"Governorate":null,"Wilayat":"Barka","Panels_Count":13,"Latitude":23.635665670000002,"Longitude":57.886587329999998,"Solar_Panel_ID":"SP_005"}},{"type":"Feature","id":6,"geometry":{"type":"Polygon","coordinates":[[[57.886663789275566,23.635669268199106],[57.886667822880383,23.635687671275033],[57.886525990509291,23.63571776998252],[57.886520965168941,23.635700149320776],[57.886663789275566,23.635669268199106]]]},"properties":{"OBJECTID":6,"Shape_Length":33.907153448915977,"Shape_Area":30.513152053294572,"Governorate":null,"Wilayat":"Barka","Panels_Count":13,"Latitude":23.635693629999999,"Longitude":57.886595,"Solar_Panel_ID":"SP_006"}},{"type":"Feature","id":7,"geometry":{"type":"Polygon","coordinates":[[[57.898476540500461,23.637770017141516],[57.898412428872838,23.637773128823284],[57.898413150618879,23.637537861210657],[57.898476121245608,23.637538091641687],[57.898476540500461,23.637770017141516]]]},"properties":{"OBJECTID":7,"Shape_Length":64.699926182370703,"Shape_Area":167.63349520130745,"Governorate":null,"Wilayat":"Barka","Panels_Count":55,"Latitude":23.637655129999999,"Longitude":57.898444480000002,"Solar_Panel_ID":"SP_007"}},{"type":"Feature","id":8,"geometry":{"type":"Polygon","coordinates":[[[57.885545070150648,23.635891985079116],[57.885399090795829,23.635917338461898],[57.885396070759313,23.635899037947333],[57.885542049602563,23.635873611411707],[57.885545070150648,23.635891985079116]]]},"properties":{"OBJECTID":8,"Shape_Length":34.414447312826752,"Shape_Area":31.098305936664346,"Governorate":null,"Wilayat":"Barka","Panels_Count":15,"Latitude":23.635895479999999,"Longitude":57.88547062,"Solar_Panel_ID":"SP_008"}},{"type":"Feature","id":9,"geometry":{"type":"Polygon","coordinates":[[[57.885395546865347,23.635890963640207],[57.885392212164085,23.635872375898387],[57.885535987837066,23.635845159162713],[57.885539943148203,23.635863021702811],[57.885395546865347,23.635890963640207]]]},"properties":{"OBJECTID":9,"Shape_Length":34.127332524761577,"Shape_Area":30.793339716548481,"Governorate":null,"Wilayat":"Barka","Panels_Count":15,"Latitude":23.635867959999999,"Longitude":57.885465539999998,"Solar_Panel_ID":"SP_009"}},{"type":"Feature","id":10,"geometry":{"type":"Polygon","coordinates":[[[57.885535266425869,23.635837599903411],[57.885390748607129,23.635864230183291],[57.885387814591262,23.635846329293962],[57.885531847761555,23.635820378279284],[57.885535266425869,23.635837599903411]]]},"properties":{"OBJECTID":10,"Shape_Length":33.946945353635698,"Shape_Area":29.558375843329827,"Governorate":null,"Wilayat":"Barka","Panels_Count":15,"Latitude":23.63584221,"Longitude":57.885461030000002,"Solar_Panel_ID":"SP_010"}},{"type":"Feature","id":11,"geometry":{"type":"Polygon","coordinates":[[[57.885530076241658,23.635811485572912],[57.885385558450167,23.635838115847218],[57.885382519474724,23.635820934502263],[57.885526896596026,23.635793361192626],[57.885530076241658,23.635811485572912]]]},"properties":{"OBJECTID":11,"Shape_Length":34.034135196934827,"Shape_Area":29.750514959934325,"Governorate":null,"Wilayat":"Barka","Panels_Count":15,"Latitude":23.63581585,"Longitude":57.885456900000001,"Solar_Panel_ID":"SP_011"}}]}