{"type":"FeatureCollection","features":[{"type":"Feature","id":1,"geometry":{"type":"LineString","coordinates":[[57.886848347827858,23.647484046056743],[57.886830627242425,23.647433418495527],[57.886778228077929,23.647185915466196],[57.886751818880484,23.64698442071268],[57.886710814764825,23.646661848336773],[57.886597264584644,23.645890086819449],[57.886486208802012,23.645292777712445],[57.886410009359459,23.644876273414667],[57.886331545781729,23.644464007141437],[57.886265656446859,23.64410237800379],[57.886176331010766,23.643552836278506],[57.886122943844711,23.643300116201623],[57.88608379476733,23.643113118045488],[57.886040458774815,23.642908834930772],[57.885997819294538,23.642714932773853],[57.885966592062708,23.642541736216721],[57.885927750377107,23.642353870070412],[57.885868999346627,23.642139000958267],[57.885805471030125,23.641912043616873],[57.885722724289501,23.641621153913867],[57.885648914616034,23.641262420035922],[57.885586938729851,23.640940255810676],[57.88553108760258,23.640644307994513],[57.8854777405896,23.640348056820351],[57.885419180497259,23.640021545749203],[57.885366602123867,23.639746349062239],[57.885282029151078,23.63932334608625],[57.885217434625879,23.639030621807994],[57.885161270614212,23.63873438651035],[57.885112359975224,23.638466184772604],[57.885063965135735,23.638242878916117],[57.885007258962503,23.63800558928606],[57.884956329506934,23.637792820993106],[57.884903516997063,23.637568248688829],[57.884859820776867,23.637358208279622],[57.884817401409435,23.637069880417659],[57.884780342653187,23.636863495275829],[57.884729095203248,23.636603280078862],[57.884682986237671,23.636421871165687],[57.884651829570785,23.636228745568456],[57.884611658742912,23.636036225029066],[57.884569585016024,23.63582894532847],[57.884527925964271,23.635606028886592],[57.884496867899259,23.635464137474166],[57.88446573462538,23.635320087836998],[57.884434273878405,23.635180837844445],[57.884422205280842,23.635133779592902],[57.884267037977239,23.634544819017886],[57.884224242194655,23.634387220980404],[57.884162183964698,23.634238129757286],[57.884110877741087,23.634088808322122],[57.884068784606214,23.633927177052463],[57.88403509446227,23.633768519977121],[57.883986499524859,23.633561419889997],[57.88395521392976,23.633407955117267],[57.883929067927461,23.633259833269769],[57.883893140229802,23.633093464740213],[57.883868245212462,23.632968845095263],[57.883836654834873,23.632824113235795],[57.883808226513054,23.632688934543232],[57.883779988476121,23.632554929818774],[57.883748222734226,23.632411205994362],[57.883713804093723,23.632252553853654],[57.883680916181568,23.63210447033773],[57.883658323339269,23.631969762340368],[57.883632424578259,23.63183121109067],[57.883599602376634,23.631693034355479],[57.883571335700964,23.631581867104817],[57.883547433920626,23.631442128491219],[57.883522552968664,23.631319355710446],[57.883483456737515,23.631142425900507],[57.883450254455994,23.631001901155475],[57.883414244716292,23.630823106697957],[57.883362924900538,23.630617197770459],[57.883316135677596,23.630434435486883],[57.883283161157529,23.630300625574041],[57.883245129296526,23.630146358992373],[57.883206200513278,23.629994280534014],[57.883177041919346,23.62988580436194],[57.883136310196299,23.629763792792431],[57.883117931606755,23.629686655848147]]},"properties":{"OBJECTID":1,"Governorate":"Al Batinah South","Wilayat":"Barka","Latitude":23.63856715,"Longitude":57.88508487,"Shape_Length":2008.4544160814437,"Street_ID":"ST_001"}},{"type":"Feature","id":2,"geometry":{"type":"LineString","coordinates":[[57.888094380859599,23.645238501306284],[57.887458747445841,23.645304117895648],[57.886509315502806,23.645417058217593]]},"properties":{"OBJECTID":2,"Governorate":"Al Batinah South","Wilayat":"Barka","Latitude":23.64532483,"Longitude":57.887301460000003,"Shape_Length":162.88362053191582,"Street_ID":"ST_002"}},{"type":"Feature","id":3,"geometry":{"type":"LineString","coordinates":[[57.886451771944373,23.645104546112368],[57.88628003970333,23.645139237786935],[57.885933192381714,23.645220551256404],[57.885464290009658,23.645341775996076],[57.885037315635017,23.64544067325345],[57.884721010084895,23.645552911297937],[57.884137964140074,23.645726619585691],[57.883925014496583,23.645783275520532]]},"properties":{"OBJECTID":3,"Governorate":"Al Batinah South","Wilayat":"Barka","Latitude":23.645426189999998,"Longitude":57.88518285,"Shape_Length":268.70232561475012,"Street_ID":"ST_003"}},{"type":"Feature","id":4,"geometry":{"type":"LineString","coordinates":[[57.88490620898979,23.647917823198814],[57.88478829803767,23.647628215075983],[57.884589208975903,23.647199789857577],[57.884409982865073,23.646814522283233],[57.884212419498382,23.646394201191594],[57.884015278898104,23.645973423980216],[57.883932111416549,23.64579517984215],[57.883879492087765,23.645689135590434],[57.883770028744003,23.645474670404585],[57.883674864447748,23.64530037190249],[57.883548646467489,23.645092943988654],[57.883408786435112,23.644875025369515],[57.883307546566463,23.644709076955763],[57.883249904798291,23.644601030676],[57.883203596378181,23.644479625660377],[57.88315560386868,23.644316320062838],[57.883112294344194,23.64416388123573],[57.883068444915068,23.644020677044775],[57.882999435628818,23.643823923739376],[57.882946113487911,23.643670756984143],[57.882884075442391,23.643478695766838],[57.882863899539856,23.643365150478115],[57.882846463122796,23.643193317100327],[57.882817292177855,23.642905869901512],[57.882787113227941,23.64265506572297],[57.882748037785866,23.64247816301507],[57.882690295179607,23.642226073293468],[57.882645965282535,23.642059585417549],[57.882605108883041,23.641850671725173],[57.882575871450079,23.641646595347723],[57.882580616190076,23.641476354435106],[57.882569359038513,23.641351611945417],[57.882549338707882,23.641205316642314],[57.882523699602025,23.641027852344727],[57.882504794944289,23.64089835286504],[57.882488010091635,23.640816105652938],[57.882456414329972,23.640646982840245],[57.8824361081519,23.640517675570333],[57.882418409096154,23.640448357403034],[57.882383630813884,23.640312670086043],[57.882342228492519,23.640145450068569],[57.882314706377485,23.639986089272888],[57.882291707326395,23.639813779781012],[57.882262109019628,23.639613628813937],[57.882235460834963,23.639464972234311],[57.882206120853795,23.639273496796715],[57.882189522877987,23.639129398371644],[57.882144469208932,23.638835914794068],[57.882129348652946,23.638732609917668],[57.882114807066969,23.638626164035006],[57.882089374529677,23.638479345722342],[57.8820486422266,23.638322276409934],[57.881996340091256,23.638083482871764],[57.881975773665864,23.637975039932371],[57.881947075777937,23.637849288275419],[57.881903960985113,23.63766564591084],[57.881865570865656,23.637499146460737],[57.881823369530643,23.637332115003716],[57.88177341062994,23.637143710996185],[57.881731740336555,23.636996062729484],[57.881691049778141,23.636845085107513],[57.881638425292032,23.63667755916633],[57.881587564206207,23.636504115357273],[57.881542280025045,23.636325469920497],[57.881518867196526,23.636226377613703],[57.881464914690298,23.636043166064606],[57.881379579345726,23.63573786413891],[57.881312755314077,23.635484670871641],[57.88124651065975,23.635224551252804],[57.881194035048885,23.635056666584866],[57.881129090083995,23.634850196729964],[57.881104921318503,23.634747923944282],[57.881060645497151,23.63454191377895],[57.881015989500021,23.634372830319801],[57.880966437206425,23.634173773098549],[57.8809058075867,23.633910159407872],[57.880883073418659,23.633757184583217],[57.880855097241295,23.633577220326814],[57.88083547902103,23.633378275745745],[57.880825604845818,23.633226868985364],[57.880815495806772,23.633040202671268],[57.880805510151504,23.632872121677352],[57.880806408826963,23.632752786841152],[57.880789204700918,23.632532485930884],[57.880784720300291,23.632390568262636],[57.880772388080544,23.632220470183054],[57.880765533773861,23.632109403886371],[57.880760663627761,23.632004633360548],[57.880754349313378,23.631903357380661],[57.880750812749874,23.631848025812545],[57.880745897791179,23.631771287221337],[57.880739951775958,23.631678902043884],[57.880736274023519,23.631614038009413],[57.880728275667252,23.631514977195749],[57.880721339426351,23.631447783341578],[57.88071710956158,23.631415720306386],[57.880708011797978,23.631348538722172],[57.880699052261413,23.631300703779278],[57.880699281413243,23.631244675233209],[57.880692043543043,23.631136774097723],[57.880680107108759,23.631047798172194],[57.880662230267653,23.63077432154715]]},"properties":{"OBJECTID":4,"Governorate":"Al Batinah South","Wilayat":"Barka","Latitude":23.639465529999999,"Longitude":57.882299789999998,"Shape_Length":1963.319646925647,"Street_ID":"ST_004"}},{"type":"Feature","id":5,"geometry":{"type":"LineString","coordinates":[[57.886816851728398,23.647368352452418],[57.886784191477432,23.647398455167167],[57.886748873813538,23.647425390794975],[57.886711204717805,23.647448925974068],[57.88667151054338,23.647468856803076],[57.886620702645651,23.647493154363595],[57.886567469182282,23.647511539474326],[57.886512495589955,23.647523775407684],[57.8859444259041,23.647660228506727],[57.885646607806848,23.647731052483806],[57.885445926875278,23.647770362328394],[57.885253108090289,23.647808807827222],[57.885188410418671,23.647812408472443],[57.885123695234419,23.647809137648881],[57.885059690296906,23.647799032138831],[57.885023138688453,23.647794604519785],[57.884986320906116,23.647794331033399],[57.884949707557027,23.647798215175403],[57.884913766635222,23.647806207298448],[57.884866469969474,23.64782021936724]]},"properties":{"OBJECTID":5,"Governorate":"Al Batinah South","Wilayat":"Barka","Latitude":23.647660649999999,"Longitude":57.88586231,"Shape_Length":208.34397294510578,"Street_ID":"ST_005"}},{"type":"Feature","id":6,"geometry":{"type":"LineString","coordinates":[[57.885718284302442,23.647714007068668],[57.88565521722844,23.647437127583181],[57.885597618862747,23.64708675714261],[57.885541690987537,23.646902389150949],[57.885492016587634,23.646690058581328],[57.885462043709339,23.646522960461148],[57.885424458949849,23.646391435744054],[57.885361639527602,23.646239030495583]]},"properties":{"OBJECTID":6,"Governorate":"Al Batinah South","Wilayat":"Barka","Latitude":23.646972430000002,"Longitude":57.885556520000002,"Shape_Length":167.66377195761214,"Street_ID":"ST_006"}},{"type":"Feature","id":7,"geometry":{"type":"LineString","coordinates":[[57.885753500046107,23.646418630321801],[57.885445466325578,23.64646494978458]]},"properties":{"OBJECTID":7,"Governorate":"Al Batinah South","Wilayat":"Barka","Latitude":23.646441790000001,"Longitude":57.885599480000003,"Shape_Length":31.834420506212464,"Street_ID":"ST_007"}},{"type":"Feature","id":8,"geometry":{"type":"LineString","coordinates":[[57.883231355276408,23.644552400719789],[57.884032988266021,23.644348475321173],[57.884706097802457,23.644171740123003],[57.885552010421982,23.64395570800356],[57.886213020485734,23.64377855856047]]},"properties":{"OBJECTID":8,"Governorate":"Al Batinah South","Wilayat":"Barka","Latitude":23.644168229999998,"Longitude":57.884723039999997,"Shape_Length":315.97036728346069,"Street_ID":"ST_008"}},{"type":"Feature","id":9,"geometry":{"type":"LineString","coordinates":[[57.885111764581573,23.644068140603274],[57.885035502854379,23.643778934182002],[57.885020244198273,23.643693213139638],[57.885000858638428,23.643608330139219],[57.884977074277401,23.643478796599666]]},"properties":{"OBJECTID":9,"Governorate":"Al Batinah South","Wilayat":"Barka","Latitude":23.643774409999999,"Longitude":57.885039499999998,"Shape_Length":66.721266459563921,"Street_ID":"ST_009"}},{"type":"Feature","id":10,"geometry":{"type":"LineString","coordinates":[[57.885035502854379,23.643778934182002],[57.884689885837773,23.643827012788901],[57.884615058488343,23.643837089434847]]},"properties":{"OBJECTID":10,"Governorate":"Al Batinah South","Wilayat":"Barka","Latitude":23.643808150000002,"Longitude":57.884825300000003,"Shape_Length":43.36580313578613,"Street_ID":"ST_010"}},{"type":"Feature","id":11,"geometry":{"type":"LineString","coordinates":[[57.884667457516564,23.64383003278278],[57.884598420338811,23.643465667802939],[57.884595720675982,23.643453621006802],[57.883741763620364,23.643570427842633],[57.883209668458825,23.643652105277521],[57.883092478338604,23.643671107611883]]},"properties":{"OBJECTID":11,"Governorate":"Al Batinah South","Wilayat":"Barka","Latitude":23.643576660000001,"Longitude":57.88401236,"Shape_Length":197.53122321654868,"Street_ID":"ST_011"}},{"type":"Feature","id":12,"geometry":{"type":"LineString","coordinates":[[57.883119468277776,23.643666731457351],[57.88315932686092,23.643864358844123],[57.883227890663434,23.644091548741386],[57.883282605537431,23.644253044859301],[57.883334732469343,23.644428451381962]]},"properties":{"OBJECTID":12,"Governorate":"Al Batinah South","Wilayat":"Barka","Latitude":23.644049240000001,"Longitude":57.883219570000001,"Shape_Length":87.231463576932626,"Street_ID":"ST_012"}},{"type":"Feature","id":13,"geometry":{"type":"LineString","coordinates":[[57.883733915564946,23.645072171405296],[57.883751522564637,23.645139295719687],[57.883774287451907,23.645204850581656],[57.883802072820068,23.64526844030831],[57.883834710959299,23.645329681078131],[57.883872004868898,23.645388203247666],[57.884017500483182,23.645504649422826],[57.884022056791991,23.645512070511991],[57.884025345012901,23.645520134017289],[57.884027277523103,23.645528625066618],[57.884027802826083,23.645537317394911],[57.884026906923822,23.645545979373527],[57.883972328933481,23.64577068708769]]},"properties":{"OBJECTID":13,"Governorate":"Al Batinah South","Wilayat":"Barka","Latitude":23.64542046,"Longitude":57.883899479999997,"Shape_Length":87.875257697527076,"Street_ID":"ST_013"}},{"type":"Feature","id":14,"geometry":{"type":"LineString","coordinates":[[57.884026516409669,23.645524480997658],[57.884059926288515,23.645491024870477],[57.884067802145452,23.645475769854649],[57.884073307356552,23.645459508327011],[57.884076318030786,23.645442606242199],[57.884076766414971,23.645425443970144],[57.884074642418526,23.645408407736127],[57.88407112410605,23.645399737559245],[57.884069017149777,23.645390621023438],[57.884068374281362,23.645381286292054],[57.884069211590152,23.645371966989298],[57.884071508120471,23.645362896353248],[57.884082468204092,23.645335558906744],[57.884089884645583,23.645307055296271],[57.884089283797941,23.645300837897494],[57.884087751010767,23.645294782517329],[57.884085321434803,23.645289028021168],[57.884082050786454,23.645283706374354],[57.884078014070063,23.645278939615892],[57.884073303857889,23.64527483705977],[57.884060208911038,23.645269474499038],[57.884046406811322,23.645266354125024],[57.88403227856486,23.645265562075469],[57.884018214181033,23.645267120214843],[57.884004601906312,23.645270985530807],[57.883843796502155,23.645347266771811]]},"properties":{"OBJECTID":14,"Governorate":"Al Batinah South","Wilayat":"Barka","Latitude":23.645354300000001,"Longitude":57.884018220000002,"Shape_Length":55.917858993664552,"Street_ID":"ST_014"}},{"type":"Feature","id":15,"geometry":{"type":"LineString","coordinates":[[57.884070047773648,23.645393907816739],[57.884051693993634,23.645367057129466],[57.884029089942658,23.64534367171677],[57.88400287823444,23.645324416405817],[57.883973804045297,23.645309838608537],[57.883942693929427,23.645300352759165]]},"properties":{"OBJECTID":15,"Governorate":"Al Batinah South","Wilayat":"Barka","Latitude":23.645338939999998,"Longitude":57.884013459999998,"Shape_Length":17.139409215628721,"Street_ID":"ST_015"}},{"type":"Feature","id":16,"geometry":{"type":"LineString","coordinates":[[57.883483776710456,23.642530985631815],[57.883219767003844,23.642579708685648],[57.88299202946672,23.642614284813845],[57.882777644143708,23.642612196072555]]},"properties":{"OBJECTID":16,"Governorate":"Al Batinah South","Wilayat":"Barka","Latitude":23.642586179999999,"Longitude":57.88313222,"Shape_Length":72.875277587272976,"Street_ID":"ST_016"}},{"type":"Feature","id":17,"geometry":{"type":"LineString","coordinates":[[57.885801539738992,23.641898223675096],[57.8854297022705,23.642022533489076],[57.885348446033831,23.642056308662269],[57.885264910168331,23.642083969058092],[57.885179554108845,23.642105362548484],[57.885092847301017,23.642120371472423],[57.884809794833011,23.642165903799331]]},"properties":{"OBJECTID":17,"Governorate":"Al Batinah South","Wilayat":"Barka","Latitude":23.642051590000001,"Longitude":57.885311440000002,"Shape_Length":105.83463813983572,"Street_ID":"ST_017"}},{"type":"Feature","id":18,"geometry":{"type":"LineString","coordinates":[[57.885642200318259,23.641227519103261],[57.885175920059588,23.64131673918348],[57.884630390647978,23.64140452408903],[57.884222818182131,23.64147781904791],[57.883820951490442,23.641548972364582],[57.883564850403637,23.641575727577074],[57.883329006159727,23.641609042518844],[57.882998336689454,23.641662573218714],[57.882781068093252,23.641679268403433],[57.882754653704268,23.641679369348079],[57.882728554645212,23.641683439882655],[57.882703364060582,23.641691387497499],[57.882679654448303,23.641703031569847],[57.882657964648722,23.641718107468805],[57.88263878759858,23.641736272569503],[57.88262255912823,23.64175711403983],[57.882596972038677,23.641793875296521]]},"properties":{"OBJECTID":18,"Governorate":"Al Batinah South","Wilayat":"Barka","Latitude":23.641489830000001,"Longitude":57.88409893,"Shape_Length":320.39743918106967,"Street_ID":"ST_018"}},{"type":"Feature","id":19,"geometry":{"type":"LineString","coordinates":[[57.885270435695674,23.639270806434116],[57.884833439386846,23.63932941862295],[57.884388774395951,23.639386763683255],[57.884064922482658,23.639432527182098],[57.883729628282524,23.639478003867101],[57.883420273079295,23.639524387014305],[57.882987088781334,23.639587985973865],[57.882753135840517,23.639618479348858],[57.882555747206467,23.639642087862843],[57.88227294007109,23.639686868930113]]},"properties":{"OBJECTID":19,"Governorate":"Al Batinah South","Wilayat":"Barka","Latitude":23.639475520000001,"Longitude":57.883771109999998,"Shape_Length":309.22203679552388,"Street_ID":"ST_019"}},{"type":"Feature","id":20,"geometry":{"type":"LineString","coordinates":[[57.882569115825085,23.639640488993951],[57.882512373735629,23.639372858380906],[57.882505648089193,23.63933670912677]]},"properties":{"OBJECTID":20,"Governorate":"Al Batinah South","Wilayat":"Barka","Latitude":23.639488669999999,"Longitude":57.882536979999998,"Shape_Length":34.252784006458747,"Street_ID":"ST_020"}},{"type":"Feature","id":21,"geometry":{"type":"LineString","coordinates":[[57.88418580210422,23.641484373256191],[57.884134815305281,23.641264707395571],[57.884091775428168,23.64104571785861],[57.884032199493866,23.640749528733114],[57.883990758559534,23.640541420786295],[57.8839040445473,23.640179334529627],[57.883858799900977,23.639972654481006],[57.8838119403405,23.6397526325466],[57.883773437543674,23.639584560957584],[57.883746435409783,23.639475724163262],[57.883724103821947,23.639336797814085],[57.883672950791826,23.639102043829954],[57.883602498479704,23.6387760530632],[57.883547885446426,23.638537102595958],[57.883487068972833,23.638226163731488],[57.883430561444783,23.637988980707426],[57.883376033400111,23.637705762120987],[57.88334255874198,23.637547850691131],[57.883283306928476,23.637299440201208],[57.883219191616519,23.637008195206231],[57.883158148595491,23.636720093866636],[57.88309946935825,23.636443222037478],[57.883049046090392,23.636203194295057],[57.883000592384512,23.635972640699123],[57.882948754866327,23.635749133221665],[57.882909168010563,23.635589499707937],[57.882841897723793,23.635282461927144],[57.882771443036546,23.63501233245271],[57.88273187523572,23.634798592663582],[57.882666842279995,23.634540729304778],[57.882591343709542,23.634218855266688],[57.882537522713712,23.6339814884359],[57.882485882257591,23.633778062207146],[57.882477048484986,23.633734489782633],[57.882455779810634,23.633656361274891]]},"properties":{"OBJECTID":21,"Governorate":"Al Batinah South","Wilayat":"Barka","Latitude":23.637567300000001,"Longitude":57.883336669999998,"Shape_Length":884.65051975125778,"Street_ID":"ST_021"}},{"type":"Feature","id":22,"geometry":{"type":"LineString","coordinates":[[57.88445239232729,23.635261034253919],[57.884037153677959,23.635356670190156],[57.883716102802367,23.635435915496505],[57.883534933939622,23.635481611635189],[57.883295931880653,23.635539888802679],[57.883019696390122,23.635612014968679],[57.882916234135962,23.635633750519833],[57.882762891930803,23.635670789176288],[57.882511477047764,23.635733483791153],[57.882237553959186,23.635798678732673],[57.882086753551931,23.635830761776454],[57.881907735080389,23.635877431908199],[57.881711398155822,23.635932697575438],[57.881449980974757,23.635989738232716]]},"properties":{"OBJECTID":22,"Governorate":"Al Batinah South","Wilayat":"Barka","Latitude":23.63562469,"Longitude":57.882950880000003,"Shape_Length":316.76373428906862,"Street_ID":"ST_022"}},{"type":"Feature","id":23,"geometry":{"type":"LineString","coordinates":[[57.88372335082947,23.632296560197922],[57.883451501170782,23.632360457351343],[57.883193261138274,23.632436037999678],[57.88313600550152,23.63245676492129],[57.883077413407761,23.632473341403678],[57.883017785295074,23.632485682448916],[57.882957426913869,23.632493724776797],[57.882914424315068,23.63249455077543],[57.882871683282033,23.632489743502578],[57.882829938585886,23.632479385601201],[57.882789907869494,23.632463655136412],[57.882777581100306,23.632453821375009],[57.882766738160967,23.632442372236678],[57.88275758885257,23.632429529251905],[57.882680797725925,23.632174679843203],[57.882644613096858,23.632033752815186]]},"properties":{"OBJECTID":23,"Governorate":"Al Batinah South","Wilayat":"Barka","Latitude":23.63235843,"Longitude":57.883071100000002,"Shape_Length":149.26061692415882,"Street_ID":"ST_023"}},{"type":"Feature","id":24,"geometry":{"type":"LineString","coordinates":[[57.882876983615695,23.632490643905697],[57.882534794480392,23.632563952808653]]},"properties":{"OBJECTID":24,"Governorate":"Al Batinah South","Wilayat":"Barka","Latitude":23.6325273,"Longitude":57.882705889999997,"Shape_Length":35.837309904683217,"Street_ID":"ST_024"}},{"type":"Feature","id":25,"geometry":{"type":"LineString","coordinates":[[57.882543893619996,23.632562003420613],[57.882492392753115,23.632349618426023],[57.882414102602723,23.632068485282772]]},"properties":{"OBJECTID":25,"Governorate":"Al Batinah South","Wilayat":"Barka","Latitude":23.632314789999999,"Longitude":57.882481060000003,"Shape_Length":56.230072627525793,"Street_ID":"ST_025"}},{"type":"Feature","id":26,"geometry":{"type":"LineString","coordinates":[[57.882231718024165,23.632257382567037],[57.882450168319679,23.632197993905205]]},"properties":{"OBJECTID":26,"Governorate":"Al Batinah South","Wilayat":"Barka","Latitude":23.632227690000001,"Longitude":57.882340939999999,"Shape_Length":23.233634671192149,"Street_ID":"ST_026"}},{"type":"Feature","id":27,"geometry":{"type":"LineString","coordinates":[[57.879860483262327,23.631557912737261],[57.880035069663258,23.631446277805519],[57.880231859826914,23.6313284372624],[57.880552396210966,23.631122376827854],[57.880678274898401,23.631018190868584],[57.880822768341666,23.63094443176383],[57.881011463158529,23.630804267595231],[57.881262579451175,23.630637880997003],[57.881598907635315,23.630480762523771],[57.882083073127127,23.630268523264938],[57.882647146788202,23.630032639178513],[57.882967913011186,23.629897284919728],[57.88316024200244,23.629835478926985]]},"properties":{"OBJECTID":27,"Governorate":"Al Batinah South","Wilayat":"Barka","Latitude":23.630620830000002,"Longitude":57.881463779999997,"Shape_Length":389.00205842747022,"Street_ID":"ST_027"}},{"type":"Feature","id":28,"geometry":{"type":"LineString","coordinates":[[57.883381160493812,23.630690365022836],[57.883187737720441,23.630731036365162],[57.88283221925434,23.63081388904077],[57.882627110684147,23.630871380531488]]},"properties":{"OBJECTID":28,"Governorate":"Al Batinah South","Wilayat":"Barka","Latitude":23.630776040000001,"Longitude":57.883002740000002,"Shape_Length":79.516564107433339,"Street_ID":"ST_028"}},{"type":"Feature","id":29,"geometry":{"type":"LineString","coordinates":[[57.883515344372817,23.631286733491791],[57.883175933659189,23.631351654357335],[57.882700781318917,23.631467685812272],[57.882361447797898,23.63154557982903],[57.882023778712821,23.631621610284622],[57.88177785619871,23.631684767287819],[57.881595836757064,23.631730885896353]]},"properties":{"OBJECTID":29,"Governorate":"Al Batinah South","Wilayat":"Barka","Latitude":23.631501329999999,"Longitude":57.882553639999998,"Shape_Length":201.93627284093722,"Street_ID":"ST_029"}},{"type":"Feature","id":30,"geometry":{"type":"LineString","coordinates":[[57.881074099553814,23.630762765725724],[57.881286229497803,23.630914558183381]]},"properties":{"OBJECTID":30,"Governorate":"Al Batinah South","Wilayat":"Barka","Latitude":23.630838659999998,"Longitude":57.88118016,"Shape_Length":27.399114936305725,"Street_ID":"ST_030"}},{"type":"Feature","id":31,"geometry":{"type":"LineString","coordinates":[[57.883476472627947,23.631112867856533],[57.883720542387621,23.631065347703753]]},"properties":{"OBJECTID":31,"Governorate":"Al Batinah South","Wilayat":"Barka","Latitude":23.631089110000001,"Longitude":57.883598509999999,"Shape_Length":25.447210438680671,"Street_ID":"ST_031"}},{"type":"Feature","id":32,"geometry":{"type":"LineString","coordinates":[[57.883635132581929,23.631081977097967],[57.883668040508475,23.631099803805331],[57.883698439739575,23.631121635201843],[57.883725845634189,23.63114712323954],[57.88374982127268,23.631175861574292],[57.883776348827418,23.631219389131637],[57.883813674449051,23.631362934080528]]},"properties":{"OBJECTID":32,"Governorate":"Al Batinah South","Wilayat":"Barka","Latitude":23.631207580000002,"Longitude":57.883749020000003,"Shape_Length":37.692378423601447,"Street_ID":"ST_032"}},{"type":"Feature","id":33,"geometry":{"type":"LineString","coordinates":[[57.883717207200419,23.632268239281647],[57.88375345319038,23.632221922787998],[57.883794923031694,23.632180218571982],[57.883841034517552,23.632143712130851],[57.8838911402758,23.632112915988841],[57.883944536857548,23.632088262501671],[57.884012077177971,23.632064629804262],[57.884081443319687,23.632047064564379],[57.884152091380329,23.632035704511697],[57.884223467405938,23.632030638720789],[57.884295011734565,23.632031906912697],[57.884337166534216,23.63203613237345],[57.884378535643883,23.632045269025877],[57.884418548913267,23.632059190948357]]},"properties":{"OBJECTID":33,"Governorate":"Al Batinah South","Wilayat":"Barka","Latitude":23.632093130000001,"Longitude":57.884042379999997,"Shape_Length":80.718335699088655,"Street_ID":"ST_033"}},{"type":"Feature","id":34,"geometry":{"type":"LineString","coordinates":[[57.88428417610573,23.632031316571812],[57.884332041924921,23.631998956298755],[57.884382533440629,23.631970868387466],[57.884419046194253,23.631953721126685],[57.884456334674248,23.631938333502141],[57.884470766376417,23.63193244836404],[57.884485919218811,23.631928801413888],[57.884501448265191,23.631927475670121],[57.884517000015492,23.631928501311695],[57.884585078383722,23.631930355168134],[57.88465314727847,23.631928181099987],[57.884720968591971,23.631921986712225],[57.884812947714416,23.631912004209958],[57.884904019345953,23.631895701840616],[57.885010031182901,23.631867267280409],[57.885117237566817,23.631843733792913],[57.885349671133696,23.63180169754779],[57.885367403019089,23.631797572597801]]},"properties":{"OBJECTID":34,"Governorate":"Al Batinah South","Wilayat":"Barka","Latitude":23.631898880000001,"Longitude":57.88481642,"Shape_Length":115.12508524735209,"Street_ID":"ST_034"}},{"type":"Feature","id":35,"geometry":{"type":"LineString","coordinates":[[57.885406576824266,23.631940872630111],[57.885312351587153,23.631596189068102],[57.885311424370514,23.631585903688691],[57.885312144142866,23.631575601713728],[57.885314492595192,23.631565545196839],[57.885318409989402,23.631555989947863],[57.885323796677866,23.631547179025794],[57.885330515638202,23.631539336556003],[57.885338395958712,23.631532662029134],[57.885347237185954,23.631527325226607],[57.885385944616083,23.63150865268803],[57.885426341385639,23.631493988791764],[57.88546801360139,23.631483483779707],[57.885926915405122,23.631380564441219]]},"properties":{"OBJECTID":35,"Governorate":"Al Batinah South","Wilayat":"Barka","Latitude":23.631571529999999,"Longitude":57.88551047,"Shape_Length":109.7913677337588,"Street_ID":"ST_035"}},{"type":"Feature","id":36,"geometry":{"type":"LineString","coordinates":[[57.883928696057808,23.632094887406815],[57.883876819835649,23.631894502233408],[57.883819753587126,23.631643238722422],[57.883768318653054,23.631441067161685]]},"properties":{"OBJECTID":36,"Governorate":"Al Batinah South","Wilayat":"Barka","Latitude":23.631768040000001,"Longitude":57.883848219999997,"Shape_Length":74.222384771342405,"Street_ID":"ST_036"}},{"type":"Feature","id":37,"geometry":{"type":"LineString","coordinates":[[57.883442581768932,23.630963807287166],[57.883563612242604,23.630944509390506],[57.883576947526876,23.630941779199354],[57.883589757667544,23.630937176586354],[57.883601781202856,23.630930795493271],[57.883605130618399,23.630924036863359],[57.883607374140766,23.630916835178127],[57.883608455805863,23.630909370081781],[57.883608348631832,23.630901827789259],[57.883607055292096,23.630894396441121],[57.883604608048685,23.630887261410464],[57.883601067947474,23.630880600678807],[57.88358221737883,23.630854537560023],[57.883567403286449,23.630825986329469],[57.88355694759958,23.63079556744206],[57.883521121310658,23.630654208644142],[57.883482589349697,23.630531103533766],[57.883421985170266,23.630312656901641],[57.883402293146752,23.630231348381134],[57.883400597849956,23.630210799433772],[57.883402131364157,23.63019023778007],[57.883406856083568,23.630170167645655],[57.883414656145682,23.630151081202829],[57.883425340272545,23.630133446501183],[57.883438646461357,23.630117695989821],[57.883489927897458,23.630069284664462],[57.883543767601992,23.630023735478655],[57.88357591555453,23.630003748810179],[57.883610974077449,23.629989470934298],[57.883647938560756,23.629981310986814],[57.883685749778721,23.629979502792892],[57.883721250558622,23.629974226254131],[57.883756063506645,23.62996549665592],[57.883789853593697,23.629953398009217],[57.883927403751905,23.629919118314298],[57.884155350678768,23.629855511296281],[57.884292342446514,23.629814020616859],[57.884309535876412,23.629810802455101],[57.884326987360161,23.629809612366202],[57.884344458504053,23.629810466607218],[57.884352324265066,23.629815097978131],[57.884359439259548,23.629820816076275],[57.884365654507199,23.629827501170851],[57.884370839867451,23.629835013283198],[57.884386019538454,23.629902234917022],[57.884397610641216,23.62996133376749],[57.884546163984055,23.630456878428827]]},"properties":{"OBJECTID":37,"Governorate":"Al Batinah South","Wilayat":"Barka","Latitude":23.630239599999999,"Longitude":57.883877390000002,"Shape_Length":286.64892370456062,"Street_ID":"ST_037"}},{"type":"Feature","id":38,"geometry":{"type":"LineString","coordinates":[[57.884847407105063,23.630397385595327],[57.88480415786708,23.630395005285017],[57.884760900190919,23.630397226977227],[57.884718122377905,23.630404025593048],[57.884676307312574,23.630415324388338],[57.884546163984055,23.630456878428827],[57.884386002068688,23.630502639889862],[57.884051579535964,23.630600384418226],[57.883834740604058,23.630661413520045],[57.883544171041748,23.630745155018481]]},"properties":{"OBJECTID":38,"Governorate":"Al Batinah South","Wilayat":"Barka","Latitude":23.630558919999999,"Longitude":57.884193840000002,"Shape_Length":138.85430725118582,"Street_ID":"ST_038"}},{"type":"Feature","id":39,"geometry":{"type":"LineString","coordinates":[[57.883937593710968,23.633308134698307],[57.884189059360793,23.633257298390951]]},"properties":{"OBJECTID":39,"Governorate":"Al Batinah South","Wilayat":"Barka","Latitude":23.63328272,"Longitude":57.884063329999996,"Shape_Length":26.261643066156864,"Street_ID":"ST_039"}},{"type":"Feature","id":40,"geometry":{"type":"LineString","coordinates":[[57.884261954634688,23.634526100313661],[57.88426961270396,23.634484477866692],[57.884284131799099,23.634444436934881],[57.884305166027055,23.634406931409337],[57.88433221428658,23.634372854779627],[57.884364632206328,23.634343018848455],[57.884401647495878,23.634318134392412],[57.884442378344005,23.634298794229473],[57.884485854425833,23.63428545909661],[57.884668372846932,23.634238951797915],[57.884852185006132,23.634197854437858],[57.885037130587065,23.634162202860526],[57.885843998032769,23.634007456627078],[57.886644987496112,23.633860019611141],[57.887194376252417,23.633750415703748],[57.887234490702667,23.633747443964285],[57.887273926280692,23.633739517077114],[57.887312073310731,23.633726757592264],[57.887348342038024,23.633709362771921],[57.887382171746466,23.633687601540775],[57.887413039427287,23.633661810328409],[57.887427966774851,23.633639720989617],[57.887439323067262,23.633615600475189],[57.887446838633316,23.633590021560817],[57.887450335005283,23.63356359165396],[57.88744972915687,23.633536938370085],[57.887431429277711,23.63337202283795],[57.88741589903043,23.633206823474342],[57.887402068094318,23.633109463819054],[57.887354238877919,23.632855547770959],[57.887342457610707,23.632811883542626],[57.887337538380883,23.63276692618204],[57.887339598458766,23.632721747435131],[57.887348588733822,23.6326774243255],[57.887356625583877,23.632653288134708],[57.887368701111235,23.632630897772859],[57.887384454086927,23.632610923028267],[57.887403413274313,23.632593961428153],[57.887425011525693,23.632580520364122],[57.887448602748037,23.632571001913988],[57.887532141126009,23.632541079724245],[57.887732969729051,23.632507131832533],[57.888046155113777,23.632457632323533],[57.888163543880651,23.632439306279295],[57.888279973504041,23.632415639651274],[57.888395201145698,23.632386681801162],[57.88851181227264,23.632342034519471],[57.888697445792687,23.632274628567622],[57.888882267982503,23.632218780750463],[57.888969501888766,23.632198895542594],[57.889057567949514,23.632183098554322],[57.889146274678673,23.632171424133759],[57.88941180230254,23.63213345070281],[57.889610670855348,23.632109053020926],[57.889820935870304,23.632082801383262],[57.890177008531253,23.632039653068027],[57.890249193061329,23.63202844178144],[57.890320613831136,23.632013099911621],[57.890391034680214,23.631993678188113],[57.890460222754456,23.631970240830931],[57.890510635075835,23.631946589920076],[57.890558449653795,23.631918049880394],[57.890603193829484,23.6318849028372],[57.890644425295726,23.63184747645716],[57.890681736469325,23.631806140709251],[57.890712391399845,23.631767687935703],[57.890738085147341,23.631725757375261],[57.890758427702714,23.63168098549793],[57.890773110283405,23.631634051902466],[57.890812382143167,23.631440599055889]]},"properties":{"OBJECTID":40,"Governorate":"Al Batinah South","Wilayat":"Barka","Latitude":23.6330475,"Longitude":57.88759718,"Shape_Length":860.17282544121576,"Street_ID":"ST_040"}},{"type":"Feature","id":41,"geometry":{"type":"LineString","coordinates":[[57.884189059360793,23.633257298390951],[57.884114494078119,23.632932492529243],[57.884089860949302,23.632825585858075],[57.88407284656153,23.632713645589032],[57.884042728641887,23.632602227076607],[57.884025454282288,23.63252383216393],[57.884022274876671,23.63251494033339],[57.88402057856117,23.632505650780974],[57.884020410186324,23.632496209122205],[57.884021774203951,23.632486864994299],[57.884024634549476,23.632477865455762],[57.884028915595422,23.632469448454156],[57.884034504151053,23.632461836534794],[57.884046882647468,23.632448055081046],[57.884061461731086,23.632436626784507],[57.884077800406942,23.632427897333656],[57.884095404455103,23.63242213078102],[57.884234524815007,23.632391819500334],[57.884323276543931,23.632379013817474],[57.884505107580253,23.63234733974426],[57.884766421486205,23.632296204332818],[57.885042071840857,23.632247447003479],[57.885263409549324,23.632207272445118],[57.885510200217396,23.632162257456695],[57.885800583047725,23.632107187141447],[57.885820746648903,23.632105107116718],[57.885840966217387,23.632106544602667],[57.885860632750273,23.632111456302962],[57.885879153901804,23.632119694279737],[57.885895971824525,23.632131010409417],[57.88591057997133,23.632145063856051],[57.885922538352432,23.632161431337128],[57.885932396567306,23.632200476263154],[57.885939169094506,23.632240172906897],[57.885980826154388,23.632464230685613],[57.886011938060292,23.632632220335815],[57.886086363920292,23.632946134319845],[57.886149018739168,23.633237105621088],[57.886147189796667,23.633249736268169],[57.8861433253984,23.633261899520299],[57.886137529024829,23.633273269671125],[57.886129955890681,23.633283542251888],[57.886120808788576,23.633292442184437],[57.886110332658703,23.633299731147275],[57.886098808029821,23.633305213957282],[57.886086543507297,23.633308743796317],[57.886026350003199,23.633323722048157],[57.885967457183675,23.633343196179005],[57.885910200329953,23.633367055321191],[57.885880508837985,23.633389680853721],[57.885853988263555,23.633415951722551],[57.885831082865856,23.633445427851431],[57.88577894632931,23.633531682026685],[57.885760022882451,23.633565825924325],[57.88573636165961,23.633596875064747],[57.885715384867538,23.633606358904423],[57.885693389258279,23.633613153181006],[57.885670718138549,23.633617151849659]]},"properties":{"OBJECTID":41,"Governorate":"Al Batinah South","Wilayat":"Barka","Latitude":23.63264933,"Longitude":57.885213270000001,"Shape_Length":480.04861790737658,"Street_ID":"ST_041"}},{"type":"Feature","id":42,"geometry":{"type":"LineString","coordinates":[[57.886290750068248,23.633925224526855],[57.886282500846924,23.633885811849627],[57.886281445148342,23.633882578998328],[57.8862799110411,23.63387954381432],[57.886277934066086,23.633876776614144],[57.886275560024167,23.63387434150594],[57.886272843915123,23.633872294904211],[57.886269848663439,23.633870684222877],[57.886256431446853,23.633870919520721],[57.88624315646031,23.633868956920828],[57.886230381310405,23.633864849292458],[57.886218450138934,23.633858707288447],[57.886207684352286,23.633850696364412],[57.886198373963282,23.633841032321644],[57.886190769778693,23.633829975493768],[57.886174455887563,23.633737046539107],[57.886148544924822,23.633565672767567],[57.886127354424957,23.633446600598933],[57.886093128060118,23.633306938624795]]},"properties":{"OBJECTID":42,"Governorate":"Al Batinah South","Wilayat":"Barka","Latitude":23.633634489999999,"Longitude":57.886168589999997,"Shape_Length":75.243263424786761,"Street_ID":"ST_042"}},{"type":"Feature","id":43,"geometry":{"type":"LineString","coordinates":[[57.886223475115038,23.633861598367975],[57.886027986248848,23.633906232107357],[57.885649234178985,23.633982122237011],[57.885301133394009,23.63404770353759],[57.884906421865573,23.634119139871444],[57.884565853293147,23.63417698944858],[57.884419983089444,23.634198786263241]]},"properties":{"OBJECTID":43,"Governorate":"Al Batinah South","Wilayat":"Barka","Latitude":23.634039600000001,"Longitude":57.885323820000004,"Shape_Length":187.75929998529304,"Street_ID":"ST_043"}},{"type":"Feature","id":44,"geometry":{"type":"LineString","coordinates":[[57.884695485969523,23.636471050343104],[57.884963190846875,23.636414486788713],[57.885453997685559,23.636306510984635],[57.885909219078407,23.636208520339242],[57.886274303222621,23.636129563512725],[57.886372822102999,23.636106055709632]]},"properties":{"OBJECTID":44,"Governorate":"Al Batinah South","Wilayat":"Barka","Latitude":23.636289690000002,"Longitude":57.885534450000002,"Shape_Length":175.80806517804496,"Street_ID":"ST_044"}},{"type":"Feature","id":45,"geometry":{"type":"LineString","coordinates":[[57.884525983050409,23.635597150692163],[57.884955604145155,23.635522119130457],[57.885193669628208,23.635481122039966],[57.885443634533488,23.635442461875115]]},"properties":{"OBJECTID":45,"Governorate":"Al Batinah South","Wilayat":"Barka","Latitude":23.63551799,"Longitude":57.884984459999998,"Shape_Length":95.163571165333309,"Street_ID":"ST_045"}},{"type":"Feature","id":46,"geometry":{"type":"LineString","coordinates":[[57.884692911427116,23.635567997213883],[57.884712228663645,23.635574716955432],[57.884730331883119,23.635584234518074],[57.884746818538574,23.635596338267309],[57.88476966171531,23.635622992957686],[57.884787780607589,23.635653059367268],[57.884797459675383,23.635687048228462],[57.884804247432662,23.635721730405297],[57.884810680928013,23.635742012474154],[57.884820289212215,23.635760997548669],[57.884827898241163,23.635770792634386],[57.884836774248498,23.635779456208681],[57.884846750749475,23.635786825771351],[57.88485764061771,23.635792763093605],[57.884867832419026,23.635803427023994],[57.884876085133826,23.635815653426732],[57.884882163559816,23.635829093849456],[57.88488589446191,23.635843365240241],[57.884894190690382,23.635892097633597],[57.884896506517173,23.635941476885467],[57.884922477676881,23.636085791596059],[57.884947862925713,23.636215126492758],[57.884960763078993,23.63629265203291],[57.884988062130411,23.636409015110196]]},"properties":{"OBJECTID":46,"Governorate":"Al Batinah South","Wilayat":"Barka","Latitude":23.635966150000002,"Longitude":57.884882210000001,"Shape_Length":101.64031684807449,"Street_ID":"ST_046"}},{"type":"Feature","id":47,"geometry":{"type":"LineString","coordinates":[[57.888815129094027,23.633336461470961],[57.888473359248579,23.633440449113611],[57.888143226779526,23.633526897930128],[57.887761601000527,23.633626220503217],[57.887352184964612,23.633707374343363]]},"properties":{"OBJECTID":47,"Governorate":"Al Batinah South","Wilayat":"Barka","Latitude":23.633535869999999,"Longitude":57.888087749999997,"Shape_Length":154.89599835848043,"Street_ID":"ST_047"}},{"type":"Feature","id":48,"geometry":{"type":"LineString","coordinates":[[57.887629683181594,23.633652368836692],[57.887592890112735,23.633441667363144],[57.887560703179261,23.633150307444016],[57.887556216954529,23.633100103577988]]},"properties":{"OBJECTID":48,"Governorate":"Al Batinah South","Wilayat":"Barka","Latitude":23.633376770000002,"Longitude":57.887588360000002,"Shape_Length":61.632174533254535,"Street_ID":"ST_048"}},{"type":"Feature","id":49,"geometry":{"type":"LineString","coordinates":[[57.888155280795864,23.632440771682177],[57.888105673544281,23.632151895140534],[57.888068190914083,23.631866024544891],[57.888038297141755,23.63165108647728],[57.888038960059937,23.63159416830911],[57.888046720651971,23.631537777790943],[57.888061457590211,23.631482796521592],[57.888051069928423,23.631387619936795],[57.888035712437777,23.631293117908815],[57.888033284079526,23.631239314070307],[57.88802757644833,23.631185758744628],[57.888018610824993,23.631132651611772],[57.888002019574799,23.631054540719848],[57.887991579513113,23.630975372632008],[57.88797934462827,23.630884874237402],[57.887968997197262,23.630794140657596],[57.887958542535245,23.63069213706606],[57.887944566317266,23.630590556073862],[57.887892014993817,23.630356272861103],[57.887843114486422,23.629965960233047],[57.887826058760282,23.629879554952726]]},"properties":{"OBJECTID":49,"Governorate":"Al Batinah South","Wilayat":"Barka","Latitude":23.631159830000001,"Longitude":57.887999550000004,"Shape_Length":286.42097017246323,"Street_ID":"ST_049"}},{"type":"Feature","id":50,"geometry":{"type":"LineString","coordinates":[[57.889008057673301,23.627517421771646],[57.889029944744038,23.627631569883697],[57.889044142056619,23.627703481258713],[57.889063915187087,23.627774063358803],[57.889107312150912,23.627889241414589],[57.889155717666263,23.628002405839599],[57.88921134989517,23.62815373394292],[57.889298951295686,23.62838250502665]]},"properties":{"OBJECTID":50,"Governorate":"Al Batinah South","Wilayat":"Barka","Latitude":23.627953439999999,"Longitude":57.889139350000001,"Shape_Length":100.51949919237632,"Street_ID":"ST_050"}},{"type":"Feature","id":51,"geometry":{"type":"LineString","coordinates":[[57.889298951295686,23.62838250502665],[57.88909580290796,23.628450685751424],[57.889195196549331,23.628728407664642],[57.88931946915001,23.62904812828862]]},"properties":{"OBJECTID":51,"Governorate":"Al Batinah South","Wilayat":"Barka","Latitude":23.628670140000001,"Longitude":57.889203620000004,"Shape_Length":92.03434475646506,"Street_ID":"ST_051"}},{"type":"Feature","id":52,"geometry":{"type":"LineString","coordinates":[[57.886669705154461,23.628662977693651],[57.886872418029562,23.629330215568736]]},"properties":{"OBJECTID":52,"Governorate":"Al Batinah South","Wilayat":"Barka","Latitude":23.628996600000001,"Longitude":57.886771060000001,"Shape_Length":76.716001583377178,"Street_ID":"ST_052"}},{"type":"Feature","id":53,"geometry":{"type":"LineString","coordinates":[[57.886815266774086,23.629142099883076],[57.887403026605504,23.628942007068218],[57.888374177976786,23.628608384926999],[57.889080682153853,23.628397599331915],[57.889105010044354,23.628380764070339],[57.889126682414584,23.628360625037161],[57.889145254396276,23.628337595625865],[57.88915300237435,23.628321500039629],[57.889158110321247,23.628304382564956],[57.889160449953309,23.628286673099058],[57.889159962511791,23.628268816406717],[57.889156660238562,23.628251260950236],[57.889150626068634,23.628234447626536],[57.889094506977777,23.628011141923871],[57.889044119360797,23.627703385034113]]},"properties":{"OBJECTID":53,"Governorate":"Al Batinah South","Wilayat":"Barka","Latitude":23.6285873,"Longitude":57.8882324,"Shape_Length":326.48464233551164,"Street_ID":"ST_053"}},{"type":"Feature","id":54,"geometry":{"type":"LineString","coordinates":[[57.885468684240813,23.640297562900813],[57.885856611193276,23.640226460655317],[57.886279306771847,23.640161259853262],[57.886384695125585,23.640146461994011],[57.886398164326359,23.640136455955165],[57.88640971013568,23.640124280797259],[57.886418987889087,23.640110299972015],[57.886425720627926,23.640094930833765],[57.886429707367085,23.640078632180639],[57.886430829094785,23.64006189055856],[57.886429052325305,23.640045205736921],[57.886401027954406,23.63993180513204],[57.88637854229124,23.639845555606229],[57.886350209075246,23.639761046348614],[57.886316161054751,23.639678673306598],[57.886296311108701,23.639664811957356],[57.886274635783124,23.639654025965417],[57.88625160802917,23.639646550678897],[57.886227730307674,23.639642549207014],[57.886203523625618,23.639642108861064],[57.886179516167807,23.639645239249301],[57.886141337072118,23.639646758647299],[57.886103298434556,23.639643151159312],[57.886066085616378,23.639634481783261],[57.886043870874936,23.639625695981358],[57.886023416397215,23.639613355017303],[57.886005286253663,23.639597799216226],[57.885989980416838,23.639579457558405],[57.885983117540391,23.639566359052555],[57.885974193565126,23.639554567844218],[57.885963451604056,23.639544405157523],[57.885951184296992,23.639536147851302],[57.885937725838282,23.639530020876713],[57.885923442872411,23.63952619114897],[57.885908724505668,23.639524763000132],[57.885893971705833,23.639525775336796],[57.885339139132221,23.639608986819457]]},"properties":{"OBJECTID":54,"Governorate":"Al Batinah South","Wilayat":"Barka","Latitude":23.639892039999999,"Longitude":57.885988709999999,"Shape_Length":256.47802639360043,"Street_ID":"ST_054"}},{"type":"Feature","id":55,"geometry":{"type":"LineString","coordinates":[[57.886316161054751,23.639678673306598],[57.886732875354447,23.639576669502524]]},"properties":{"OBJECTID":55,"Governorate":"Al Batinah South","Wilayat":"Barka","Latitude":23.639627669999999,"Longitude":57.886524520000002,"Shape_Length":43.980749755158634,"Street_ID":"ST_055"}},{"type":"Feature","id":56,"geometry":{"type":"LineString","coordinates":[[57.886346183939658,23.639671324016174],[57.886295478730212,23.63948253397713]]},"properties":{"OBJECTID":56,"Governorate":"Al Batinah South","Wilayat":"Barka","Latitude":23.63957693,"Longitude":57.886320830000003,"Shape_Length":21.533185542226231,"Street_ID":"ST_056"}},{"type":"Feature","id":57,"geometry":{"type":"LineString","coordinates":[[57.888019169366054,23.638975016864663],[57.888012353041979,23.639001191720606],[57.888001776796898,23.639026086065293],[57.887987668708639,23.639049163049567],[57.887970333019616,23.639069925015839],[57.887950143575779,23.639087924230125],[57.887912845552918,23.639115286194119],[57.88787227134155,23.639137502245859],[57.887829126571994,23.639154186023692],[57.887784161579397,23.639165047378306],[57.887693902091108,23.639186184918227],[57.887577550977866,23.639199081030529],[57.887542121135638,23.639199742383713],[57.887506913636109,23.639195724537824],[57.887472543752452,23.639187097707239],[57.887414607907218,23.639186051398312],[57.887356822518719,23.639190353235261],[57.887299680229354,23.639199966543298],[57.887235304142884,23.639217110881795],[57.887171734262999,23.639237037728591],[57.88715426854197,23.639249442884207],[57.887138708365136,23.639264167699778],[57.887125359278521,23.639280923032764],[57.887114483410301,23.63929937986855],[57.887106294323495,23.639319175781111],[57.887101858306139,23.639348714666216],[57.887101169569434,23.639378576843377],[57.887104239033633,23.639408288833764],[57.887137401953041,23.639601675947823],[57.887215608164574,23.639802667701609],[57.887276340003346,23.63993280512781],[57.887277730107989,23.639945132908874],[57.887277213945893,23.639957528075417],[57.887274803719251,23.639969697602293],[57.887270556406492,23.639981353798554],[57.887264572415255,23.639992221108511],[57.88725699320873,23.640002042625984],[57.887247997961452,23.640010586167591],[57.887237799323522,23.640017649761671],[57.887163117678647,23.640033908127823],[57.887087454801183,23.640044716065862],[57.886384695125585,23.640146461994011]]},"properties":{"OBJECTID":57,"Governorate":"Al Batinah South","Wilayat":"Barka","Latitude":23.639608079999999,"Longitude":57.887219000000002,"Shape_Length":279.04884112268985,"Street_ID":"ST_057"}},{"type":"Feature","id":58,"geometry":{"type":"LineString","coordinates":[[57.887253901933072,23.640004955330717],[57.887433025518646,23.640088088536004]]},"properties":{"OBJECTID":58,"Governorate":"Al Batinah South","Wilayat":"Barka","Latitude":23.640046519999999,"Longitude":57.887343459999997,"Shape_Length":20.458567376074789,"Street_ID":"ST_058"}},{"type":"Feature","id":59,"geometry":{"type":"LineString","coordinates":[[57.888019169366054,23.638975016864663],[57.887970387568245,23.638759344478014]]},"properties":{"OBJECTID":59,"Governorate":"Al Batinah South","Wilayat":"Barka","Latitude":23.638867179999998,"Longitude":57.88799478,"Shape_Length":24.392161545871627,"Street_ID":"ST_059"}},{"type":"Feature","id":60,"geometry":{"type":"LineString","coordinates":[[57.888076942082826,23.638736970933238],[57.88821445629241,23.638863427642541],[57.888238306045416,23.638882310426212],[57.888263489432816,23.638899374049405],[57.888312840470419,23.638930685868736],[57.888357980313891,23.638967811998],[57.88839822788762,23.639010192273503],[57.88842659163975,23.63904529629021],[57.888451904940894,23.639082659791235],[57.888473988696965,23.639122018426143],[57.888507126126775,23.639172332064376],[57.888536822686028,23.639224750246484],[57.888570059555192,23.639329887930437],[57.888660179060757,23.639678652231463],[57.888693738761233,23.639909402828657],[57.888741774524078,23.64008984097196],[57.88883271838457,23.640393421590041],[57.888855190611686,23.64047409547744],[57.888863437293871,23.640497369822874],[57.888868063682899,23.64052162470789],[57.888868963031797,23.64054630048739],[57.888866114589426,23.640570827804783],[57.888859584079327,23.640594640729013],[57.888834617669303,23.640625281271223],[57.888805414318668,23.640651914498001],[57.888772609820322,23.640673960571217],[57.888736918368544,23.640690939520734],[57.888699117010169,23.640702481693914],[57.888614766347047,23.640725765213116],[57.888529488723378,23.640745383662036],[57.888220775047188,23.640806930184134],[57.887986590477141,23.640851878530999],[57.887382176202159,23.640951514212464],[57.887009228980041,23.64101206566669],[57.886567541304402,23.641073554755671],[57.886208855810324,23.64114002902862],[57.885935362059342,23.641184722950317],[57.885642200318259,23.641227519103261]]},"properties":{"OBJECTID":60,"Governorate":"Al Batinah South","Wilayat":"Barka","Latitude":23.64041611,"Longitude":57.887802559999997,"Shape_Length":566.40578184550429,"Street_ID":"ST_060"}},{"type":"Feature","id":61,"geometry":{"type":"LineString","coordinates":[[57.883523551937785,23.641581561793057],[57.883531359047005,23.641656217160204],[57.883528337125725,23.641714587253144],[57.883531805824276,23.641728924486817],[57.883537506746663,23.641742529178021],[57.883545295280655,23.641755056223854],[57.883554973858672,23.641766187857449],[57.88356629696942,23.641775641708623],[57.883578977385611,23.641783177966595],[57.88359269344992,23.641788605463152],[57.88360709723429,23.641791786521893],[57.883621823365644,23.641792640450603],[57.883636498294102,23.641791145588137],[57.884806669230784,23.641577163512292]]},"properties":{"OBJECTID":61,"Governorate":"Al Batinah South","Wilayat":"Barka","Latitude":23.641689110000002,"Longitude":57.884087610000002,"Shape_Length":152.03880297681766,"Street_ID":"ST_061"}},{"type":"Feature","id":62,"geometry":{"type":"LineString","coordinates":[[57.88257792686867,23.641572836663443],[57.882112826536577,23.64167699784484],[57.881614994617721,23.641867503374453]]},"properties":{"OBJECTID":62,"Governorate":"Al Batinah South","Wilayat":"Barka","Latitude":23.64170296,"Longitude":57.882090349999999,"Shape_Length":103.80814481481364,"Street_ID":"ST_062"}},{"type":"Feature","id":63,"geometry":{"type":"LineString","coordinates":[[57.882851650300914,23.643244441054282],[57.882436705159641,23.643334753201032],[57.882021221844454,23.643422556213032],[57.881828637565917,23.643456700874509],[57.881636884967897,23.643495243103271],[57.881446064453058,23.643538162718404],[57.881256275936032,23.643585437246969]]},"properties":{"OBJECTID":63,"Governorate":"Al Batinah South","Wilayat":"Barka","Latitude":23.64341297,"Longitude":57.882053390000003,"Shape_Length":167.08304578425356,"Street_ID":"ST_063"}},{"type":"Feature","id":64,"geometry":{"type":"LineString","coordinates":[[57.881853967863513,23.643451955465817],[57.881840141102614,23.643418235612085],[57.881830439271887,23.643383106104075],[57.881825001171805,23.643347069526541],[57.881823904603245,23.64331064144136],[57.881826237035646,23.643298762243671],[57.88183058309415,23.643287463245741],[57.88183681255552,23.64327708300539],[57.881844738763121,23.643267932551211],[57.881854124219842,23.643260286063075],[57.881864687704308,23.643254372656717],[57.88187611269727,23.643250369518647],[57.882002641467196,23.643211089689959],[57.882076386953678,23.64317887315616],[57.882081596912684,23.643176004797191],[57.882086302772763,23.643172368035309],[57.882090392171868,23.643168049705654],[57.882093767467225,23.643163152917186],[57.882096348066753,23.643157794590756]]},"properties":{"OBJECTID":64,"Governorate":"Al Batinah South","Wilayat":"Barka","Latitude":23.643277479999998,"Longitude":57.881914309999999,"Shape_Length":50.262253440734845,"Street_ID":"ST_064"}},{"type":"Feature","id":65,"geometry":{"type":"LineString","coordinates":[[57.881308578058011,23.643571945189688],[57.881277146225131,23.64349219987086]]},"properties":{"OBJECTID":65,"Governorate":"Al Batinah South","Wilayat":"Barka","Latitude":23.643532069999999,"Longitude":57.881292860000002,"Shape_Length":9.393442033596294,"Street_ID":"ST_065"}},{"type":"Feature","id":66,"geometry":{"type":"LineString","coordinates":[[57.877243733520778,23.646653163012495],[57.878804276885987,23.64609174699936],[57.879409130283435,23.645868635656129],[57.879611927378832,23.645773923111516],[57.879869959285259,23.645650838152548],[57.880474828798093,23.645430722158256],[57.880652800404249,23.645390723147962]]},"properties":{"OBJECTID":66,"Governorate":"Al Batinah South","Wilayat":"Barka","Latitude":23.646021820000001,"Longitude":57.878949640000002,"Shape_Length":375.18196641103248,"Street_ID":"ST_066"}},{"type":"Feature","id":67,"geometry":{"type":"LineString","coordinates":[[57.877460200305869,23.646575289169629],[57.877421211709354,23.646449067520198],[57.877447350905811,23.646437601756574],[57.877474877582365,23.646430051696665],[57.877503208655128,23.646426577269633],[57.877531744001068,23.646427252072534],[57.877571313284513,23.646426227040237],[57.877610322031522,23.646419511644453],[57.877647956235045,23.646407246017333],[57.87796055399329,23.646292154791027],[57.87811120337124,23.646237251633579],[57.878048017581321,23.646060409269332],[57.878002337516214,23.645909265787129],[57.877960284241873,23.645751959101776],[57.877901725071119,23.645519197863305]]},"properties":{"OBJECTID":67,"Governorate":"Al Batinah South","Wilayat":"Barka","Latitude":23.646140639999999,"Longitude":57.877851669999998,"Shape_Length":171.6575259516417,"Street_ID":"ST_067"}},{"type":"Feature","id":68,"geometry":{"type":"LineString","coordinates":[[57.878847172134847,23.646075924619701],[57.878688370848543,23.645660678059951]]},"properties":{"OBJECTID":68,"Governorate":"Al Batinah South","Wilayat":"Barka","Latitude":23.6458683,"Longitude":57.878767770000003,"Shape_Length":48.745758345290398,"Street_ID":"ST_068"}},{"type":"Feature","id":69,"geometry":{"type":"LineString","coordinates":[[57.879409130283435,23.645868635656129],[57.879253134938985,23.645421909088459],[57.878777784367273,23.64553706909798],[57.878758677508124,23.645544472675351],[57.878741038443117,23.645554900925919],[57.878725342005907,23.645568073127077],[57.878712010735718,23.64558363469061],[57.878701403502809,23.645601166708015],[57.878693805847895,23.645620197227302],[57.878689422295558,23.645640213957634],[57.878688370848543,23.645660678059951]]},"properties":{"OBJECTID":69,"Governorate":"Al Batinah South","Wilayat":"Barka","Latitude":23.645567700000001,"Longitude":57.87910883,"Shape_Length":119.71360084443087,"Street_ID":"ST_069"}},{"type":"Feature","id":70,"geometry":{"type":"LineString","coordinates":[[57.879703778511683,23.645730109057826],[57.879584010779709,23.645366049298293],[57.879564341438162,23.645358462613633],[57.879543708841069,23.645354134020501],[57.879522648858519,23.645353175941171],[57.879501708460644,23.645355613258893],[57.879481431511714,23.645361382671624],[57.879253134938985,23.645421909088459]]},"properties":{"OBJECTID":70,"Governorate":"Al Batinah South","Wilayat":"Barka","Latitude":23.645472179999999,"Longitude":57.879541500000002,"Shape_Length":77.16604365129399,"Street_ID":"ST_070"}},{"type":"Feature","id":71,"geometry":{"type":"LineString","coordinates":[[57.878123194506102,23.646336773926244],[57.878251468824111,23.646674449417205],[57.878391288186371,23.647068175941634],[57.878515831102391,23.647436496106238],[57.878625738076828,23.647753493589015],[57.878781649228436,23.648187475196192]]},"properties":{"OBJECTID":71,"Governorate":"Al Batinah South","Wilayat":"Barka","Latitude":23.647261230000002,"Longitude":57.878455279999997,"Shape_Length":215.64844101188015,"Street_ID":"ST_071"}},{"type":"Feature","id":72,"geometry":{"type":"LineString","coordinates":[[57.877859335491365,23.648484419329499],[57.878361435189987,23.648321785525468],[57.878781649228436,23.648187475196192],[57.879284640270257,23.648036799860478],[57.879421238158841,23.64797748259037],[57.879437086428155,23.647967204730264],[57.879451090904588,23.64795452889939],[57.879462892457184,23.647939780156907],[57.879472188446783,23.647923336719742],[57.879478740486924,23.64790562026359],[57.879482380557008,23.64788708510947],[57.879483015311031,23.64786820657309],[57.879419992644202,23.647713092162689],[57.879349871352225,23.647509072806741],[57.879293832498178,23.647307853843678],[57.879213549307728,23.647064064635714],[57.879129983819453,23.64679678194274],[57.879067910347104,23.646627746398643],[57.878936555016757,23.646302191944258],[57.878847172134847,23.646075924619701]]},"properties":{"OBJECTID":72,"Governorate":"Al Batinah South","Wilayat":"Barka","Latitude":23.647549359999999,"Longitude":57.878955439999999,"Shape_Length":392.23122341899835,"Street_ID":"ST_072"}},{"type":"Feature","id":73,"geometry":{"type":"LineString","coordinates":[[57.879347730650913,23.647501386092529],[57.878616933712308,23.647728101309863]]},"properties":{"OBJECTID":73,"Governorate":"Al Batinah South","Wilayat":"Barka","Latitude":23.647614740000002,"Longitude":57.878982329999999,"Shape_Length":78.651749973598768,"Street_ID":"ST_073"}},{"type":"Feature","id":74,"geometry":{"type":"LineString","coordinates":[[57.879120847546432,23.64677190278168],[57.878363039066947,23.646988627878088]]},"properties":{"OBJECTID":74,"Governorate":"Al Batinah South","Wilayat":"Barka","Latitude":23.64688027,"Longitude":57.878741939999998,"Shape_Length":80.93309315688829,"Street_ID":"ST_074"}},{"type":"Feature","id":75,"geometry":{"type":"LineString","coordinates":[[57.893143729460967,23.646077484408675],[57.893034856958423,23.645485699328162],[57.892985127725979,23.645152832158306],[57.892824914118634,23.644090523792393],[57.892781525996739,23.643822483860781],[57.892733563688502,23.643468627810577],[57.89266699818927,23.643071670833834],[57.892588185522918,23.642616548937749],[57.892528419036175,23.642251097721871],[57.892503633164878,23.642018005394409],[57.892526428390127,23.641956518742507],[57.892553894151234,23.641896971596285],[57.892585867095811,23.641839718111925],[57.892619728065263,23.641778704280028],[57.892657635926113,23.64172011889772],[57.892699417266527,23.641664229967436],[57.892744880955185,23.641611293156533],[57.892822642268833,23.641519220775997],[57.892869180019545,23.641447425318038],[57.89291226020076,23.64137350341322],[57.892928242278089,23.641315947416253],[57.892940924501794,23.641257575498482],[57.892950265802618,23.641198576687636]]},"properties":{"OBJECTID":75,"Governorate":"Al Batinah South","Wilayat":"Barka","Latitude":23.643598839999999,"Longitude":57.892802459999999,"Shape_Length":557.11071480866121,"Street_ID":"ST_075"}},{"type":"Feature","id":76,"geometry":{"type":"LineString","coordinates":[[57.890469114629639,23.643968767626383],[57.891892964354454,23.643802862217509],[57.892766222465255,23.643709580387188]]},"properties":{"OBJECTID":76,"Governorate":"Al Batinah South","Wilayat":"Barka","Latitude":23.643836589999999,"Longitude":57.891617330000003,"Shape_Length":236.05761042788797,"Street_ID":"ST_076"}},{"type":"Feature","id":77,"geometry":{"type":"LineString","coordinates":[[57.893123728013684,23.645968766388375],[57.893082714416202,23.645944785820834],[57.893038912619673,23.645926385130121],[57.892993077674852,23.6459138815054],[57.892945999679682,23.645907490482838],[57.892898490159702,23.645907322230212],[57.892703091891477,23.645922467622128],[57.892074130280726,23.646049030441436],[57.891422823834915,23.646160620479424],[57.891146877522175,23.646209657863036],[57.891092708659961,23.646213805142011],[57.891038426709862,23.646211583554859],[57.890984777912465,23.646203023642826],[57.890932499804101,23.646188243083216],[57.890905885661418,23.646173327459234],[57.890882016646366,23.646154325918499],[57.890861514121177,23.646131733112327],[57.890844911811051,23.64610613718046],[57.890832641910123,23.646078204440514],[57.890825023830523,23.646048662042286],[57.890794300546965,23.64566059895936],[57.890718348390216,23.645205758665121],[57.890663674122344,23.64492071431787],[57.890614939335421,23.644663023430944],[57.890574953650052,23.644422950586211],[57.890469114629639,23.643968767626383],[57.890388592904543,23.643660255671136],[57.890232567532657,23.643064118980242],[57.89016134138943,23.642746349008185],[57.89011872282753,23.642489452779561],[57.890086901069573,23.642300460075269],[57.890076808362267,23.642257709280905],[57.890061915391634,23.642216385043643],[57.890042415721389,23.642177024453961],[57.890018562788448,23.642140139080851],[57.889990666609016,23.642106208322936],[57.889927617297189,23.64204840664884],[57.889866755226606,23.641988306252717],[57.889839537570793,23.64195154160408],[57.889816409113173,23.641912076244267],[57.889797635303985,23.641870363125637],[57.889783431614255,23.641826880998561],[57.889744431581164,23.641688144388805]]},"properties":{"OBJECTID":77,"Governorate":"Al Batinah South","Wilayat":"Barka","Latitude":23.644571089999999,"Longitude":57.890909319999999,"Shape_Length":748.44475263477216,"Street_ID":"ST_077"}},{"type":"Feature","id":78,"geometry":{"type":"LineString","coordinates":[[57.891899611967503,23.646078931231774],[57.89186629603909,23.64580078419057],[57.891795308805506,23.645328280169267],[57.891772052077812,23.645177817792749],[57.891704188685473,23.644849343684811],[57.891660349959459,23.644556038202541],[57.89162645513813,23.644321522332326],[57.891611767482139,23.644212705761458]]},"properties":{"OBJECTID":78,"Governorate":"Al Batinah South","Wilayat":"Barka","Latitude":23.64514539,"Longitude":57.891759159999999,"Shape_Length":208.76356370606837,"Street_ID":"ST_078"}},{"type":"Feature","id":79,"geometry":{"type":"LineString","coordinates":[[57.891460209044958,23.643853287806003],[57.891429253710136,23.64366459847357],[57.891397827010501,23.643464780851552],[57.891358954746181,23.643206565623892],[57.891209680039225,23.642165860650891],[57.891251667931463,23.642097978986975],[57.891351710099869,23.641963180922687],[57.891406050831463,23.641921844127676],[57.89146419774292,23.641886058901402],[57.891795938402936,23.641815320750947],[57.89220220527644,23.641716880239439],[57.892456481647876,23.64165654318052],[57.892732094818044,23.641625492746716]]},"properties":{"OBJECTID":79,"Governorate":"Al Batinah South","Wilayat":"Barka","Latitude":23.642434099999999,"Longitude":57.891610900000003,"Shape_Length":362.31980727788925,"Street_ID":"ST_079"}},{"type":"Feature","id":80,"geometry":{"type":"LineString","coordinates":[[57.890012311839016,23.642131995895721],[57.890580219377313,23.642050091491395]]},"properties":{"OBJECTID":80,"Governorate":"Al Batinah South","Wilayat":"Barka","Latitude":23.64209104,"Longitude":57.89029627,"Shape_Length":58.632548836454234,"Street_ID":"ST_080"}},{"type":"Feature","id":81,"geometry":{"type":"LineString","coordinates":[[57.893117730009365,23.645936161263762],[57.893238729326868,23.645928840228482],[57.893324846161207,23.645938222747898],[57.893409980205448,23.645954233223804],[57.893472062046698,23.645953752423559],[57.893533940781779,23.645948711756251],[57.893595281945174,23.645939138467575],[57.893655753977022,23.64592508430286],[57.893863259905672,23.645883304040442],[57.894444590562479,23.645747378017152],[57.894821515728054,23.645677562985469],[57.89505396250707,23.645632254747408],[57.895122682007816,23.645615040075249],[57.895190840743027,23.645595724238884],[57.895247905474115,23.645573006915367],[57.895302125671073,23.645544151576807],[57.895352843547201,23.6455095082894],[57.895383964033833,23.645479576128224],[57.895411577560708,23.645446381066932],[57.895435344289929,23.645410331634999],[57.895450283326994,23.645355881663651],[57.895458248825719,23.645299984212564],[57.895459114043121,23.645243528693726],[57.895380508266832,23.645017145181285],[57.89536510509523,23.64496302286447],[57.895343245564106,23.644911170730744],[57.89531525301755,23.644862355771867],[57.895289096653663,23.644820976472946],[57.895267651557845,23.64477697068223],[57.895251178093154,23.644730872670209],[57.895239876262501,23.644683242108854],[57.895234641126116,23.644633884479791],[57.895223533544538,23.644585508826506],[57.895206713351087,23.644538811253849],[57.895190793286247,23.644490342125174],[57.895169122131897,23.644444156998045],[57.895142018719866,23.644400935360462],[57.895111371020576,23.644353984584669],[57.895085196172197,23.64430440097718],[57.895063718468684,23.64425260942313],[57.895035769090107,23.644184370152221],[57.895012555408385,23.644114378075251],[57.894990789744234,23.643995231641338],[57.894972435824059,23.643875512175651],[57.894965554728181,23.643829689369685],[57.894955501067457,23.643784456605754],[57.894942323602073,23.643740033262418],[57.894900784885934,23.643659955809664],[57.894862748492741,23.643578156688818],[57.894820607337749,23.643495965273722],[57.8947761158636,23.643415021994887],[57.894707298729607,23.643311461858577],[57.894643114571949,23.64320496822652],[57.894550932628022,23.643054852448934],[57.894483590683151,23.642964332481331],[57.894393656193493,23.64286831588073],[57.894288303568302,23.642785374284813],[57.89407562695564,23.64269999592257],[57.89386653104367,23.642655755244089],[57.893791133957542,23.642646378191408],[57.893716408502442,23.642632639338718],[57.893642606795154,23.642614585039638],[57.893569977835838,23.642592276207708],[57.893448432743639,23.642544197878049],[57.893329054632964,23.642490966290488],[57.893212061873612,23.642432678817737],[57.893118504763478,23.642376892604133],[57.893021627694118,23.642327094331893],[57.892921813417196,23.642283480749043],[57.892819456289004,23.642246224168506],[57.892771790508505,23.642232337952045],[57.892722638677128,23.642225341445048],[57.892672991396566,23.642225375654498],[57.892623849253738,23.642232439890947],[57.892576202655086,23.642246391782386],[57.89253101186597,23.642266950143629]]},"properties":{"OBJECTID":81,"Governorate":"Al Batinah South","Wilayat":"Barka","Latitude":23.64421802,"Longitude":57.894366789999999,"Shape_Length":763.22485863892894,"Street_ID":"ST_081"}},{"type":"Feature","id":82,"geometry":{"type":"LineString","coordinates":[[57.894193619770853,23.645806060115081],[57.894201393816473,23.645763474253197],[57.894204286204818,23.645720281365964],[57.894202259586152,23.645677039207893],[57.894195340130423,23.645634306169732],[57.894183617189334,23.645592634067913],[57.894143069396449,23.64546029328686],[57.894188914014997,23.64544841318645],[57.894233934273998,23.645433714815269],[57.894339366522146,23.645403882530101],[57.894444032538956,23.645371464184766],[57.894881717685976,23.645262014057291],[57.89520778133069,23.645184807262783],[57.895214359851245,23.645182026105985],[57.895221317836587,23.645180414210913],[57.895228449164193,23.645180019328155],[57.895235542576451,23.645180853155669],[57.895242387938957,23.645182890992249],[57.895248782465508,23.645186072469269],[57.895254536725396,23.645190303339024],[57.89525948025512,23.645195458266734],[57.895263466608128,23.64520138454343],[57.895273488360345,23.645251377985332],[57.895277128679353,23.645302235903383],[57.89526946333671,23.645311718375943],[57.895260432860134,23.645319911376404],[57.895250251438178,23.645326620579826],[57.895239160557971,23.645331686854579],[57.895227423277547,23.64533499003668],[57.895214232698699,23.645338904622278],[57.895201893153718,23.645344991573925],[57.895190759444709,23.645353075871942],[57.895181151702069,23.645362925066426],[57.895173346179682,23.645374255960963],[57.895167567311745,23.645386742755431],[57.895166649717041,23.645397240094727],[57.895163995375249,23.645407437671992],[57.895159678539486,23.645417050218033],[57.895153819969835,23.645425808829451],[57.89514658355516,23.645433468491003],[57.895138171728462,23.645439814929684],[57.895128819803958,23.645444670608882],[57.895118789394367,23.645447899694798],[57.894962480081894,23.645496162905172],[57.894804415346407,23.645538323052694],[57.894201694579515,23.645672022736829]]},"properties":{"OBJECTID":82,"Governorate":"Al Batinah South","Wilayat":"Barka","Latitude":23.64544145,"Longitude":57.89468342,"Shape_Length":290.99848829260117,"Street_ID":"ST_082"}},{"type":"Feature","id":83,"geometry":{"type":"LineString","coordinates":[[57.894143069396449,23.64546029328686],[57.89411381301165,23.645321421407111],[57.894199521494812,23.645279369344429],[57.894159408828379,23.645115966069483],[57.894104675769114,23.644944854313685],[57.894028307779003,23.644701573711988],[57.893931509949851,23.644425511042069],[57.893860889575336,23.644198215362891],[57.893776374651928,23.64393160504979],[57.893683578024842,23.643621753145318]]},"properties":{"OBJECTID":83,"Governorate":"Al Batinah South","Wilayat":"Barka","Latitude":23.64455706,"Longitude":57.893966820000003,"Shape_Length":216.54542982465944,"Street_ID":"ST_083"}},{"type":"Feature","id":84,"geometry":{"type":"LineString","coordinates":[[57.89991690075901,23.64238614964113],[57.90011926096539,23.642430429347012],[57.900147497918653,23.642435328675234],[57.900176153727223,23.64243574530704],[57.900204521179397,23.64243166896016],[57.900231900179982,23.642423200236887],[57.90029710658105,23.642188111229828],[57.900319987795122,23.642125388780059],[57.90034869781217,23.64206511116744],[57.900382979315879,23.642007818635935],[57.900422525054921,23.641954024675442],[57.900611585637058,23.641900167601914],[57.900654406210684,23.641887857110234],[57.900695466487484,23.641870559613277],[57.900734187967302,23.641848518816285],[57.900770025101416,23.641822045253065],[57.900802472978789,23.641791511910874],[57.900823966154746,23.641741201222505],[57.90084017277281,23.641688947346982],[57.900850921061362,23.641635304115628],[57.900856097100842,23.641580840085371],[57.900893463190137,23.641354705162236],[57.900940162725547,23.640990530452807],[57.900944895230637,23.640969059306045],[57.900946059522177,23.64094710364224],[57.900943624369198,23.640925252400223],[57.900937655092257,23.640904091717797],[57.900928311811263,23.64088418920921],[57.900915845150429,23.640866078739435],[57.900669915262249,23.640840667901109]]},"properties":{"OBJECTID":84,"Governorate":"Al Batinah South","Wilayat":"Barka","Latitude":23.64169459,"Longitude":57.900610350000001,"Shape_Length":262.10263185084005,"Street_ID":"ST_084"}},{"type":"Feature","id":85,"geometry":{"type":"LineString","coordinates":[[57.900895631745279,23.641337791988036],[57.900813195901755,23.641319998330676],[57.900762517008118,23.641308478336555],[57.900710966402322,23.641301875642601],[57.900659020066982,23.641300251213519],[57.900607157638596,23.641303620048166],[57.900555857978922,23.64131195104105],[57.900505594753504,23.641325167269549]]},"properties":{"OBJECTID":85,"Governorate":"Al Batinah South","Wilayat":"Barka","Latitude":23.6413127,"Longitude":57.900700749999999,"Shape_Length":40.534420089392952,"Street_ID":"ST_085"}},{"type":"Feature","id":86,"geometry":{"type":"LineString","coordinates":[[57.900231900179982,23.642423200236887],[57.900232549277646,23.642456325608574],[57.900238671811799,23.642488886722695],[57.900250098911741,23.642519985484157],[57.900266515397142,23.642548764132215],[57.900287468471312,23.642574428899117],[57.900312380210131,23.642596271903631],[57.900353268824041,23.642620416015713],[57.900396545023774,23.64263996051449],[57.900441693348732,23.642654672606437],[57.900488176039524,23.64266437705658],[57.900535439443196,23.64266895827571],[57.900758837097598,23.642710695300821],[57.901187370085829,23.642776602605185],[57.901234056478621,23.642783973463622],[57.901281293689578,23.642785584279416],[57.901328373747106,23.642781410910342],[57.901340618646394,23.642774742930385],[57.901351563393035,23.642766105104489],[57.901360894355648,23.642755744957189],[57.901368344147244,23.64274395936766],[57.901373699287461,23.642731086062394],[57.90137680632003,23.642717493937322],[57.901383671954008,23.642642777693315],[57.901394111444908,23.642568476474761],[57.90142730460451,23.642406380525145],[57.901462948580694,23.642190591673327],[57.901518441888555,23.641922739291196],[57.901558187377326,23.641688311731023],[57.901588772248601,23.641488568598987],[57.901621152293338,23.641345092162915],[57.901652966803702,23.641187765811043],[57.901671705934277,23.641042203714775],[57.901692430148927,23.640912214693145]]},"properties":{"OBJECTID":86,"Governorate":"Al Batinah South","Wilayat":"Barka","Latitude":23.642166190000001,"Longitude":57.901222269999998,"Shape_Length":339.72047662477519,"Street_ID":"ST_086"}},{"type":"Feature","id":87,"geometry":{"type":"LineString","coordinates":[[57.900091375749142,23.642424327549616],[57.900023102233305,23.642704442267025],[57.899958877682067,23.643063145697848],[57.899926745487178,23.643245910236448],[57.899896327147061,23.643415366184929],[57.899866248513774,23.643590638533201],[57.899841887008449,23.643722380755804],[57.899811802559299,23.643896821281928],[57.899790835879067,23.644041287868074],[57.899794340937767,23.644056099099675],[57.89979999312537,23.644070231006594],[57.89980766869963,23.644083374201713],[57.899817199620657,23.644095240943571],[57.899828377229831,23.644105571435873],[57.899840956817897,23.644114139515125],[57.899862775381052,23.644124303846866],[57.899885837295592,23.644131196700837],[57.899909655002837,23.644134672353204],[57.899933724965699,23.64413465732418],[57.900219305787104,23.644072601249022],[57.900226891100736,23.644071419852001],[57.900234196169649,23.644069060053294],[57.900241039129376,23.64406558060163],[57.900247249619973,23.644061068120237],[57.900252673027211,23.644055634950288],[57.900257174331827,23.6440494163541],[57.900260641470886,23.644042567147686],[57.900262988127714,23.644035257846522],[57.900264155880741,23.644027670420432],[57.900264115657997,23.644019993763354],[57.900300894250229,23.643600411731846],[57.900311817464171,23.64347994978948],[57.900313383171969,23.643472148692883],[57.900316064314765,23.643464657363076],[57.900319804136643,23.643457634380706],[57.90032452347095,23.643451228412186],[57.900330122416193,23.643445575062636],[57.900336482450776,23.643440794005308],[57.900368297465505,23.643434102093639],[57.900400787851027,23.643432939470639],[57.900710538137872,23.643475192096787],[57.90095102928781,23.64350454878414],[57.901190716315249,23.64354803843656]]},"properties":{"OBJECTID":87,"Governorate":"Al Batinah South","Wilayat":"Barka","Latitude":23.643497350000001,"Longitude":57.90019144,"Shape_Length":392.9825508210817,"Street_ID":"ST_087"}},{"type":"Feature","id":88,"geometry":{"type":"LineString","coordinates":[[57.900228869819884,23.64407060476065],[57.900612838186234,23.644014586323685],[57.901160509488285,23.643897770023372]]},"properties":{"OBJECTID":88,"Governorate":"Al Batinah South","Wilayat":"Barka","Latitude":23.643991509999999,"Longitude":57.900696240000002,"Shape_Length":96.992683889327026,"Street_ID":"ST_088"}},{"type":"Feature","id":89,"geometry":{"type":"LineString","coordinates":[[57.89703708301753,23.637758992889722],[57.898131806284844,23.637535532860589]]},"properties":{"OBJECTID":89,"Governorate":"Al Batinah South","Wilayat":"Barka","Latitude":23.637647260000001,"Longitude":57.897584449999997,"Shape_Length":114.37469143181998,"Street_ID":"ST_089"}},{"type":"Feature","id":90,"geometry":{"type":"LineString","coordinates":[[57.898115970735617,23.638559830976924],[57.898141877272082,23.638293449674112],[57.898135617564385,23.637791966811854],[57.89812892150222,23.637341465505571],[57.898127624793148,23.636815148479688],[57.89810878273061,23.636239259965574],[57.898078662320046,23.63590385745535]]},"properties":{"OBJECTID":90,"Governorate":"Al Batinah South","Wilayat":"Barka","Latitude":23.63723177,"Longitude":57.898124439999997,"Shape_Length":294.35238012560319,"Street_ID":"ST_090"}},{"type":"Feature","id":91,"geometry":{"type":"LineString","coordinates":[[57.901382793811109,23.637820442835469],[57.9013880531365,23.637784257689908],[57.901387041503007,23.637747706330693],[57.901379788766519,23.637711867481993],[57.901366508973865,23.637677798839963],[57.901347594045717,23.637646505857429],[57.901323602210006,23.637618912070408],[57.901295241527222,23.637595831842187],[57.901263348993709,23.637577946329369],[57.901155723912922,23.637563358364755],[57.901047543351815,23.63755371819224],[57.900939034651678,23.637549046070628],[57.900827883759099,23.63754696372931],[57.900716927385304,23.637540068790642],[57.90060637380757,23.637528374197178],[57.900496430547101,23.63751190190095],[57.900387303979457,23.637490682822268],[57.900302055487387,23.637474377441208],[57.900215758015534,23.63746510828781],[57.900128991321971,23.637462937633497],[57.8993395424055,23.637456743072672],[57.898407255583656,23.637451371947392],[57.898331246132607,23.637452581737453]]},"properties":{"OBJECTID":91,"Governorate":"Al Batinah South","Wilayat":"Barka","Latitude":23.637502649999998,"Longitude":57.899947990000001,"Shape_Length":331.74197486313858,"Street_ID":"ST_091"}},{"type":"Feature","id":92,"geometry":{"type":"LineString","coordinates":[[57.89766027008055,23.635898144345045],[57.897768405197738,23.635894679151431],[57.89787659276324,23.635893865636824],[57.897954358889784,23.635893244236836],[57.898031970448443,23.635898184129278],[57.898109030243504,23.635908660033074],[57.898208147548857,23.635926194226517],[57.898306154959663,23.635949134051895],[57.898402757895937,23.635977410559178],[57.898497665999116,23.636010938757927],[57.898652319231765,23.636062515398187],[57.898805824993332,23.636117413060738],[57.898941589383512,23.636156975622878],[57.899023705942412,23.636174503383501],[57.899107003601472,23.636185079376759],[57.899190894910305,23.63618862901626],[57.899346062842696,23.636194942125258],[57.89950130287157,23.636199122558367],[57.899820230285272,23.636214078417087],[57.900091405604307,23.636232206381994],[57.900534823195692,23.636264110198585],[57.901018376484281,23.636301691004899],[57.901339898657191,23.636333315182323],[57.902038068723797,23.636405107602926]]},"properties":{"OBJECTID":92,"Governorate":"Al Batinah South","Wilayat":"Barka","Latitude":23.636184020000002,"Longitude":57.899838330000001,"Shape_Length":452.57568302627527,"Street_ID":"ST_092"}},{"type":"Feature","id":93,"geometry":{"type":"LineString","coordinates":[[57.900023244201094,23.637462108008116],[57.899992328623924,23.637549625473124],[57.899972921903164,23.63767203973709],[57.899974331758379,23.637878258999297],[57.899976915763602,23.638142215413346],[57.899974769005198,23.638155840065856],[57.899970485303555,23.638168950734336],[57.899964173433567,23.638181214503124],[57.899955993670837,23.638192319961661],[57.899946153721856,23.63820198511204],[57.899934903449804,23.638209964529711],[57.899922528529785,23.638216055595478],[57.899887496253157,23.63822175099147],[57.899852004372057,23.638221595051505],[57.899817023494492,23.638215592040122],[57.899624563289017,23.638194471863269],[57.89956718460931,23.638195531530425],[57.899510201393674,23.638202339534239],[57.899454188066393,23.638214827246038],[57.899407566747932,23.638232380254625]]},"properties":{"OBJECTID":93,"Governorate":"Al Batinah South","Wilayat":"Barka","Latitude":23.637984500000002,"Longitude":57.899857599999997,"Shape_Length":139.73582996737812,"Street_ID":"ST_093"}},{"type":"Feature","id":94,"geometry":{"type":"LineString","coordinates":[[57.89835933671349,23.637849377927314],[57.898721851279994,23.637850239293787],[57.8992339992853,23.637846149878882],[57.899307618779119,23.637848524732764],[57.899316735960774,23.637849736967357],[57.899325579861902,23.637852262423117],[57.89933396237803,23.637856047385114],[57.899341705218063,23.637861011349472],[57.899348643696442,23.637867048735647],[57.899354630235877,23.63787403113205],[57.899378377617417,23.637901925903499],[57.899405680496358,23.637926351488563],[57.899436036846019,23.637946858766277],[57.899446890122064,23.637955878683979],[57.899456187327253,23.637966495392135],[57.899463696391685,23.63797844388441],[57.899469229879699,23.637991425911473],[57.899482263646668,23.638031992074584],[57.899489725652543,23.638073942177552],[57.899483116978296,23.638164189830974],[57.899481402738687,23.638208012866318]]},"properties":{"OBJECTID":94,"Governorate":"Al Batinah South","Wilayat":"Barka","Latitude":23.637901289999999,"Longitude":57.899033780000003,"Shape_Length":144.50269556377796,"Street_ID":"ST_094"}},{"type":"Feature","id":95,"geometry":{"type":"LineString","coordinates":[[57.89842060479566,23.637451449067683],[57.898398508575589,23.637474336571028],[57.898380118910204,23.637500296173449],[57.898365856917238,23.637528733407976],[57.898356049191982,23.637558997070609],[57.898353000458854,23.637696509068846],[57.898358243615661,23.637807576247933],[57.898367066549028,23.638145104344126],[57.898367952575661,23.638159995022821],[57.89837111309658,23.638174573378787],[57.898376473247083,23.638188494087885],[57.898383906058854,23.638201427403949],[57.898393235467495,23.638213066969644],[57.898404240483075,23.638223137073286],[57.898416660424779,23.638231399179752]]},"properties":{"OBJECTID":95,"Governorate":"Al Batinah South","Wilayat":"Barka","Latitude":23.637841170000002,"Longitude":57.898366090000003,"Shape_Length":90.028826022335423,"Street_ID":"ST_095"}},{"type":"Feature","id":96,"geometry":{"type":"LineString","coordinates":[[57.902165730002856,23.636129989846026],[57.902093378060847,23.636122922541364],[57.902022033270107,23.636108970081278],[57.902012024247192,23.636095214227542],[57.902004283385473,23.636080065527548],[57.901999000180297,23.636063894819625],[57.901996303963884,23.636047097960731],[57.901996260739281,23.636030086135921],[57.901998871564622,23.636013275792596],[57.902005413658422,23.635902839322604],[57.90130823774647,23.635889519177418],[57.900737706081678,23.635893954315382],[57.90057407482891,23.635893223631356],[57.90056028358304,23.635893998262613],[57.90055513800651,23.63576778131484],[57.900441453710819,23.635766289016193],[57.900437120966323,23.635645088203347],[57.900040862979651,23.635651692711367],[57.900036709477412,23.634787870031793],[57.900030367058534,23.634483048560895],[57.900028795219285,23.634430940592633],[57.899231461393192,23.634446772757034],[57.898763277802516,23.634466567475823]]},"properties":{"OBJECTID":96,"Governorate":"Al Batinah South","Wilayat":"Barka","Latitude":23.63530647,"Longitude":57.90042176,"Shape_Length":529.52377140993735,"Street_ID":"ST_096"}},{"type":"Feature","id":97,"geometry":{"type":"LineString","coordinates":[[57.900028795219285,23.634430940592633],[57.900150737337945,23.634484276589774],[57.900436300069842,23.634557660233828],[57.900587779125544,23.634557367891361],[57.900920937122919,23.634552680265639],[57.901226100626694,23.634546603793268],[57.901501726074265,23.634547513004854],[57.90163797052346,23.634546362533168],[57.901637361062342,23.634400392569976]]},"properties":{"OBJECTID":97,"Governorate":"Al Batinah South","Wilayat":"Barka","Latitude":23.634532279999998,"Longitude":57.900895820000002,"Shape_Length":182.76348761786991,"Street_ID":"ST_097"}},{"type":"Feature","id":98,"geometry":{"type":"LineString","coordinates":[[57.901550243507586,23.634547103666755],[57.901541704908674,23.634637472815733],[57.901540393126275,23.634642483204317],[57.901538365876867,23.634647249232707],[57.901535666358789,23.634651669342318],[57.901532352095678,23.634655649345692],[57.901528493710678,23.634659104433531],[57.901524173421528,23.634661960981884],[57.901518916341573,23.634663787189293],[57.901513442068655,23.634664789316599],[57.901507878972566,23.634664943864269],[57.901502357505962,23.634664247208217],[57.901497007145309,23.634662715684779],[57.901491953354707,23.634660385207653],[57.901456242765711,23.634638263054203],[57.901446181082889,23.634637974556746],[57.901436205274756,23.634639317666629],[57.901426578175979,23.634642256996663],[57.901417553433681,23.634646715103717],[57.901321866363268,23.634691195341439],[57.901261405102133,23.634719352905634],[57.901203814497912,23.634752994172324],[57.901184122310077,23.634776655153736],[57.90116683880516,23.634802128762839],[57.901169796904242,23.634812267653196],[57.901171099697628,23.634822748596722],[57.901170713817194,23.634833303147595],[57.901168649146399,23.634843660974699],[57.901164958567158,23.634853556785565],[57.901160507519926,23.634858619788943],[57.901156942763393,23.634864341531294],[57.901154359950702,23.634870568481052],[57.901152828386479,23.634877133550411],[57.901152389167216,23.634883860578814],[57.901153054078478,23.634890569059841],[57.901154805278701,23.634897078984761],[57.901157595777903,23.634903215672701],[57.901161350698601,23.634908814457855],[57.901166283484564,23.634920060862331],[57.90116956206699,23.634931895763611],[57.901171119429904,23.634944077250044],[57.90117092373999,23.634956356325599],[57.901163492372397,23.634966246773384],[57.901157810693022,23.634977236072778],[57.901154037179715,23.634989017701656],[57.901152277086247,23.635001263037612],[57.90115257950653,23.635013630524167],[57.90115493600522,23.635025775197715],[57.901159280853008,23.635037358309532],[57.901165492860009,23.635048056774409],[57.901175158221982,23.63505925608823],[57.901186527755769,23.635068720630137],[57.901199294231937,23.635076194647691],[57.901213112672622,23.63508147617674],[57.901227609673612,23.63508442249892],[57.901238306185981,23.635085380789622],[57.90124868272558,23.635088148663183],[57.901258435467128,23.63509264507622],[57.901267278850199,23.635098738373678],[57.901274953940366,23.6351062501437],[57.90128123601086,23.63511496044153],[57.901287773383622,23.635130057540152],[57.901292473971374,23.635145823456053],[57.90129527141255,23.635162035610513],[57.901296185233974,23.63518098000289],[57.901299786033967,23.63519960147736],[57.901306000498977,23.635217520894116],[57.901314702100287,23.635234373407481],[57.901350822600072,23.635261948925841],[57.901388984456489,23.63528662224002],[57.901428955014936,23.635308242928613],[57.90147484146582,23.635296036344226],[57.901518772717154,23.635278019345755],[57.901531367268667,23.635270174205946],[57.901542600865724,23.635260480123033],[57.901552204578927,23.635249169170855],[57.901559948497869,23.635236512130685],[57.901564476834288,23.635224336715332],[57.901570967168752,23.635213084065498],[57.901579238693884,23.635203067656878],[57.901589060982005,23.635194566526021],[57.901593552839422,23.635189459986535],[57.90159715729358,23.635183692713454],[57.901599778956211,23.635177417331899],[57.90160134844762,23.635170799913574],[57.901601824232792,23.635164015581839],[57.901601193720552,23.635157243877263],[57.901599473596768,23.635150664006233],[57.901597513351881,23.63508273164296],[57.901596114717826,23.635076845955599],[57.90159573445105,23.635070808332713],[57.901596383567124,23.635064793672186],[57.901598043262446,23.635058976206725],[57.901600665458957,23.635053524456698],[57.901604174196862,23.635048596348415],[57.901608467835025,23.635044334639339],[57.901613421995322,23.635040862782674],[57.901637521736674,23.635017022487936],[57.901658420998082,23.634990332076566],[57.901663099215483,23.634979040957017],[57.901665768090709,23.634967114004194],[57.901666348263475,23.63495490587173],[57.901664822482076,23.634942779574281],[57.901657374182818,23.634929620662206],[57.901651892512625,23.634915528628255],[57.90164849107682,23.634900795523919],[57.901647240368725,23.634885726686601],[57.901634309761214,23.634835402478771],[57.901624371985967,23.634784402801053],[57.901625858592524,23.634768928432987],[57.901624849385577,23.634753415613531],[57.901621370384191,23.634738264289645],[57.901615511282962,23.634723865088315],[57.901607423139524,23.634710589245522],[57.901524173421528,23.634661960981884]]},"properties":{"OBJECTID":98,"Governorate":"Al Batinah South","Wilayat":"Barka","Latitude":23.634939750000001,"Longitude":57.901423479999998,"Shape_Length":217.16091303622082,"Street_ID":"ST_098"}},{"type":"Feature","id":99,"geometry":{"type":"LineString","coordinates":[[57.901625770827948,23.634772361400621],[57.901692914835721,23.634782181748076],[57.901759212141897,23.634796653244088],[57.901824340959578,23.634815705648425],[57.902067263402969,23.634873112769235],[57.90239559102865,23.634952259321402]]},"properties":{"OBJECTID":99,"Governorate":"Al Batinah South","Wilayat":"Barka","Latitude":23.634859819999999,"Longitude":57.902011199999997,"Shape_Length":81.061208868918783,"Street_ID":"ST_099"}},{"type":"Feature","id":100,"geometry":{"type":"LineString","coordinates":[[57.900436300069842,23.634557660233828],[57.900659909148487,23.634747265893097],[57.900683141692681,23.63476450304972],[57.900693254166818,23.634555883879688]]},"properties":{"OBJECTID":100,"Governorate":"Al Batinah South","Wilayat":"Barka","Latitude":23.634661090000002,"Longitude":57.900611339999998,"Shape_Length":57.164085537223883,"Street_ID":"ST_100"}},{"type":"Feature","id":101,"geometry":{"type":"LineString","coordinates":[[57.900683141692681,23.63476450304972],[57.900691402047158,23.635616264878919]]},"properties":{"OBJECTID":101,"Governorate":"Al Batinah South","Wilayat":"Barka","Latitude":23.635190380000001,"Longitude":57.900687269999999,"Shape_Length":94.311026596067819,"Street_ID":"ST_101"}},{"type":"Feature","id":102,"geometry":{"type":"LineString","coordinates":[[57.900686736984312,23.635135275460385],[57.901099954723861,23.63514161385682]]},"properties":{"OBJECTID":102,"Governorate":"Al Batinah South","Wilayat":"Barka","Latitude":23.635138439999999,"Longitude":57.900893349999997,"Shape_Length":42.156703567116317,"Street_ID":"ST_102"}},{"type":"Feature","id":103,"geometry":{"type":"LineString","coordinates":[[57.898803055596389,23.634464885552447],[57.898800929479101,23.63417512649816],[57.898793135092326,23.633590253060135],[57.898784521741675,23.633294396152081]]},"properties":{"OBJECTID":103,"Governorate":"Al Batinah South","Wilayat":"Barka","Latitude":23.6338796,"Longitude":57.898796189999999,"Shape_Length":129.61416807990864,"Street_ID":"ST_103"}},{"type":"Feature","id":104,"geometry":{"type":"LineString","coordinates":[[57.901182647750723,23.635065924368455],[57.901152503804063,23.635088235802534],[57.901124839751922,23.635113556897096],[57.901099954723861,23.63514161385682],[57.901100499602784,23.635160345556415],[57.901104177793762,23.635178720658427],[57.901110885134898,23.63519621880226],[57.901120431682422,23.635212344461721],[57.901132547089709,23.635226640977699],[57.90115577433675,23.63524227307585],[57.901181009222718,23.635254400236583],[57.901207726515722,23.635262770048541],[57.901266601732097,23.635255315728767],[57.901324506075376,23.63524231784373]]},"properties":{"OBJECTID":104,"Governorate":"Al Batinah South","Wilayat":"Barka","Latitude":23.635194250000001,"Longitude":57.901174269999999,"Shape_Length":43.060732001821336,"Street_ID":"ST_104"}},{"type":"Feature","id":105,"geometry":{"type":"LineString","coordinates":[[57.901207726515722,23.635262770048541],[57.901185912066055,23.635471773322802],[57.901186197356367,23.635485906784524],[57.901188925545732,23.635499777368995],[57.901194014218142,23.635512966058997],[57.901201309649608,23.635525074436693],[57.901228876878228,23.635544144851437],[57.901258826309707,23.635559200228109],[57.901290577006506,23.635569948533341],[57.901310801723163,23.635572107954115],[57.901331104052247,23.635570876006334],[57.901350919270946,23.635566286957442],[57.901369696205727,23.635558468454896],[57.901386912563623,23.635547637975559],[57.901393732372298,23.635536413725845],[57.901398864362996,23.635524324216203],[57.901402201506556,23.635511621576917],[57.901403674205852,23.635498570725268],[57.901403251747311,23.635485443840611],[57.90140677029104,23.635415345806177],[57.901412900491422,23.635345427745388],[57.901428955014936,23.635308242928613]]},"properties":{"OBJECTID":105,"Governorate":"Al Batinah South","Wilayat":"Barka","Latitude":23.635450500000001,"Longitude":57.901295900000001,"Shape_Length":77.587739707330314,"Street_ID":"ST_105"}}]}