{"type":"FeatureCollection","features":[{"type":"Feature","id":51,"geometry":{"type":"Polygon","coordinates":[[[57.88011190634231,23.643648044974217],[57.881096544069365,23.648419250911772],[57.87823713740875,23.64899261433239],[57.87715366668655,23.645757046262332],[57.87718278674763,23.645747958835027],[57.87718953358637,23.64576420893986],[57.878649724779315,23.645290159648933],[57.87831864556644,23.644284247113717],[57.88008954977783,23.643924376960282],[57.87999814263714,23.643682497310838],[57.88011190634231,23.643648044974217]]]},"properties":{"OBJECTID":51,"Shape_Length":1716.0068165234588,"Shape_Area":145832.7236007493,"Governorate":"Al Batinah South","Wilayat":"Barka","Latitude":23.6466093,"Longitude":57.87923944,"Farm_ID_":"B22"}},{"type":"Feature","id":52,"geometry":{"type":"Polygon","coordinates":[[[57.88489265297761,23.647737729123374],[57.88402134045063,23.64582245258088],[57.886246391343875,23.64518726339886],[57.88665000983142,23.647325314651233],[57.88489265297761,23.647737729123374]]]},"properties":{"OBJECTID":52,"Shape_Length":892.7737755475164,"Shape_Area":49344.290662481915,"Governorate":"Al Batinah South","Wilayat":"Barka","Latitude":23.64647408,"Longitude":57.88544689,"Farm_ID_":"B12"}},{"type":"Feature","id":53,"geometry":{"type":"Polygon","coordinates":[[[57.88179338858585,23.64319744019866],[57.881527973706966,23.643445930417414],[57.881321120179656,23.6435351471845],[57.880754474675285,23.643687019437646],[57.88053471919454,23.6430357061908],[57.880645513033855,23.642872834715696],[57.88162633042895,23.642563491834046],[57.88179338858585,23.64319744019866]]]},"properties":{"OBJECTID":53,"Shape_Length":396.86093241185864,"Shape_Area":10322.102861712174,"Governorate":"Al Batinah South","Wilayat":"Barka","Latitude":23.64312785,"Longitude":57.88116882,"Farm_ID_":"B16"}},{"type":"Feature","id":54,"geometry":{"type":"Polygon","coordinates":[[[57.88190231152052,23.643425527547517],[57.88172785124939,23.642554928557203],[57.88097644424142,23.640818808258008],[57.8807513314001,23.64075680162331],[57.88055457218563,23.64032042968263],[57.88058250070124,23.64025493736859],[57.880738428969494,23.640084669764835],[57.88093835117048,23.63997319507685],[57.8812659834894,23.639870671350874],[57.88179588039798,23.639768046550934],[57.8820704301429,23.639735562480794],[57.882202918459704,23.639727474918683],[57.88223341614511,23.639751285850608],[57.8824739924086,23.641455250150777],[57.882519794637325,23.641611389010613],[57.882759413426506,23.643235298331327],[57.88190231152052,23.643425527547517]]]},"properties":{"OBJECTID":54,"Shape_Length":1053.4580648174506,"Shape_Area":48829.375472861764,"Governorate":"Al Batinah South","Wilayat":"Barka","Latitude":23.64136892,"Longitude":57.8818323,"Farm_ID_":"B15"}},{"type":"Feature","id":55,"geometry":{"type":"Polygon","coordinates":[[[57.88670519293459,23.646103730424493],[57.8866380118711,23.645487681218114],[57.886533366477664,23.644870165270607],[57.88960911356215,23.64433856977233],[57.889809523964296,23.645486455907722],[57.88670519293459,23.646103730424493]]]},"properties":{"OBJECTID":55,"Shape_Length":909.6023935389658,"Shape_Area":42629.92395509674,"Governorate":"Al Batinah South","Wilayat":"Barka","Latitude":23.64520333,"Longitude":57.88815225,"Farm_ID_":"B01"}},{"type":"Feature","id":56,"geometry":{"type":"Polygon","coordinates":[[[57.88394649474399,23.645674971756236],[57.8835369494824,23.644951519402756],[57.883299289019924,23.644434410263685],[57.88303892279563,23.64357506854161],[57.88586204188256,23.64315763729461],[57.886248017195335,23.645122526523526],[57.88394649474399,23.645674971756236]]]},"properties":{"OBJECTID":56,"Shape_Length":1006.6138220155455,"Shape_Area":63895.26309045882,"Governorate":"Al Batinah South","Wilayat":"Barka","Latitude":23.64436364,"Longitude":57.88471012,"Farm_ID_":"B02"}},{"type":"Feature","id":57,"geometry":{"type":"Polygon","coordinates":[[[57.88303892279563,23.64357506854161],[57.882749120625185,23.641727931196893],[57.88547438352579,23.64131159050137],[57.88581285098494,23.64316525857907],[57.88303892279563,23.64357506854161]]]},"properties":{"OBJECTID":57,"Shape_Length":983.0923317839741,"Shape_Area":58925.05070938399,"Governorate":"Al Batinah South","Wilayat":"Barka","Latitude":23.64244732,"Longitude":57.88427093,"Farm_ID_":"B13"}},{"type":"Feature","id":58,"geometry":{"type":"Polygon","coordinates":[[[57.88540835891305,23.641215599952375],[57.88270217956543,23.64164133517464],[57.88268781873803,23.641428357122585],[57.88240872591212,23.639855816304546],[57.88230446727809,23.6390560289357],[57.88219829567689,23.63843840743803],[57.882122038306164,23.63805047505555],[57.88135459293267,23.63512470453564],[57.88097596453154,23.633947164235614],[57.88383356429207,23.633245815190325],[57.88540835891305,23.641215599952375]]]},"properties":{"OBJECTID":58,"Shape_Length":2349.973038294787,"Shape_Area":245249.46241609225,"Governorate":"Al Batinah South","Wilayat":"Barka","Latitude":23.63745197,"Longitude":57.88328811,"Farm_ID_":"B14"}},{"type":"Feature","id":59,"geometry":{"type":"Polygon","coordinates":[[[57.88097596453154,23.633947164235614],[57.88094015493754,23.633820928819425],[57.88083202701522,23.63198386012216],[57.883423496070606,23.63134770494757],[57.88383356429207,23.633245815190325],[57.88097596453154,23.633947164235614]]]},"properties":{"OBJECTID":59,"Shape_Length":1007.6621331084,"Shape_Area":61797.757682719835,"Governorate":"Al Batinah South","Wilayat":"Barka","Latitude":23.63264973,"Longitude":57.88226209,"Farm_ID_":"B07"}},{"type":"Feature","id":60,"geometry":{"type":"Polygon","coordinates":[[[57.883155525631345,23.630165823646536],[57.883423496070606,23.63134770494757],[57.88083202701522,23.63198386012216],[57.880786708866495,23.631204245725566],[57.88249191373854,23.630425100573568],[57.883155525631345,23.630165823646536]]]},"properties":{"OBJECTID":60,"Shape_Length":761.3930781792144,"Shape_Area":29377.02197140903,"Governorate":"Al Batinah South","Wilayat":"Barka","Latitude":23.63114022,"Longitude":57.88214568,"Farm_ID_":"B08"}},{"type":"Feature","id":61,"geometry":{"type":"Polygon","coordinates":[[[57.88389951720762,23.632275348336787],[57.8832508411698,23.629730469355934],[57.883508265447134,23.629661793799787],[57.883566476348406,23.629612256007032],[57.88533149063847,23.62922746369857],[57.886161503163315,23.631842045853535],[57.88389951720762,23.632275348336787]]]},"properties":{"OBJECTID":61,"Shape_Length":1047.1682517455465,"Shape_Area":67617.24373886961,"Governorate":"Al Batinah South","Wilayat":"Barka","Latitude":23.63077397,"Longitude":57.8846687,"Farm_ID_":"B06"}},{"type":"Feature","id":62,"geometry":{"type":"Polygon","coordinates":[[[57.88437945589998,23.634234736109324],[57.88435410508217,23.63410672856952],[57.884308398535076,23.634110974962184],[57.88392338865272,23.6323342552993],[57.88617943474535,23.63191217068287],[57.88659277814835,23.633819516973745],[57.88437945589998,23.634234736109324]]]},"properties":{"OBJECTID":62,"Shape_Length":900.2821955821828,"Shape_Area":50518.75497229066,"Governorate":"Al Batinah South","Wilayat":"Barka","Latitude":23.63307574,"Longitude":57.88525923,"Farm_ID_":"B04"}},{"type":"Feature","id":63,"geometry":{"type":"Polygon","coordinates":[[[57.88721698569352,23.634073506519776],[57.88733463166333,23.634917866156364],[57.88724570328104,23.635438831605974],[57.887521196572685,23.636843436282838],[57.887530294046734,23.63697397210351],[57.885031117495814,23.63740934993444],[57.884383593569,23.63444075820174],[57.884482920783825,23.634395716572026],[57.88566069175913,23.634117411867564],[57.88690130635842,23.63386807488605],[57.88721698569352,23.634073506519776]]]},"properties":{"OBJECTID":63,"Shape_Length":1224.1353816349572,"Shape_Area":94053.59745234578,"Governorate":"Al Batinah South","Wilayat":"Barka","Latitude":23.63561911,"Longitude":57.88601433,"Farm_ID_":"B05"}},{"type":"Feature","id":64,"geometry":{"type":"Polygon","coordinates":[[[57.88831817621491,23.639014894932146],[57.88844386460859,23.63923271610393],[57.88856782780427,23.63968128492888],[57.88869062939067,23.640203653245095],[57.88874640897029,23.640636669309863],[57.88860108984601,23.640694123438426],[57.88586390454352,23.64114535706431],[57.88548660181634,23.63937928918063],[57.88821785411399,23.638948687136715],[57.88831817621491,23.639014894932146]]]},"properties":{"OBJECTID":64,"Shape_Length":980.3067157194275,"Shape_Area":59401.9539218364,"Governorate":"Al Batinah South","Wilayat":"Barka","Latitude":23.64003286,"Longitude":57.88712129,"Farm_ID_":"B03"}},{"type":"Feature","id":65,"geometry":{"type":"Polygon","coordinates":[[[57.89303944067983,23.645747650170804],[57.890914160485394,23.64605830544014],[57.89053619405789,23.643974162860488],[57.89273444759391,23.643751695082894],[57.89275092822824,23.64376930464243],[57.89303944067983,23.645747650170804]]]},"properties":{"OBJECTID":65,"Shape_Length":902.5951872702451,"Shape_Area":50988.11512337054,"Governorate":"Al Batinah South","Wilayat":"Barka","Latitude":23.64487811,"Longitude":57.89180009,"Farm_ID_":"B17"}},{"type":"Feature","id":66,"geometry":{"type":"Polygon","coordinates":[[[57.8927347141506,23.64368071501441],[57.89048684710795,23.643941188767133],[57.89006112855391,23.641924316557677],[57.892388522971444,23.64149354159773],[57.8927347141506,23.64368071501441]]]},"properties":{"OBJECTID":66,"Shape_Length":945.4446479107728,"Shape_Area":55812.916590539775,"Governorate":"Al Batinah South","Wilayat":"Barka","Latitude":23.64274958,"Longitude":57.89143025,"Farm_ID_":"B18"}},{"type":"Feature","id":67,"geometry":{"type":"Polygon","coordinates":[[[57.893018390552854,23.642853857921676],[57.89310330206345,23.643233856346846],[57.89419882670531,23.64304035656806],[57.89437016297327,23.643305634106845],[57.89444142241683,23.643275796989872],[57.89458259059713,23.643368922210332],[57.89468839466336,23.64362546506074],[57.894829556851114,23.643970533690005],[57.89500594413129,23.644413313335974],[57.895381039630806,23.64534840786308],[57.89521636525494,23.645460114781972],[57.89417842669915,23.645703140126972],[57.89313363377867,23.64584980727678],[57.8929710787977,23.644814974350098],[57.89266716930918,23.64292330368932],[57.893018390552854,23.642853857921676]]]},"properties":{"OBJECTID":67,"Shape_Length":1052.4476208730864,"Shape_Area":60170.54252616798,"Governorate":"Al Batinah South","Wilayat":"Barka","Latitude":23.64444215,"Longitude":57.89390954,"Farm_ID_":"B19"}},{"type":"Feature","id":68,"geometry":{"type":"Polygon","coordinates":[[[57.88766489249278,23.634835025615004],[57.8874203980692,23.632722495867444],[57.89080871395608,23.63204113074201],[57.89122749742078,23.634049942978606],[57.88983455549444,23.63441795170086],[57.88766489249278,23.634835025615004]]]},"properties":{"OBJECTID":68,"Shape_Length":1189.381904244948,"Shape_Area":84861.40929333998,"Governorate":"Al Batinah South","Wilayat":"Barka","Latitude":23.63343783,"Longitude":57.88927713,"Farm_ID_":"B11"}},{"type":"Feature","id":69,"geometry":{"type":"Polygon","coordinates":[[[57.8868844869591,23.629651089041186],[57.88681297817447,23.62961382903852],[57.88655840483428,23.628758578747473],[57.88659878069228,23.628683009526863],[57.88909422638359,23.62760495097185],[57.88916768886733,23.62763414854156],[57.88965829571835,23.628908854408223],[57.88961998751146,23.62897519990754],[57.8868844869591,23.629651089041186]]]},"properties":{"OBJECTID":69,"Shape_Length":852.1932810174518,"Shape_Area":40132.78963802678,"Governorate":"Al Batinah South","Wilayat":"Barka","Latitude":23.62870242,"Longitude":57.88813815,"Farm_ID_":"B09"}},{"type":"Feature","id":70,"geometry":{"type":"Polygon","coordinates":[[[57.890711150747094,23.63166651363186],[57.88740566984021,23.63248340611805],[57.886868766388304,23.629815533892693],[57.889738768735185,23.629096573277582],[57.890711150747094,23.63166651363186]]]},"properties":{"OBJECTID":70,"Shape_Length":1254.2647177233669,"Shape_Area":97878.1646151923,"Governorate":"Al Batinah South","Wilayat":"Barka","Latitude":23.63079586,"Longitude":57.88869085,"Farm_ID_":"B10"}},{"type":"Feature","id":71,"geometry":{"type":"Polygon","coordinates":[[[57.89909892215376,23.636065971746238],[57.89820614847889,23.63485009604161],[57.898195305999685,23.63445020296786],[57.90264424772312,23.634385752018108],[57.90202944087399,23.636042727327233],[57.89909892215376,23.636065971746238]]]},"properties":{"OBJECTID":71,"Shape_Length":1153.5252757584706,"Shape_Area":70204.42866166214,"Governorate":"Al Batinah South","Wilayat":"Barka","Latitude":23.63517833,"Longitude":57.9004363,"Farm_ID_":"B21"}},{"type":"Feature","id":72,"geometry":{"type":"Polygon","coordinates":[[[57.90019079592157,23.63837706121812],[57.89821426540857,23.638388314859455],[57.89819939507307,23.636558789835423],[57.90017639504011,23.636557554380897],[57.90019079592157,23.63837706121812]]]},"properties":{"OBJECTID":72,"Shape_Length":807.3147249822616,"Shape_Area":40734.30745632643,"Governorate":"Al Batinah South","Wilayat":"Barka","Latitude":23.6374704,"Longitude":57.89919431,"Farm_ID_":"B20"}},{"type":"Feature","id":73,"geometry":{"type":"Polygon","coordinates":[[[57.89974033084966,23.644216399624977],[57.90018134888525,23.641715716088083],[57.90019878360923,23.641616853259357],[57.900285671772096,23.641405068154132],[57.900592527703026,23.640713392055066],[57.90188931205819,23.64079137488797],[57.90131799142821,23.64389058566976],[57.89974033084966,23.644216399624977]]]},"properties":{"OBJECTID":73,"Shape_Length":1044.9259600534792,"Shape_Area":56053.98827571878,"Governorate":"Al Batinah South","Wilayat":"Barka","Latitude":23.64242541,"Longitude":57.90082053,"Farm_ID_":"B23"}}]}