{"type":"FeatureCollection","features":[{"type":"Feature","id":1,"geometry":{"type":"LineString","coordinates":[[57.88684834782786,23.647484046056743],[57.886830627242425,23.647433418495527],[57.88677822807793,23.647185915466196],[57.886751818880484,23.64698442071268],[57.886710814764825,23.646661848336773],[57.886597264584644,23.64589008681945],[57.88648620880201,23.645292777712445],[57.88641000935946,23.644876273414667],[57.88633154578173,23.644464007141437],[57.88626565644686,23.64410237800379],[57.886176331010766,23.643552836278506],[57.88612294384471,23.643300116201623],[57.88608379476733,23.643113118045488],[57.886040458774815,23.642908834930772],[57.88599781929454,23.642714932773853],[57.88596659206271,23.64254173621672],[57.88592775037711,23.642353870070412],[57.88586899934663,23.642139000958267],[57.885805471030125,23.641912043616873],[57.8857227242895,23.641621153913867],[57.885648914616034,23.641262420035922],[57.88558693872985,23.640940255810676],[57.88553108760258,23.640644307994513],[57.8854777405896,23.64034805682035],[57.88541918049726,23.640021545749203],[57.88536660212387,23.63974634906224],[57.88528202915108,23.63932334608625],[57.88521743462588,23.639030621807994],[57.88516127061421,23.63873438651035],[57.885112359975224,23.638466184772604],[57.885063965135735,23.638242878916117],[57.8850072589625,23.63800558928606],[57.884956329506934,23.637792820993106],[57.88490351699706,23.63756824868883],[57.88485982077687,23.637358208279622],[57.884817401409435,23.63706988041766],[57.88478034265319,23.63686349527583],[57.88472909520325,23.636603280078862],[57.88468298623767,23.636421871165687],[57.884651829570785,23.636228745568456],[57.88461165874291,23.636036225029066],[57.884569585016024,23.63582894532847],[57.88452792596427,23.635606028886592],[57.88449686789926,23.635464137474166],[57.88446573462538,23.635320087837],[57.884434273878405,23.635180837844445],[57.88442220528084,23.635133779592902],[57.88426703797724,23.634544819017886],[57.884224242194655,23.634387220980404],[57.8841621839647,23.634238129757286],[57.88411087774109,23.634088808322122],[57.884068784606214,23.633927177052463],[57.88403509446227,23.63376851997712],[57.88398649952486,23.633561419889997],[57.88395521392976,23.633407955117267],[57.88392906792746,23.63325983326977],[57.8838931402298,23.633093464740213],[57.88386824521246,23.632968845095263],[57.88383665483487,23.632824113235795],[57.883808226513054,23.632688934543232],[57.88377998847612,23.632554929818774],[57.883748222734226,23.632411205994362],[57.88371380409372,23.632252553853654],[57.88368091618157,23.63210447033773],[57.88365832333927,23.63196976234037],[57.88363242457826,23.63183121109067],[57.883599602376634,23.63169303435548],[57.883571335700964,23.631581867104817],[57.883547433920626,23.63144212849122],[57.883522552968664,23.631319355710446],[57.883483456737515,23.631142425900507],[57.883450254455994,23.631001901155475],[57.88341424471629,23.630823106697957],[57.88336292490054,23.63061719777046],[57.883316135677596,23.630434435486883],[57.88328316115753,23.63030062557404],[57.883245129296526,23.630146358992373],[57.88320620051328,23.629994280534014],[57.883177041919346,23.62988580436194],[57.8831363101963,23.62976379279243],[57.883117931606755,23.629686655848147]]},"properties":{"OBJECTID":1,"Governorate":"Al Batinah South","Wilayat":"Barka","Latitude":23.63856715,"Longitude":57.88508487,"Shape_Length":2008.4544160814437,"Street_ID":"ST_001"}},{"type":"Feature","id":2,"geometry":{"type":"LineString","coordinates":[[57.8880943808596,23.645238501306284],[57.88745874744584,23.64530411789565],[57.886509315502806,23.645417058217593]]},"properties":{"OBJECTID":2,"Governorate":"Al Batinah South","Wilayat":"Barka","Latitude":23.64532483,"Longitude":57.88730146,"Shape_Length":162.88362053191582,"Street_ID":"ST_002"}},{"type":"Feature","id":3,"geometry":{"type":"LineString","coordinates":[[57.88645177194437,23.645104546112368],[57.88628003970333,23.645139237786935],[57.885933192381714,23.645220551256404],[57.88546429000966,23.645341775996076],[57.88503731563502,23.64544067325345],[57.884721010084895,23.645552911297937],[57.88413796414007,23.64572661958569],[57.88392501449658,23.645783275520532]]},"properties":{"OBJECTID":3,"Governorate":"Al Batinah South","Wilayat":"Barka","Latitude":23.64542619,"Longitude":57.88518285,"Shape_Length":268.7023256147501,"Street_ID":"ST_003"}},{"type":"Feature","id":4,"geometry":{"type":"LineString","coordinates":[[57.88490620898979,23.647917823198814],[57.88478829803767,23.647628215075983],[57.8845892089759,23.647199789857577],[57.88440998286507,23.646814522283233],[57.88421241949838,23.646394201191594],[57.884015278898104,23.645973423980216],[57.88393211141655,23.64579517984215],[57.883879492087765,23.645689135590434],[57.883770028744,23.645474670404585],[57.88367486444775,23.64530037190249],[57.88354864646749,23.645092943988654],[57.88340878643511,23.644875025369515],[57.88330754656646,23.644709076955763],[57.88324990479829,23.644601030676],[57.88320359637818,23.644479625660377],[57.88315560386868,23.64431632006284],[57.883112294344194,23.64416388123573],[57.88306844491507,23.644020677044775],[57.88299943562882,23.643823923739376],[57.88294611348791,23.643670756984143],[57.88288407544239,23.643478695766838],[57.882863899539856,23.643365150478115],[57.882846463122796,23.643193317100327],[57.882817292177855,23.64290586990151],[57.88278711322794,23.64265506572297],[57.882748037785866,23.64247816301507],[57.88269029517961,23.642226073293468],[57.882645965282535,23.64205958541755],[57.88260510888304,23.641850671725173],[57.88257587145008,23.641646595347723],[57.882580616190076,23.641476354435106],[57.88256935903851,23.641351611945417],[57.88254933870788,23.641205316642314],[57.882523699602025,23.641027852344727],[57.88250479494429,23.64089835286504],[57.882488010091635,23.640816105652938],[57.88245641432997,23.640646982840245],[57.8824361081519,23.640517675570333],[57.882418409096154,23.640448357403034],[57.882383630813884,23.640312670086043],[57.88234222849252,23.64014545006857],[57.882314706377485,23.639986089272888],[57.882291707326395,23.63981377978101],[57.88226210901963,23.639613628813937],[57.88223546083496,23.63946497223431],[57.882206120853795,23.639273496796715],[57.88218952287799,23.639129398371644],[57.88214446920893,23.63883591479407],[57.882129348652946,23.638732609917668],[57.88211480706697,23.638626164035006],[57.88208937452968,23.63847934572234],[57.8820486422266,23.638322276409934],[57.881996340091256,23.638083482871764],[57.881975773665864,23.63797503993237],[57.88194707577794,23.63784928827542],[57.88190396098511,23.63766564591084],[57.881865570865656,23.637499146460737],[57.88182336953064,23.637332115003716],[57.88177341062994,23.637143710996185],[57.881731740336555,23.636996062729484],[57.88169104977814,23.636845085107513],[57.88163842529203,23.63667755916633],[57.88158756420621,23.636504115357273],[57.881542280025045,23.636325469920497],[57.881518867196526,23.636226377613703],[57.8814649146903,23.636043166064606],[57.881379579345726,23.63573786413891],[57.88131275531408,23.63548467087164],[57.88124651065975,23.635224551252804],[57.881194035048885,23.635056666584866],[57.881129090083995,23.634850196729964],[57.8811049213185,23.634747923944282],[57.88106064549715,23.63454191377895],[57.88101598950002,23.6343728303198],[57.880966437206425,23.63417377309855],[57.8809058075867,23.633910159407872],[57.88088307341866,23.633757184583217],[57.880855097241295,23.633577220326814],[57.88083547902103,23.633378275745745],[57.88082560484582,23.633226868985364],[57.88081549580677,23.633040202671268],[57.880805510151504,23.63287212167735],[57.88080640882696,23.632752786841152],[57.88078920470092,23.632532485930884],[57.88078472030029,23.632390568262636],[57.880772388080544,23.632220470183054],[57.88076553377386,23.63210940388637],[57.88076066362776,23.63200463336055],[57.88075434931338,23.63190335738066],[57.88075081274987,23.631848025812545],[57.88074589779118,23.631771287221337],[57.88073995177596,23.631678902043884],[57.88073627402352,23.631614038009413],[57.88072827566725,23.63151497719575],[57.88072133942635,23.631447783341578],[57.88071710956158,23.631415720306386],[57.88070801179798,23.631348538722172],[57.88069905226141,23.631300703779278],[57.88069928141324,23.63124467523321],[57.88069204354304,23.631136774097723],[57.88068010710876,23.631047798172194],[57.88066223026765,23.63077432154715]]},"properties":{"OBJECTID":4,"Governorate":"Al Batinah South","Wilayat":"Barka","Latitude":23.63946553,"Longitude":57.88229979,"Shape_Length":1963.319646925647,"Street_ID":"ST_004"}},{"type":"Feature","id":5,"geometry":{"type":"LineString","coordinates":[[57.8868168517284,23.647368352452418],[57.88678419147743,23.647398455167167],[57.88674887381354,23.647425390794975],[57.886711204717805,23.647448925974068],[57.88667151054338,23.647468856803076],[57.88662070264565,23.647493154363595],[57.88656746918228,23.647511539474326],[57.886512495589955,23.647523775407684],[57.8859444259041,23.647660228506727],[57.88564660780685,23.647731052483806],[57.88544592687528,23.647770362328394],[57.88525310809029,23.64780880782722],[57.88518841041867,23.647812408472443],[57.88512369523442,23.64780913764888],[57.885059690296906,23.64779903213883],[57.88502313868845,23.647794604519785],[57.884986320906116,23.6477943310334],[57.88494970755703,23.647798215175403],[57.88491376663522,23.647806207298448],[57.884866469969474,23.64782021936724]]},"properties":{"OBJECTID":5,"Governorate":"Al Batinah South","Wilayat":"Barka","Latitude":23.64766065,"Longitude":57.88586231,"Shape_Length":208.34397294510578,"Street_ID":"ST_005"}},{"type":"Feature","id":6,"geometry":{"type":"LineString","coordinates":[[57.88571828430244,23.647714007068668],[57.88565521722844,23.64743712758318],[57.88559761886275,23.64708675714261],[57.88554169098754,23.64690238915095],[57.885492016587634,23.646690058581328],[57.88546204370934,23.646522960461148],[57.88542445894985,23.646391435744054],[57.8853616395276,23.646239030495583]]},"properties":{"OBJECTID":6,"Governorate":"Al Batinah South","Wilayat":"Barka","Latitude":23.64697243,"Longitude":57.88555652,"Shape_Length":167.66377195761214,"Street_ID":"ST_006"}},{"type":"Feature","id":7,"geometry":{"type":"LineString","coordinates":[[57.88575350004611,23.6464186303218],[57.88544546632558,23.64646494978458]]},"properties":{"OBJECTID":7,"Governorate":"Al Batinah South","Wilayat":"Barka","Latitude":23.64644179,"Longitude":57.88559948,"Shape_Length":31.834420506212464,"Street_ID":"ST_007"}},{"type":"Feature","id":8,"geometry":{"type":"LineString","coordinates":[[57.88323135527641,23.64455240071979],[57.88403298826602,23.644348475321173],[57.88470609780246,23.644171740123003],[57.88555201042198,23.64395570800356],[57.886213020485734,23.64377855856047]]},"properties":{"OBJECTID":8,"Governorate":"Al Batinah South","Wilayat":"Barka","Latitude":23.64416823,"Longitude":57.88472304,"Shape_Length":315.9703672834607,"Street_ID":"ST_008"}},{"type":"Feature","id":9,"geometry":{"type":"LineString","coordinates":[[57.88511176458157,23.644068140603274],[57.88503550285438,23.643778934182002],[57.88502024419827,23.64369321313964],[57.88500085863843,23.64360833013922],[57.8849770742774,23.643478796599666]]},"properties":{"OBJECTID":9,"Governorate":"Al Batinah South","Wilayat":"Barka","Latitude":23.64377441,"Longitude":57.8850395,"Shape_Length":66.72126645956392,"Street_ID":"ST_009"}},{"type":"Feature","id":10,"geometry":{"type":"LineString","coordinates":[[57.88503550285438,23.643778934182002],[57.88468988583777,23.6438270127889],[57.88461505848834,23.643837089434847]]},"properties":{"OBJECTID":10,"Governorate":"Al Batinah South","Wilayat":"Barka","Latitude":23.64380815,"Longitude":57.8848253,"Shape_Length":43.36580313578613,"Street_ID":"ST_010"}},{"type":"Feature","id":11,"geometry":{"type":"LineString","coordinates":[[57.884667457516564,23.64383003278278],[57.88459842033881,23.64346566780294],[57.88459572067598,23.643453621006802],[57.883741763620364,23.643570427842633],[57.883209668458825,23.64365210527752],[57.883092478338604,23.643671107611883]]},"properties":{"OBJECTID":11,"Governorate":"Al Batinah South","Wilayat":"Barka","Latitude":23.64357666,"Longitude":57.88401236,"Shape_Length":197.53122321654868,"Street_ID":"ST_011"}},{"type":"Feature","id":12,"geometry":{"type":"LineString","coordinates":[[57.883119468277776,23.64366673145735],[57.88315932686092,23.643864358844123],[57.883227890663434,23.644091548741386],[57.88328260553743,23.6442530448593],[57.88333473246934,23.644428451381962]]},"properties":{"OBJECTID":12,"Governorate":"Al Batinah South","Wilayat":"Barka","Latitude":23.64404924,"Longitude":57.88321957,"Shape_Length":87.23146357693263,"Street_ID":"ST_012"}},{"type":"Feature","id":13,"geometry":{"type":"LineString","coordinates":[[57.883733915564946,23.645072171405296],[57.88375152256464,23.645139295719687],[57.88377428745191,23.645204850581656],[57.88380207282007,23.64526844030831],[57.8838347109593,23.64532968107813],[57.8838720048689,23.645388203247666],[57.88401750048318,23.645504649422826],[57.88402205679199,23.64551207051199],[57.8840253450129,23.64552013401729],[57.8840272775231,23.645528625066618],[57.88402780282608,23.64553731739491],[57.88402690692382,23.645545979373527],[57.88397232893348,23.64577068708769]]},"properties":{"OBJECTID":13,"Governorate":"Al Batinah South","Wilayat":"Barka","Latitude":23.64542046,"Longitude":57.88389948,"Shape_Length":87.87525769752708,"Street_ID":"ST_013"}},{"type":"Feature","id":14,"geometry":{"type":"LineString","coordinates":[[57.88402651640967,23.645524480997658],[57.884059926288515,23.645491024870477],[57.88406780214545,23.64547576985465],[57.88407330735655,23.64545950832701],[57.884076318030786,23.6454426062422],[57.88407676641497,23.645425443970144],[57.884074642418526,23.645408407736127],[57.88407112410605,23.645399737559245],[57.88406901714978,23.645390621023438],[57.88406837428136,23.645381286292054],[57.88406921159015,23.6453719669893],[57.88407150812047,23.645362896353248],[57.88408246820409,23.645335558906744],[57.88408988464558,23.64530705529627],[57.88408928379794,23.645300837897494],[57.88408775101077,23.64529478251733],[57.8840853214348,23.645289028021168],[57.88408205078645,23.645283706374354],[57.88407801407006,23.645278939615892],[57.88407330385789,23.64527483705977],[57.88406020891104,23.645269474499038],[57.88404640681132,23.645266354125024],[57.88403227856486,23.64526556207547],[57.88401821418103,23.645267120214843],[57.88400460190631,23.645270985530807],[57.883843796502155,23.64534726677181]]},"properties":{"OBJECTID":14,"Governorate":"Al Batinah South","Wilayat":"Barka","Latitude":23.6453543,"Longitude":57.88401822,"Shape_Length":55.91785899366455,"Street_ID":"ST_014"}},{"type":"Feature","id":15,"geometry":{"type":"LineString","coordinates":[[57.88407004777365,23.64539390781674],[57.884051693993634,23.645367057129466],[57.88402908994266,23.64534367171677],[57.88400287823444,23.645324416405817],[57.8839738040453,23.645309838608537],[57.88394269392943,23.645300352759165]]},"properties":{"OBJECTID":15,"Governorate":"Al Batinah South","Wilayat":"Barka","Latitude":23.64533894,"Longitude":57.88401346,"Shape_Length":17.13940921562872,"Street_ID":"ST_015"}},{"type":"Feature","id":16,"geometry":{"type":"LineString","coordinates":[[57.883483776710456,23.642530985631815],[57.883219767003844,23.64257970868565],[57.88299202946672,23.642614284813845],[57.88277764414371,23.642612196072555]]},"properties":{"OBJECTID":16,"Governorate":"Al Batinah South","Wilayat":"Barka","Latitude":23.64258618,"Longitude":57.88313222,"Shape_Length":72.87527758727298,"Street_ID":"ST_016"}},{"type":"Feature","id":17,"geometry":{"type":"LineString","coordinates":[[57.88580153973899,23.641898223675096],[57.8854297022705,23.642022533489076],[57.88534844603383,23.64205630866227],[57.88526491016833,23.642083969058092],[57.885179554108845,23.642105362548484],[57.88509284730102,23.642120371472423],[57.88480979483301,23.64216590379933]]},"properties":{"OBJECTID":17,"Governorate":"Al Batinah South","Wilayat":"Barka","Latitude":23.64205159,"Longitude":57.88531144,"Shape_Length":105.83463813983572,"Street_ID":"ST_017"}},{"type":"Feature","id":18,"geometry":{"type":"LineString","coordinates":[[57.88564220031826,23.64122751910326],[57.88517592005959,23.64131673918348],[57.88463039064798,23.64140452408903],[57.88422281818213,23.64147781904791],[57.88382095149044,23.641548972364582],[57.88356485040364,23.641575727577074],[57.88332900615973,23.641609042518844],[57.882998336689454,23.641662573218714],[57.88278106809325,23.641679268403433],[57.88275465370427,23.64167936934808],[57.88272855464521,23.641683439882655],[57.88270336406058,23.6416913874975],[57.8826796544483,23.641703031569847],[57.88265796464872,23.641718107468805],[57.88263878759858,23.641736272569503],[57.88262255912823,23.64175711403983],[57.88259697203868,23.64179387529652]]},"properties":{"OBJECTID":18,"Governorate":"Al Batinah South","Wilayat":"Barka","Latitude":23.64148983,"Longitude":57.88409893,"Shape_Length":320.39743918106967,"Street_ID":"ST_018"}},{"type":"Feature","id":19,"geometry":{"type":"LineString","coordinates":[[57.88527043569567,23.639270806434116],[57.884833439386846,23.63932941862295],[57.88438877439595,23.639386763683255],[57.88406492248266,23.639432527182098],[57.88372962828252,23.6394780038671],[57.883420273079295,23.639524387014305],[57.882987088781334,23.639587985973865],[57.88275313584052,23.639618479348858],[57.88255574720647,23.639642087862843],[57.88227294007109,23.639686868930113]]},"properties":{"OBJECTID":19,"Governorate":"Al Batinah South","Wilayat":"Barka","Latitude":23.63947552,"Longitude":57.88377111,"Shape_Length":309.2220367955239,"Street_ID":"ST_019"}},{"type":"Feature","id":20,"geometry":{"type":"LineString","coordinates":[[57.882569115825085,23.63964048899395],[57.88251237373563,23.639372858380906],[57.88250564808919,23.63933670912677]]},"properties":{"OBJECTID":20,"Governorate":"Al Batinah South","Wilayat":"Barka","Latitude":23.63948867,"Longitude":57.88253698,"Shape_Length":34.25278400645875,"Street_ID":"ST_020"}},{"type":"Feature","id":21,"geometry":{"type":"LineString","coordinates":[[57.88418580210422,23.64148437325619],[57.88413481530528,23.64126470739557],[57.88409177542817,23.64104571785861],[57.884032199493866,23.640749528733114],[57.883990758559534,23.640541420786295],[57.8839040445473,23.640179334529627],[57.88385879990098,23.639972654481006],[57.8838119403405,23.6397526325466],[57.883773437543674,23.639584560957584],[57.88374643540978,23.639475724163262],[57.88372410382195,23.639336797814085],[57.883672950791826,23.639102043829954],[57.8836024984797,23.6387760530632],[57.883547885446426,23.638537102595958],[57.88348706897283,23.63822616373149],[57.88343056144478,23.637988980707426],[57.88337603340011,23.637705762120987],[57.88334255874198,23.63754785069113],[57.883283306928476,23.637299440201208],[57.88321919161652,23.63700819520623],[57.88315814859549,23.636720093866636],[57.88309946935825,23.636443222037478],[57.88304904609039,23.636203194295057],[57.88300059238451,23.635972640699123],[57.88294875486633,23.635749133221665],[57.88290916801056,23.635589499707937],[57.88284189772379,23.635282461927144],[57.882771443036546,23.63501233245271],[57.88273187523572,23.634798592663582],[57.882666842279995,23.634540729304778],[57.88259134370954,23.63421885526669],[57.88253752271371,23.6339814884359],[57.88248588225759,23.633778062207146],[57.882477048484986,23.633734489782633],[57.882455779810634,23.63365636127489]]},"properties":{"OBJECTID":21,"Governorate":"Al Batinah South","Wilayat":"Barka","Latitude":23.6375673,"Longitude":57.88333667,"Shape_Length":884.6505197512578,"Street_ID":"ST_021"}},{"type":"Feature","id":22,"geometry":{"type":"LineString","coordinates":[[57.88445239232729,23.63526103425392],[57.88403715367796,23.635356670190156],[57.88371610280237,23.635435915496505],[57.88353493393962,23.63548161163519],[57.88329593188065,23.63553988880268],[57.88301969639012,23.63561201496868],[57.88291623413596,23.635633750519833],[57.8827628919308,23.635670789176288],[57.882511477047764,23.635733483791153],[57.882237553959186,23.635798678732673],[57.88208675355193,23.635830761776454],[57.88190773508039,23.6358774319082],[57.88171139815582,23.635932697575438],[57.88144998097476,23.635989738232716]]},"properties":{"OBJECTID":22,"Governorate":"Al Batinah South","Wilayat":"Barka","Latitude":23.63562469,"Longitude":57.88295088,"Shape_Length":316.7637342890686,"Street_ID":"ST_022"}},{"type":"Feature","id":23,"geometry":{"type":"LineString","coordinates":[[57.88372335082947,23.632296560197922],[57.88345150117078,23.632360457351343],[57.883193261138274,23.63243603799968],[57.88313600550152,23.63245676492129],[57.88307741340776,23.632473341403678],[57.883017785295074,23.632485682448916],[57.88295742691387,23.632493724776797],[57.88291442431507,23.63249455077543],[57.88287168328203,23.63248974350258],[57.882829938585886,23.6324793856012],[57.882789907869494,23.632463655136412],[57.88277758110031,23.63245382137501],[57.88276673816097,23.632442372236678],[57.88275758885257,23.632429529251905],[57.882680797725925,23.632174679843203],[57.88264461309686,23.632033752815186]]},"properties":{"OBJECTID":23,"Governorate":"Al Batinah South","Wilayat":"Barka","Latitude":23.63235843,"Longitude":57.8830711,"Shape_Length":149.26061692415882,"Street_ID":"ST_023"}},{"type":"Feature","id":24,"geometry":{"type":"LineString","coordinates":[[57.882876983615695,23.632490643905697],[57.88253479448039,23.632563952808653]]},"properties":{"OBJECTID":24,"Governorate":"Al Batinah South","Wilayat":"Barka","Latitude":23.6325273,"Longitude":57.88270589,"Shape_Length":35.83730990468322,"Street_ID":"ST_024"}},{"type":"Feature","id":25,"geometry":{"type":"LineString","coordinates":[[57.882543893619996,23.632562003420613],[57.882492392753115,23.632349618426023],[57.88241410260272,23.632068485282772]]},"properties":{"OBJECTID":25,"Governorate":"Al Batinah South","Wilayat":"Barka","Latitude":23.63231479,"Longitude":57.88248106,"Shape_Length":56.23007262752579,"Street_ID":"ST_025"}},{"type":"Feature","id":26,"geometry":{"type":"LineString","coordinates":[[57.882231718024165,23.632257382567037],[57.88245016831968,23.632197993905205]]},"properties":{"OBJECTID":26,"Governorate":"Al Batinah South","Wilayat":"Barka","Latitude":23.63222769,"Longitude":57.88234094,"Shape_Length":23.23363467119215,"Street_ID":"ST_026"}},{"type":"Feature","id":27,"geometry":{"type":"LineString","coordinates":[[57.87986048326233,23.63155791273726],[57.88003506966326,23.63144627780552],[57.880231859826914,23.6313284372624],[57.880552396210966,23.631122376827854],[57.8806782748984,23.631018190868584],[57.880822768341666,23.63094443176383],[57.88101146315853,23.63080426759523],[57.881262579451175,23.630637880997003],[57.881598907635315,23.63048076252377],[57.88208307312713,23.630268523264938],[57.8826471467882,23.630032639178513],[57.882967913011186,23.62989728491973],[57.88316024200244,23.629835478926985]]},"properties":{"OBJECTID":27,"Governorate":"Al Batinah South","Wilayat":"Barka","Latitude":23.63062083,"Longitude":57.88146378,"Shape_Length":389.0020584274702,"Street_ID":"ST_027"}},{"type":"Feature","id":28,"geometry":{"type":"LineString","coordinates":[[57.88338116049381,23.630690365022836],[57.88318773772044,23.630731036365162],[57.88283221925434,23.63081388904077],[57.88262711068415,23.630871380531488]]},"properties":{"OBJECTID":28,"Governorate":"Al Batinah South","Wilayat":"Barka","Latitude":23.63077604,"Longitude":57.88300274,"Shape_Length":79.51656410743334,"Street_ID":"ST_028"}},{"type":"Feature","id":29,"geometry":{"type":"LineString","coordinates":[[57.88351534437282,23.63128673349179],[57.88317593365919,23.631351654357335],[57.88270078131892,23.63146768581227],[57.8823614477979,23.63154557982903],[57.88202377871282,23.631621610284622],[57.88177785619871,23.63168476728782],[57.881595836757064,23.631730885896353]]},"properties":{"OBJECTID":29,"Governorate":"Al Batinah South","Wilayat":"Barka","Latitude":23.63150133,"Longitude":57.88255364,"Shape_Length":201.93627284093722,"Street_ID":"ST_029"}},{"type":"Feature","id":30,"geometry":{"type":"LineString","coordinates":[[57.881074099553814,23.630762765725724],[57.8812862294978,23.63091455818338]]},"properties":{"OBJECTID":30,"Governorate":"Al Batinah South","Wilayat":"Barka","Latitude":23.63083866,"Longitude":57.88118016,"Shape_Length":27.399114936305725,"Street_ID":"ST_030"}},{"type":"Feature","id":31,"geometry":{"type":"LineString","coordinates":[[57.88347647262795,23.631112867856533],[57.88372054238762,23.631065347703753]]},"properties":{"OBJECTID":31,"Governorate":"Al Batinah South","Wilayat":"Barka","Latitude":23.63108911,"Longitude":57.88359851,"Shape_Length":25.44721043868067,"Street_ID":"ST_031"}},{"type":"Feature","id":32,"geometry":{"type":"LineString","coordinates":[[57.88363513258193,23.631081977097967],[57.883668040508475,23.63109980380533],[57.883698439739575,23.631121635201843],[57.88372584563419,23.63114712323954],[57.88374982127268,23.63117586157429],[57.88377634882742,23.631219389131637],[57.88381367444905,23.631362934080528]]},"properties":{"OBJECTID":32,"Governorate":"Al Batinah South","Wilayat":"Barka","Latitude":23.63120758,"Longitude":57.88374902,"Shape_Length":37.69237842360145,"Street_ID":"ST_032"}},{"type":"Feature","id":33,"geometry":{"type":"LineString","coordinates":[[57.88371720720042,23.632268239281647],[57.88375345319038,23.632221922788],[57.883794923031694,23.632180218571982],[57.88384103451755,23.63214371213085],[57.8838911402758,23.63211291598884],[57.88394453685755,23.63208826250167],[57.88401207717797,23.632064629804262],[57.88408144331969,23.63204706456438],[57.88415209138033,23.632035704511697],[57.88422346740594,23.63203063872079],[57.884295011734565,23.632031906912697],[57.884337166534216,23.63203613237345],[57.88437853564388,23.632045269025877],[57.88441854891327,23.632059190948357]]},"properties":{"OBJECTID":33,"Governorate":"Al Batinah South","Wilayat":"Barka","Latitude":23.63209313,"Longitude":57.88404238,"Shape_Length":80.71833569908866,"Street_ID":"ST_033"}},{"type":"Feature","id":34,"geometry":{"type":"LineString","coordinates":[[57.88428417610573,23.632031316571812],[57.88433204192492,23.631998956298755],[57.88438253344063,23.631970868387466],[57.88441904619425,23.631953721126685],[57.88445633467425,23.63193833350214],[57.88447076637642,23.63193244836404],[57.88448591921881,23.63192880141389],[57.88450144826519,23.63192747567012],[57.88451700001549,23.631928501311695],[57.88458507838372,23.631930355168134],[57.88465314727847,23.631928181099987],[57.88472096859197,23.631921986712225],[57.884812947714416,23.63191200420996],[57.88490401934595,23.631895701840616],[57.8850100311829,23.63186726728041],[57.88511723756682,23.631843733792913],[57.885349671133696,23.63180169754779],[57.88536740301909,23.6317975725978]]},"properties":{"OBJECTID":34,"Governorate":"Al Batinah South","Wilayat":"Barka","Latitude":23.63189888,"Longitude":57.88481642,"Shape_Length":115.12508524735209,"Street_ID":"ST_034"}},{"type":"Feature","id":35,"geometry":{"type":"LineString","coordinates":[[57.885406576824266,23.63194087263011],[57.88531235158715,23.6315961890681],[57.885311424370514,23.63158590368869],[57.885312144142866,23.631575601713728],[57.88531449259519,23.63156554519684],[57.8853184099894,23.631555989947863],[57.885323796677866,23.631547179025794],[57.8853305156382,23.631539336556003],[57.88533839595871,23.631532662029134],[57.885347237185954,23.631527325226607],[57.88538594461608,23.63150865268803],[57.88542634138564,23.631493988791764],[57.88546801360139,23.631483483779707],[57.88592691540512,23.63138056444122]]},"properties":{"OBJECTID":35,"Governorate":"Al Batinah South","Wilayat":"Barka","Latitude":23.63157153,"Longitude":57.88551047,"Shape_Length":109.7913677337588,"Street_ID":"ST_035"}},{"type":"Feature","id":36,"geometry":{"type":"LineString","coordinates":[[57.88392869605781,23.632094887406815],[57.88387681983565,23.631894502233408],[57.883819753587126,23.631643238722422],[57.883768318653054,23.631441067161685]]},"properties":{"OBJECTID":36,"Governorate":"Al Batinah South","Wilayat":"Barka","Latitude":23.63176804,"Longitude":57.88384822,"Shape_Length":74.2223847713424,"Street_ID":"ST_036"}},{"type":"Feature","id":37,"geometry":{"type":"LineString","coordinates":[[57.88344258176893,23.630963807287166],[57.883563612242604,23.630944509390506],[57.883576947526876,23.630941779199354],[57.88358975766754,23.630937176586354],[57.883601781202856,23.63093079549327],[57.8836051306184,23.63092403686336],[57.883607374140766,23.630916835178127],[57.88360845580586,23.63090937008178],[57.88360834863183,23.63090182778926],[57.883607055292096,23.63089439644112],[57.883604608048685,23.630887261410464],[57.883601067947474,23.630880600678807],[57.88358221737883,23.630854537560023],[57.88356740328645,23.63082598632947],[57.88355694759958,23.63079556744206],[57.88352112131066,23.630654208644142],[57.8834825893497,23.630531103533766],[57.883421985170266,23.63031265690164],[57.88340229314675,23.630231348381134],[57.883400597849956,23.630210799433772],[57.88340213136416,23.63019023778007],[57.88340685608357,23.630170167645655],[57.88341465614568,23.63015108120283],[57.883425340272545,23.630133446501183],[57.88343864646136,23.63011769598982],[57.88348992789746,23.63006928466446],[57.88354376760199,23.630023735478655],[57.88357591555453,23.63000374881018],[57.88361097407745,23.629989470934298],[57.883647938560756,23.629981310986814],[57.88368574977872,23.629979502792892],[57.88372125055862,23.62997422625413],[57.883756063506645,23.62996549665592],[57.8837898535937,23.629953398009217],[57.883927403751905,23.629919118314298],[57.88415535067877,23.62985551129628],[57.884292342446514,23.62981402061686],[57.88430953587641,23.6298108024551],[57.88432698736016,23.629809612366202],[57.88434445850405,23.629810466607218],[57.884352324265066,23.62981509797813],[57.88435943925955,23.629820816076275],[57.8843656545072,23.62982750117085],[57.88437083986745,23.6298350132832],[57.884386019538454,23.629902234917022],[57.884397610641216,23.62996133376749],[57.884546163984055,23.630456878428827]]},"properties":{"OBJECTID":37,"Governorate":"Al Batinah South","Wilayat":"Barka","Latitude":23.6302396,"Longitude":57.88387739,"Shape_Length":286.6489237045606,"Street_ID":"ST_037"}},{"type":"Feature","id":38,"geometry":{"type":"LineString","coordinates":[[57.88484740710506,23.630397385595327],[57.88480415786708,23.630395005285017],[57.88476090019092,23.630397226977227],[57.884718122377905,23.630404025593048],[57.884676307312574,23.630415324388338],[57.884546163984055,23.630456878428827],[57.88438600206869,23.630502639889862],[57.884051579535964,23.630600384418226],[57.88383474060406,23.630661413520045],[57.88354417104175,23.63074515501848]]},"properties":{"OBJECTID":38,"Governorate":"Al Batinah South","Wilayat":"Barka","Latitude":23.63055892,"Longitude":57.88419384,"Shape_Length":138.85430725118582,"Street_ID":"ST_038"}},{"type":"Feature","id":39,"geometry":{"type":"LineString","coordinates":[[57.88393759371097,23.633308134698307],[57.88418905936079,23.63325729839095]]},"properties":{"OBJECTID":39,"Governorate":"Al Batinah South","Wilayat":"Barka","Latitude":23.63328272,"Longitude":57.88406333,"Shape_Length":26.261643066156864,"Street_ID":"ST_039"}},{"type":"Feature","id":40,"geometry":{"type":"LineString","coordinates":[[57.88426195463469,23.63452610031366],[57.88426961270396,23.634484477866692],[57.8842841317991,23.63444443693488],[57.884305166027055,23.634406931409337],[57.88433221428658,23.634372854779627],[57.88436463220633,23.634343018848455],[57.88440164749588,23.634318134392412],[57.884442378344005,23.634298794229473],[57.88448585442583,23.63428545909661],[57.88466837284693,23.634238951797915],[57.88485218500613,23.634197854437858],[57.885037130587065,23.634162202860526],[57.88584399803277,23.634007456627078],[57.88664498749611,23.63386001961114],[57.88719437625242,23.633750415703748],[57.88723449070267,23.633747443964285],[57.88727392628069,23.633739517077114],[57.88731207331073,23.633726757592264],[57.887348342038024,23.63370936277192],[57.88738217174647,23.633687601540775],[57.88741303942729,23.63366181032841],[57.88742796677485,23.633639720989617],[57.88743932306726,23.63361560047519],[57.887446838633316,23.633590021560817],[57.88745033500528,23.63356359165396],[57.88744972915687,23.633536938370085],[57.88743142927771,23.63337202283795],[57.88741589903043,23.633206823474342],[57.88740206809432,23.633109463819054],[57.88735423887792,23.63285554777096],[57.88734245761071,23.632811883542626],[57.88733753838088,23.63276692618204],[57.887339598458766,23.63272174743513],[57.88734858873382,23.6326774243255],[57.88735662558388,23.63265328813471],[57.887368701111235,23.63263089777286],[57.88738445408693,23.632610923028267],[57.88740341327431,23.632593961428153],[57.88742501152569,23.632580520364122],[57.88744860274804,23.632571001913988],[57.88753214112601,23.632541079724245],[57.88773296972905,23.632507131832533],[57.88804615511378,23.632457632323533],[57.88816354388065,23.632439306279295],[57.88827997350404,23.632415639651274],[57.8883952011457,23.63238668180116],[57.88851181227264,23.63234203451947],[57.88869744579269,23.63227462856762],[57.8888822679825,23.632218780750463],[57.888969501888766,23.632198895542594],[57.889057567949514,23.63218309855432],[57.88914627467867,23.63217142413376],[57.88941180230254,23.63213345070281],[57.88961067085535,23.632109053020926],[57.889820935870304,23.632082801383262],[57.89017700853125,23.632039653068027],[57.89024919306133,23.63202844178144],[57.890320613831136,23.63201309991162],[57.89039103468021,23.631993678188113],[57.890460222754456,23.63197024083093],[57.890510635075835,23.631946589920076],[57.890558449653795,23.631918049880394],[57.890603193829484,23.6318849028372],[57.890644425295726,23.63184747645716],[57.890681736469325,23.63180614070925],[57.890712391399845,23.631767687935703],[57.89073808514734,23.63172575737526],[57.890758427702714,23.63168098549793],[57.890773110283405,23.631634051902466],[57.89081238214317,23.63144059905589]]},"properties":{"OBJECTID":40,"Governorate":"Al Batinah South","Wilayat":"Barka","Latitude":23.6330475,"Longitude":57.88759718,"Shape_Length":860.1728254412158,"Street_ID":"ST_040"}},{"type":"Feature","id":41,"geometry":{"type":"LineString","coordinates":[[57.88418905936079,23.63325729839095],[57.88411449407812,23.632932492529243],[57.8840898609493,23.632825585858075],[57.88407284656153,23.632713645589032],[57.88404272864189,23.632602227076607],[57.88402545428229,23.63252383216393],[57.88402227487667,23.63251494033339],[57.88402057856117,23.632505650780974],[57.884020410186324,23.632496209122205],[57.88402177420395,23.6324868649943],[57.884024634549476,23.632477865455762],[57.88402891559542,23.632469448454156],[57.88403450415105,23.632461836534794],[57.88404688264747,23.632448055081046],[57.884061461731086,23.632436626784507],[57.88407780040694,23.632427897333656],[57.8840954044551,23.63242213078102],[57.88423452481501,23.632391819500334],[57.88432327654393,23.632379013817474],[57.88450510758025,23.63234733974426],[57.884766421486205,23.632296204332818],[57.88504207184086,23.63224744700348],[57.885263409549324,23.632207272445118],[57.8855102002174,23.632162257456695],[57.885800583047725,23.632107187141447],[57.8858207466489,23.63210510711672],[57.88584096621739,23.632106544602667],[57.88586063275027,23.63211145630296],[57.885879153901804,23.632119694279737],[57.885895971824525,23.632131010409417],[57.88591057997133,23.63214506385605],[57.88592253835243,23.632161431337128],[57.885932396567306,23.632200476263154],[57.885939169094506,23.632240172906897],[57.88598082615439,23.632464230685613],[57.88601193806029,23.632632220335815],[57.88608636392029,23.632946134319845],[57.88614901873917,23.633237105621088],[57.88614718979667,23.63324973626817],[57.8861433253984,23.6332618995203],[57.88613752902483,23.633273269671125],[57.88612995589068,23.63328354225189],[57.886120808788576,23.633292442184437],[57.8861103326587,23.633299731147275],[57.88609880802982,23.633305213957282],[57.8860865435073,23.633308743796317],[57.8860263500032,23.633323722048157],[57.885967457183675,23.633343196179005],[57.88591020032995,23.63336705532119],[57.885880508837985,23.63338968085372],[57.885853988263555,23.63341595172255],[57.885831082865856,23.63344542785143],[57.88577894632931,23.633531682026685],[57.88576002288245,23.633565825924325],[57.88573636165961,23.633596875064747],[57.88571538486754,23.633606358904423],[57.88569338925828,23.633613153181006],[57.88567071813855,23.63361715184966]]},"properties":{"OBJECTID":41,"Governorate":"Al Batinah South","Wilayat":"Barka","Latitude":23.63264933,"Longitude":57.88521327,"Shape_Length":480.0486179073766,"Street_ID":"ST_041"}},{"type":"Feature","id":42,"geometry":{"type":"LineString","coordinates":[[57.88629075006825,23.633925224526855],[57.886282500846924,23.633885811849627],[57.88628144514834,23.63388257899833],[57.8862799110411,23.63387954381432],[57.88627793406609,23.633876776614144],[57.88627556002417,23.63387434150594],[57.88627284391512,23.63387229490421],[57.88626984866344,23.633870684222877],[57.88625643144685,23.63387091952072],[57.88624315646031,23.63386895692083],[57.886230381310405,23.633864849292458],[57.886218450138934,23.633858707288447],[57.886207684352286,23.633850696364412],[57.88619837396328,23.633841032321644],[57.88619076977869,23.633829975493768],[57.88617445588756,23.633737046539107],[57.88614854492482,23.633565672767567],[57.88612735442496,23.633446600598933],[57.88609312806012,23.633306938624795]]},"properties":{"OBJECTID":42,"Governorate":"Al Batinah South","Wilayat":"Barka","Latitude":23.63363449,"Longitude":57.88616859,"Shape_Length":75.24326342478676,"Street_ID":"ST_042"}},{"type":"Feature","id":43,"geometry":{"type":"LineString","coordinates":[[57.88622347511504,23.633861598367975],[57.88602798624885,23.633906232107357],[57.885649234178985,23.63398212223701],[57.88530113339401,23.63404770353759],[57.88490642186557,23.634119139871444],[57.88456585329315,23.63417698944858],[57.884419983089444,23.63419878626324]]},"properties":{"OBJECTID":43,"Governorate":"Al Batinah South","Wilayat":"Barka","Latitude":23.6340396,"Longitude":57.88532382,"Shape_Length":187.75929998529304,"Street_ID":"ST_043"}},{"type":"Feature","id":44,"geometry":{"type":"LineString","coordinates":[[57.88469548596952,23.636471050343104],[57.884963190846875,23.636414486788713],[57.88545399768556,23.636306510984635],[57.88590921907841,23.636208520339242],[57.88627430322262,23.636129563512725],[57.886372822103,23.636106055709632]]},"properties":{"OBJECTID":44,"Governorate":"Al Batinah South","Wilayat":"Barka","Latitude":23.63628969,"Longitude":57.88553445,"Shape_Length":175.80806517804496,"Street_ID":"ST_044"}},{"type":"Feature","id":45,"geometry":{"type":"LineString","coordinates":[[57.88452598305041,23.635597150692163],[57.884955604145155,23.635522119130457],[57.88519366962821,23.635481122039966],[57.88544363453349,23.635442461875115]]},"properties":{"OBJECTID":45,"Governorate":"Al Batinah South","Wilayat":"Barka","Latitude":23.63551799,"Longitude":57.88498446,"Shape_Length":95.16357116533331,"Street_ID":"ST_045"}},{"type":"Feature","id":46,"geometry":{"type":"LineString","coordinates":[[57.884692911427116,23.635567997213883],[57.884712228663645,23.635574716955432],[57.88473033188312,23.635584234518074],[57.884746818538574,23.63559633826731],[57.88476966171531,23.635622992957686],[57.88478778060759,23.635653059367268],[57.88479745967538,23.635687048228462],[57.88480424743266,23.635721730405297],[57.88481068092801,23.635742012474154],[57.884820289212215,23.63576099754867],[57.88482789824116,23.635770792634386],[57.8848367742485,23.63577945620868],[57.884846750749475,23.63578682577135],[57.88485764061771,23.635792763093605],[57.884867832419026,23.635803427023994],[57.884876085133826,23.635815653426732],[57.884882163559816,23.635829093849456],[57.88488589446191,23.63584336524024],[57.88489419069038,23.635892097633597],[57.88489650651717,23.635941476885467],[57.88492247767688,23.63608579159606],[57.88494786292571,23.636215126492758],[57.88496076307899,23.63629265203291],[57.88498806213041,23.636409015110196]]},"properties":{"OBJECTID":46,"Governorate":"Al Batinah South","Wilayat":"Barka","Latitude":23.63596615,"Longitude":57.88488221,"Shape_Length":101.64031684807449,"Street_ID":"ST_046"}},{"type":"Feature","id":47,"geometry":{"type":"LineString","coordinates":[[57.88881512909403,23.63333646147096],[57.88847335924858,23.63344044911361],[57.888143226779526,23.63352689793013],[57.88776160100053,23.633626220503217],[57.88735218496461,23.633707374343363]]},"properties":{"OBJECTID":47,"Governorate":"Al Batinah South","Wilayat":"Barka","Latitude":23.63353587,"Longitude":57.88808775,"Shape_Length":154.89599835848043,"Street_ID":"ST_047"}},{"type":"Feature","id":48,"geometry":{"type":"LineString","coordinates":[[57.88762968318159,23.633652368836692],[57.887592890112735,23.633441667363144],[57.88756070317926,23.633150307444016],[57.88755621695453,23.633100103577988]]},"properties":{"OBJECTID":48,"Governorate":"Al Batinah South","Wilayat":"Barka","Latitude":23.63337677,"Longitude":57.88758836,"Shape_Length":61.632174533254535,"Street_ID":"ST_048"}},{"type":"Feature","id":49,"geometry":{"type":"LineString","coordinates":[[57.888155280795864,23.632440771682177],[57.88810567354428,23.632151895140534],[57.88806819091408,23.63186602454489],[57.888038297141755,23.63165108647728],[57.88803896005994,23.63159416830911],[57.88804672065197,23.631537777790943],[57.88806145759021,23.631482796521592],[57.88805106992842,23.631387619936795],[57.88803571243778,23.631293117908815],[57.888033284079526,23.631239314070307],[57.88802757644833,23.63118575874463],[57.88801861082499,23.63113265161177],[57.8880020195748,23.63105454071985],[57.88799157951311,23.630975372632008],[57.88797934462827,23.630884874237402],[57.88796899719726,23.630794140657596],[57.887958542535245,23.63069213706606],[57.887944566317266,23.630590556073862],[57.88789201499382,23.630356272861103],[57.88784311448642,23.629965960233047],[57.88782605876028,23.629879554952726]]},"properties":{"OBJECTID":49,"Governorate":"Al Batinah South","Wilayat":"Barka","Latitude":23.63115983,"Longitude":57.88799955,"Shape_Length":286.4209701724632,"Street_ID":"ST_049"}},{"type":"Feature","id":50,"geometry":{"type":"LineString","coordinates":[[57.8890080576733,23.627517421771646],[57.88902994474404,23.627631569883697],[57.88904414205662,23.627703481258713],[57.88906391518709,23.627774063358803],[57.88910731215091,23.62788924141459],[57.88915571766626,23.6280024058396],[57.88921134989517,23.62815373394292],[57.889298951295686,23.62838250502665]]},"properties":{"OBJECTID":50,"Governorate":"Al Batinah South","Wilayat":"Barka","Latitude":23.62795344,"Longitude":57.88913935,"Shape_Length":100.51949919237632,"Street_ID":"ST_050"}},{"type":"Feature","id":51,"geometry":{"type":"LineString","coordinates":[[57.889298951295686,23.62838250502665],[57.88909580290796,23.628450685751424],[57.88919519654933,23.628728407664642],[57.88931946915001,23.62904812828862]]},"properties":{"OBJECTID":51,"Governorate":"Al Batinah South","Wilayat":"Barka","Latitude":23.62867014,"Longitude":57.88920362,"Shape_Length":92.03434475646506,"Street_ID":"ST_051"}},{"type":"Feature","id":52,"geometry":{"type":"LineString","coordinates":[[57.88666970515446,23.62866297769365],[57.88687241802956,23.629330215568736]]},"properties":{"OBJECTID":52,"Governorate":"Al Batinah South","Wilayat":"Barka","Latitude":23.6289966,"Longitude":57.88677106,"Shape_Length":76.71600158337718,"Street_ID":"ST_052"}},{"type":"Feature","id":53,"geometry":{"type":"LineString","coordinates":[[57.886815266774086,23.629142099883076],[57.887403026605504,23.62894200706822],[57.888374177976786,23.628608384927],[57.88908068215385,23.628397599331915],[57.889105010044354,23.62838076407034],[57.889126682414584,23.62836062503716],[57.889145254396276,23.628337595625865],[57.88915300237435,23.62832150003963],[57.88915811032125,23.628304382564956],[57.88916044995331,23.62828667309906],[57.88915996251179,23.628268816406717],[57.88915666023856,23.628251260950236],[57.889150626068634,23.628234447626536],[57.88909450697778,23.62801114192387],[57.8890441193608,23.627703385034113]]},"properties":{"OBJECTID":53,"Governorate":"Al Batinah South","Wilayat":"Barka","Latitude":23.6285873,"Longitude":57.8882324,"Shape_Length":326.48464233551164,"Street_ID":"ST_053"}},{"type":"Feature","id":54,"geometry":{"type":"LineString","coordinates":[[57.88546868424081,23.640297562900813],[57.885856611193276,23.640226460655317],[57.88627930677185,23.64016125985326],[57.886384695125585,23.64014646199401],[57.88639816432636,23.640136455955165],[57.88640971013568,23.64012428079726],[57.88641898788909,23.640110299972015],[57.886425720627926,23.640094930833765],[57.886429707367085,23.64007863218064],[57.886430829094785,23.64006189055856],[57.886429052325305,23.64004520573692],[57.886401027954406,23.63993180513204],[57.88637854229124,23.63984555560623],[57.886350209075246,23.639761046348614],[57.88631616105475,23.639678673306598],[57.8862963111087,23.639664811957356],[57.886274635783124,23.639654025965417],[57.88625160802917,23.639646550678897],[57.886227730307674,23.639642549207014],[57.88620352362562,23.639642108861064],[57.88617951616781,23.6396452392493],[57.88614133707212,23.6396467586473],[57.886103298434556,23.639643151159312],[57.88606608561638,23.63963448178326],[57.886043870874936,23.63962569598136],[57.886023416397215,23.639613355017303],[57.88600528625366,23.639597799216226],[57.88598998041684,23.639579457558405],[57.88598311754039,23.639566359052555],[57.885974193565126,23.63955456784422],[57.885963451604056,23.639544405157523],[57.88595118429699,23.639536147851302],[57.88593772583828,23.639530020876713],[57.88592344287241,23.63952619114897],[57.88590872450567,23.639524763000132],[57.88589397170583,23.639525775336796],[57.88533913913222,23.639608986819457]]},"properties":{"OBJECTID":54,"Governorate":"Al Batinah South","Wilayat":"Barka","Latitude":23.63989204,"Longitude":57.88598871,"Shape_Length":256.47802639360043,"Street_ID":"ST_054"}},{"type":"Feature","id":55,"geometry":{"type":"LineString","coordinates":[[57.88631616105475,23.639678673306598],[57.88673287535445,23.639576669502524]]},"properties":{"OBJECTID":55,"Governorate":"Al Batinah South","Wilayat":"Barka","Latitude":23.63962767,"Longitude":57.88652452,"Shape_Length":43.980749755158634,"Street_ID":"ST_055"}},{"type":"Feature","id":56,"geometry":{"type":"LineString","coordinates":[[57.88634618393966,23.639671324016174],[57.88629547873021,23.63948253397713]]},"properties":{"OBJECTID":56,"Governorate":"Al Batinah South","Wilayat":"Barka","Latitude":23.63957693,"Longitude":57.88632083,"Shape_Length":21.53318554222623,"Street_ID":"ST_056"}},{"type":"Feature","id":57,"geometry":{"type":"LineString","coordinates":[[57.88801916936605,23.638975016864663],[57.88801235304198,23.639001191720606],[57.8880017767969,23.639026086065293],[57.88798766870864,23.639049163049567],[57.88797033301962,23.63906992501584],[57.88795014357578,23.639087924230125],[57.88791284555292,23.63911528619412],[57.88787227134155,23.63913750224586],[57.887829126571994,23.639154186023692],[57.8877841615794,23.639165047378306],[57.88769390209111,23.639186184918227],[57.887577550977866,23.63919908103053],[57.88754212113564,23.639199742383713],[57.88750691363611,23.639195724537824],[57.88747254375245,23.63918709770724],[57.88741460790722,23.639186051398312],[57.88735682251872,23.63919035323526],[57.887299680229354,23.6391999665433],[57.887235304142884,23.639217110881795],[57.887171734263,23.63923703772859],[57.88715426854197,23.639249442884207],[57.887138708365136,23.63926416769978],[57.88712535927852,23.639280923032764],[57.8871144834103,23.63929937986855],[57.887106294323495,23.63931917578111],[57.88710185830614,23.639348714666216],[57.88710116956943,23.639378576843377],[57.88710423903363,23.639408288833764],[57.88713740195304,23.639601675947823],[57.887215608164574,23.63980266770161],[57.887276340003346,23.63993280512781],[57.88727773010799,23.639945132908874],[57.88727721394589,23.639957528075417],[57.88727480371925,23.639969697602293],[57.88727055640649,23.639981353798554],[57.887264572415255,23.63999222110851],[57.88725699320873,23.640002042625984],[57.88724799796145,23.64001058616759],[57.88723779932352,23.64001764976167],[57.88716311767865,23.640033908127823],[57.88708745480118,23.640044716065862],[57.886384695125585,23.64014646199401]]},"properties":{"OBJECTID":57,"Governorate":"Al Batinah South","Wilayat":"Barka","Latitude":23.63960808,"Longitude":57.887219,"Shape_Length":279.04884112268985,"Street_ID":"ST_057"}},{"type":"Feature","id":58,"geometry":{"type":"LineString","coordinates":[[57.88725390193307,23.640004955330717],[57.887433025518646,23.640088088536004]]},"properties":{"OBJECTID":58,"Governorate":"Al Batinah South","Wilayat":"Barka","Latitude":23.64004652,"Longitude":57.88734346,"Shape_Length":20.45856737607479,"Street_ID":"ST_058"}},{"type":"Feature","id":59,"geometry":{"type":"LineString","coordinates":[[57.88801916936605,23.638975016864663],[57.887970387568245,23.638759344478014]]},"properties":{"OBJECTID":59,"Governorate":"Al Batinah South","Wilayat":"Barka","Latitude":23.63886718,"Longitude":57.88799478,"Shape_Length":24.392161545871627,"Street_ID":"ST_059"}},{"type":"Feature","id":60,"geometry":{"type":"LineString","coordinates":[[57.888076942082826,23.638736970933238],[57.88821445629241,23.63886342764254],[57.888238306045416,23.63888231042621],[57.888263489432816,23.638899374049405],[57.88831284047042,23.638930685868736],[57.88835798031389,23.638967811998],[57.88839822788762,23.639010192273503],[57.88842659163975,23.63904529629021],[57.888451904940894,23.639082659791235],[57.888473988696965,23.639122018426143],[57.888507126126775,23.639172332064376],[57.88853682268603,23.639224750246484],[57.88857005955519,23.639329887930437],[57.88866017906076,23.639678652231463],[57.88869373876123,23.639909402828657],[57.88874177452408,23.64008984097196],[57.88883271838457,23.64039342159004],[57.888855190611686,23.64047409547744],[57.88886343729387,23.640497369822874],[57.8888680636829,23.64052162470789],[57.8888689630318,23.64054630048739],[57.888866114589426,23.640570827804783],[57.88885958407933,23.640594640729013],[57.8888346176693,23.640625281271223],[57.88880541431867,23.640651914498],[57.88877260982032,23.640673960571217],[57.888736918368544,23.640690939520734],[57.88869911701017,23.640702481693914],[57.88861476634705,23.640725765213116],[57.88852948872338,23.640745383662036],[57.88822077504719,23.640806930184134],[57.88798659047714,23.640851878531],[57.88738217620216,23.640951514212464],[57.88700922898004,23.64101206566669],[57.8865675413044,23.64107355475567],[57.886208855810324,23.64114002902862],[57.88593536205934,23.641184722950317],[57.88564220031826,23.64122751910326]]},"properties":{"OBJECTID":60,"Governorate":"Al Batinah South","Wilayat":"Barka","Latitude":23.64041611,"Longitude":57.88780256,"Shape_Length":566.4057818455043,"Street_ID":"ST_060"}},{"type":"Feature","id":61,"geometry":{"type":"LineString","coordinates":[[57.883523551937785,23.641581561793057],[57.883531359047005,23.641656217160204],[57.883528337125725,23.641714587253144],[57.883531805824276,23.641728924486817],[57.88353750674666,23.64174252917802],[57.883545295280655,23.641755056223854],[57.88355497385867,23.64176618785745],[57.88356629696942,23.641775641708623],[57.88357897738561,23.641783177966595],[57.88359269344992,23.64178860546315],[57.88360709723429,23.641791786521893],[57.883621823365644,23.641792640450603],[57.8836364982941,23.641791145588137],[57.884806669230784,23.64157716351229]]},"properties":{"OBJECTID":61,"Governorate":"Al Batinah South","Wilayat":"Barka","Latitude":23.64168911,"Longitude":57.88408761,"Shape_Length":152.03880297681766,"Street_ID":"ST_061"}},{"type":"Feature","id":62,"geometry":{"type":"LineString","coordinates":[[57.88257792686867,23.641572836663443],[57.88211282653658,23.64167699784484],[57.88161499461772,23.641867503374453]]},"properties":{"OBJECTID":62,"Governorate":"Al Batinah South","Wilayat":"Barka","Latitude":23.64170296,"Longitude":57.88209035,"Shape_Length":103.80814481481364,"Street_ID":"ST_062"}},{"type":"Feature","id":63,"geometry":{"type":"LineString","coordinates":[[57.882851650300914,23.643244441054282],[57.88243670515964,23.64333475320103],[57.882021221844454,23.643422556213032],[57.88182863756592,23.64345670087451],[57.8816368849679,23.64349524310327],[57.88144606445306,23.643538162718404],[57.88125627593603,23.64358543724697]]},"properties":{"OBJECTID":63,"Governorate":"Al Batinah South","Wilayat":"Barka","Latitude":23.64341297,"Longitude":57.88205339,"Shape_Length":167.08304578425356,"Street_ID":"ST_063"}},{"type":"Feature","id":64,"geometry":{"type":"LineString","coordinates":[[57.88185396786351,23.643451955465817],[57.881840141102614,23.643418235612085],[57.88183043927189,23.643383106104075],[57.881825001171805,23.64334706952654],[57.881823904603245,23.64331064144136],[57.881826237035646,23.64329876224367],[57.88183058309415,23.64328746324574],[57.88183681255552,23.64327708300539],[57.88184473876312,23.64326793255121],[57.88185412421984,23.643260286063075],[57.88186468770431,23.643254372656717],[57.88187611269727,23.643250369518647],[57.882002641467196,23.64321108968996],[57.88207638695368,23.64317887315616],[57.882081596912684,23.64317600479719],[57.88208630277276,23.64317236803531],[57.88209039217187,23.643168049705654],[57.882093767467225,23.643163152917186],[57.88209634806675,23.643157794590756]]},"properties":{"OBJECTID":64,"Governorate":"Al Batinah South","Wilayat":"Barka","Latitude":23.64327748,"Longitude":57.88191431,"Shape_Length":50.262253440734845,"Street_ID":"ST_064"}},{"type":"Feature","id":65,"geometry":{"type":"LineString","coordinates":[[57.88130857805801,23.643571945189688],[57.88127714622513,23.64349219987086]]},"properties":{"OBJECTID":65,"Governorate":"Al Batinah South","Wilayat":"Barka","Latitude":23.64353207,"Longitude":57.88129286,"Shape_Length":9.393442033596294,"Street_ID":"ST_065"}},{"type":"Feature","id":66,"geometry":{"type":"LineString","coordinates":[[57.87724373352078,23.646653163012495],[57.87880427688599,23.64609174699936],[57.879409130283435,23.64586863565613],[57.87961192737883,23.645773923111516],[57.87986995928526,23.645650838152548],[57.88047482879809,23.645430722158256],[57.88065280040425,23.645390723147962]]},"properties":{"OBJECTID":66,"Governorate":"Al Batinah South","Wilayat":"Barka","Latitude":23.64602182,"Longitude":57.87894964,"Shape_Length":375.1819664110325,"Street_ID":"ST_066"}},{"type":"Feature","id":67,"geometry":{"type":"LineString","coordinates":[[57.87746020030587,23.64657528916963],[57.877421211709354,23.646449067520198],[57.87744735090581,23.646437601756574],[57.877474877582365,23.646430051696665],[57.87750320865513,23.646426577269633],[57.87753174400107,23.646427252072534],[57.87757131328451,23.646426227040237],[57.87761032203152,23.646419511644453],[57.877647956235045,23.646407246017333],[57.87796055399329,23.646292154791027],[57.87811120337124,23.64623725163358],[57.87804801758132,23.64606040926933],[57.878002337516214,23.64590926578713],[57.87796028424187,23.645751959101776],[57.87790172507112,23.645519197863305]]},"properties":{"OBJECTID":67,"Governorate":"Al Batinah South","Wilayat":"Barka","Latitude":23.64614064,"Longitude":57.87785167,"Shape_Length":171.6575259516417,"Street_ID":"ST_067"}},{"type":"Feature","id":68,"geometry":{"type":"LineString","coordinates":[[57.87884717213485,23.6460759246197],[57.87868837084854,23.64566067805995]]},"properties":{"OBJECTID":68,"Governorate":"Al Batinah South","Wilayat":"Barka","Latitude":23.6458683,"Longitude":57.87876777,"Shape_Length":48.7457583452904,"Street_ID":"ST_068"}},{"type":"Feature","id":69,"geometry":{"type":"LineString","coordinates":[[57.879409130283435,23.64586863565613],[57.879253134938985,23.64542190908846],[57.87877778436727,23.64553706909798],[57.878758677508124,23.64554447267535],[57.87874103844312,23.64555490092592],[57.87872534200591,23.645568073127077],[57.87871201073572,23.64558363469061],[57.87870140350281,23.645601166708015],[57.878693805847895,23.645620197227302],[57.87868942229556,23.645640213957634],[57.87868837084854,23.64566067805995]]},"properties":{"OBJECTID":69,"Governorate":"Al Batinah South","Wilayat":"Barka","Latitude":23.6455677,"Longitude":57.87910883,"Shape_Length":119.71360084443087,"Street_ID":"ST_069"}},{"type":"Feature","id":70,"geometry":{"type":"LineString","coordinates":[[57.87970377851168,23.645730109057826],[57.87958401077971,23.645366049298293],[57.87956434143816,23.645358462613633],[57.87954370884107,23.6453541340205],[57.87952264885852,23.64535317594117],[57.879501708460644,23.645355613258893],[57.879481431511714,23.645361382671624],[57.879253134938985,23.64542190908846]]},"properties":{"OBJECTID":70,"Governorate":"Al Batinah South","Wilayat":"Barka","Latitude":23.64547218,"Longitude":57.8795415,"Shape_Length":77.16604365129399,"Street_ID":"ST_070"}},{"type":"Feature","id":71,"geometry":{"type":"LineString","coordinates":[[57.8781231945061,23.646336773926244],[57.87825146882411,23.646674449417205],[57.87839128818637,23.647068175941634],[57.87851583110239,23.647436496106238],[57.87862573807683,23.647753493589015],[57.878781649228436,23.648187475196192]]},"properties":{"OBJECTID":71,"Governorate":"Al Batinah South","Wilayat":"Barka","Latitude":23.64726123,"Longitude":57.87845528,"Shape_Length":215.64844101188015,"Street_ID":"ST_071"}},{"type":"Feature","id":72,"geometry":{"type":"LineString","coordinates":[[57.877859335491365,23.6484844193295],[57.87836143518999,23.648321785525468],[57.878781649228436,23.648187475196192],[57.87928464027026,23.648036799860478],[57.87942123815884,23.64797748259037],[57.879437086428155,23.647967204730264],[57.87945109090459,23.64795452889939],[57.879462892457184,23.647939780156907],[57.87947218844678,23.647923336719742],[57.879478740486924,23.64790562026359],[57.87948238055701,23.64788708510947],[57.87948301531103,23.64786820657309],[57.8794199926442,23.64771309216269],[57.879349871352225,23.64750907280674],[57.87929383249818,23.647307853843678],[57.87921354930773,23.647064064635714],[57.87912998381945,23.64679678194274],[57.8790679103471,23.646627746398643],[57.87893655501676,23.646302191944258],[57.87884717213485,23.6460759246197]]},"properties":{"OBJECTID":72,"Governorate":"Al Batinah South","Wilayat":"Barka","Latitude":23.64754936,"Longitude":57.87895544,"Shape_Length":392.23122341899835,"Street_ID":"ST_072"}},{"type":"Feature","id":73,"geometry":{"type":"LineString","coordinates":[[57.87934773065091,23.64750138609253],[57.87861693371231,23.647728101309863]]},"properties":{"OBJECTID":73,"Governorate":"Al Batinah South","Wilayat":"Barka","Latitude":23.64761474,"Longitude":57.87898233,"Shape_Length":78.65174997359877,"Street_ID":"ST_073"}},{"type":"Feature","id":74,"geometry":{"type":"LineString","coordinates":[[57.87912084754643,23.64677190278168],[57.87836303906695,23.646988627878088]]},"properties":{"OBJECTID":74,"Governorate":"Al Batinah South","Wilayat":"Barka","Latitude":23.64688027,"Longitude":57.87874194,"Shape_Length":80.93309315688829,"Street_ID":"ST_074"}},{"type":"Feature","id":75,"geometry":{"type":"LineString","coordinates":[[57.89314372946097,23.646077484408675],[57.89303485695842,23.645485699328162],[57.89298512772598,23.645152832158306],[57.892824914118634,23.644090523792393],[57.89278152599674,23.64382248386078],[57.8927335636885,23.643468627810577],[57.89266699818927,23.643071670833834],[57.89258818552292,23.64261654893775],[57.892528419036175,23.64225109772187],[57.89250363316488,23.64201800539441],[57.89252642839013,23.641956518742507],[57.892553894151234,23.641896971596285],[57.89258586709581,23.641839718111925],[57.89261972806526,23.64177870428003],[57.89265763592611,23.64172011889772],[57.89269941726653,23.641664229967436],[57.892744880955185,23.641611293156533],[57.89282264226883,23.641519220775997],[57.892869180019545,23.641447425318038],[57.89291226020076,23.64137350341322],[57.89292824227809,23.641315947416253],[57.892940924501794,23.641257575498482],[57.89295026580262,23.641198576687636]]},"properties":{"OBJECTID":75,"Governorate":"Al Batinah South","Wilayat":"Barka","Latitude":23.64359884,"Longitude":57.89280246,"Shape_Length":557.1107148086612,"Street_ID":"ST_075"}},{"type":"Feature","id":76,"geometry":{"type":"LineString","coordinates":[[57.89046911462964,23.643968767626383],[57.891892964354454,23.64380286221751],[57.892766222465255,23.64370958038719]]},"properties":{"OBJECTID":76,"Governorate":"Al Batinah South","Wilayat":"Barka","Latitude":23.64383659,"Longitude":57.89161733,"Shape_Length":236.05761042788797,"Street_ID":"ST_076"}},{"type":"Feature","id":77,"geometry":{"type":"LineString","coordinates":[[57.893123728013684,23.645968766388375],[57.8930827144162,23.645944785820834],[57.89303891261967,23.64592638513012],[57.89299307767485,23.6459138815054],[57.89294599967968,23.645907490482838],[57.8928984901597,23.64590732223021],[57.89270309189148,23.64592246762213],[57.892074130280726,23.646049030441436],[57.891422823834915,23.646160620479424],[57.891146877522175,23.646209657863036],[57.89109270865996,23.64621380514201],[57.89103842670986,23.64621158355486],[57.890984777912465,23.646203023642826],[57.8909324998041,23.646188243083216],[57.89090588566142,23.646173327459234],[57.890882016646366,23.6461543259185],[57.89086151412118,23.646131733112327],[57.89084491181105,23.64610613718046],[57.89083264191012,23.646078204440514],[57.89082502383052,23.646048662042286],[57.890794300546965,23.64566059895936],[57.890718348390216,23.64520575866512],[57.890663674122344,23.64492071431787],[57.89061493933542,23.644663023430944],[57.89057495365005,23.64442295058621],[57.89046911462964,23.643968767626383],[57.89038859290454,23.643660255671136],[57.89023256753266,23.64306411898024],[57.89016134138943,23.642746349008185],[57.89011872282753,23.64248945277956],[57.89008690106957,23.64230046007527],[57.89007680836227,23.642257709280905],[57.890061915391634,23.642216385043643],[57.89004241572139,23.64217702445396],[57.89001856278845,23.64214013908085],[57.889990666609016,23.642106208322936],[57.88992761729719,23.64204840664884],[57.889866755226606,23.641988306252717],[57.88983953757079,23.64195154160408],[57.88981640911317,23.641912076244267],[57.889797635303985,23.641870363125637],[57.889783431614255,23.64182688099856],[57.889744431581164,23.641688144388805]]},"properties":{"OBJECTID":77,"Governorate":"Al Batinah South","Wilayat":"Barka","Latitude":23.64457109,"Longitude":57.89090932,"Shape_Length":748.4447526347722,"Street_ID":"ST_077"}},{"type":"Feature","id":78,"geometry":{"type":"LineString","coordinates":[[57.8918996119675,23.646078931231774],[57.89186629603909,23.64580078419057],[57.891795308805506,23.645328280169267],[57.89177205207781,23.64517781779275],[57.89170418868547,23.64484934368481],[57.89166034995946,23.64455603820254],[57.89162645513813,23.644321522332326],[57.89161176748214,23.644212705761458]]},"properties":{"OBJECTID":78,"Governorate":"Al Batinah South","Wilayat":"Barka","Latitude":23.64514539,"Longitude":57.89175916,"Shape_Length":208.76356370606837,"Street_ID":"ST_078"}},{"type":"Feature","id":79,"geometry":{"type":"LineString","coordinates":[[57.89146020904496,23.643853287806003],[57.891429253710136,23.64366459847357],[57.8913978270105,23.643464780851552],[57.89135895474618,23.643206565623892],[57.891209680039225,23.64216586065089],[57.89125166793146,23.642097978986975],[57.89135171009987,23.641963180922687],[57.89140605083146,23.641921844127676],[57.89146419774292,23.641886058901402],[57.891795938402936,23.641815320750947],[57.89220220527644,23.64171688023944],[57.892456481647876,23.64165654318052],[57.892732094818044,23.641625492746716]]},"properties":{"OBJECTID":79,"Governorate":"Al Batinah South","Wilayat":"Barka","Latitude":23.6424341,"Longitude":57.8916109,"Shape_Length":362.31980727788925,"Street_ID":"ST_079"}},{"type":"Feature","id":80,"geometry":{"type":"LineString","coordinates":[[57.890012311839016,23.64213199589572],[57.89058021937731,23.642050091491395]]},"properties":{"OBJECTID":80,"Governorate":"Al Batinah South","Wilayat":"Barka","Latitude":23.64209104,"Longitude":57.89029627,"Shape_Length":58.632548836454234,"Street_ID":"ST_080"}},{"type":"Feature","id":81,"geometry":{"type":"LineString","coordinates":[[57.893117730009365,23.645936161263762],[57.89323872932687,23.645928840228482],[57.89332484616121,23.645938222747898],[57.89340998020545,23.645954233223804],[57.8934720620467,23.64595375242356],[57.89353394078178,23.64594871175625],[57.893595281945174,23.645939138467575],[57.89365575397702,23.64592508430286],[57.89386325990567,23.645883304040442],[57.89444459056248,23.645747378017152],[57.894821515728054,23.64567756298547],[57.89505396250707,23.645632254747408],[57.895122682007816,23.64561504007525],[57.89519084074303,23.645595724238884],[57.895247905474115,23.645573006915367],[57.89530212567107,23.645544151576807],[57.8953528435472,23.6455095082894],[57.89538396403383,23.645479576128224],[57.89541157756071,23.645446381066932],[57.89543534428993,23.645410331635],[57.895450283326994,23.64535588166365],[57.89545824882572,23.645299984212564],[57.89545911404312,23.645243528693726],[57.89538050826683,23.645017145181285],[57.89536510509523,23.64496302286447],[57.895343245564106,23.644911170730744],[57.89531525301755,23.644862355771867],[57.89528909665366,23.644820976472946],[57.895267651557845,23.64477697068223],[57.895251178093154,23.64473087267021],[57.8952398762625,23.644683242108854],[57.895234641126116,23.64463388447979],[57.89522353354454,23.644585508826506],[57.89520671335109,23.64453881125385],[57.89519079328625,23.644490342125174],[57.8951691221319,23.644444156998045],[57.895142018719866,23.644400935360462],[57.895111371020576,23.64435398458467],[57.8950851961722,23.64430440097718],[57.895063718468684,23.64425260942313],[57.89503576909011,23.64418437015222],[57.895012555408385,23.64411437807525],[57.894990789744234,23.643995231641338],[57.89497243582406,23.64387551217565],[57.89496555472818,23.643829689369685],[57.89495550106746,23.643784456605754],[57.89494232360207,23.643740033262418],[57.894900784885934,23.643659955809664],[57.89486274849274,23.643578156688818],[57.89482060733775,23.643495965273722],[57.8947761158636,23.643415021994887],[57.89470729872961,23.643311461858577],[57.89464311457195,23.64320496822652],[57.89455093262802,23.643054852448934],[57.89448359068315,23.64296433248133],[57.89439365619349,23.64286831588073],[57.8942883035683,23.642785374284813],[57.89407562695564,23.64269999592257],[57.89386653104367,23.64265575524409],[57.89379113395754,23.642646378191408],[57.89371640850244,23.642632639338718],[57.893642606795154,23.642614585039638],[57.89356997783584,23.642592276207708],[57.89344843274364,23.64254419787805],[57.893329054632964,23.642490966290488],[57.89321206187361,23.642432678817737],[57.89311850476348,23.642376892604133],[57.89302162769412,23.642327094331893],[57.892921813417196,23.642283480749043],[57.892819456289004,23.642246224168506],[57.892771790508505,23.642232337952045],[57.89272263867713,23.642225341445048],[57.892672991396566,23.642225375654498],[57.89262384925374,23.642232439890947],[57.892576202655086,23.642246391782386],[57.89253101186597,23.64226695014363]]},"properties":{"OBJECTID":81,"Governorate":"Al Batinah South","Wilayat":"Barka","Latitude":23.64421802,"Longitude":57.89436679,"Shape_Length":763.2248586389289,"Street_ID":"ST_081"}},{"type":"Feature","id":82,"geometry":{"type":"LineString","coordinates":[[57.89419361977085,23.64580606011508],[57.89420139381647,23.645763474253197],[57.89420428620482,23.645720281365964],[57.89420225958615,23.645677039207893],[57.89419534013042,23.645634306169732],[57.894183617189334,23.645592634067913],[57.89414306939645,23.64546029328686],[57.894188914015,23.64544841318645],[57.894233934274,23.64543371481527],[57.894339366522146,23.6454038825301],[57.894444032538956,23.645371464184766],[57.894881717685976,23.64526201405729],[57.89520778133069,23.645184807262783],[57.895214359851245,23.645182026105985],[57.89522131783659,23.645180414210913],[57.89522844916419,23.645180019328155],[57.89523554257645,23.64518085315567],[57.89524238793896,23.64518289099225],[57.89524878246551,23.64518607246927],[57.895254536725396,23.645190303339024],[57.89525948025512,23.645195458266734],[57.89526346660813,23.64520138454343],[57.895273488360345,23.645251377985332],[57.89527712867935,23.645302235903383],[57.89526946333671,23.645311718375943],[57.895260432860134,23.645319911376404],[57.89525025143818,23.645326620579826],[57.89523916055797,23.64533168685458],[57.89522742327755,23.64533499003668],[57.8952142326987,23.645338904622278],[57.89520189315372,23.645344991573925],[57.89519075944471,23.64535307587194],[57.89518115170207,23.645362925066426],[57.89517334617968,23.645374255960963],[57.895167567311745,23.64538674275543],[57.89516664971704,23.645397240094727],[57.89516399537525,23.64540743767199],[57.895159678539486,23.645417050218033],[57.895153819969835,23.64542580882945],[57.89514658355516,23.645433468491003],[57.89513817172846,23.645439814929684],[57.89512881980396,23.64544467060888],[57.89511878939437,23.645447899694798],[57.894962480081894,23.64549616290517],[57.89480441534641,23.645538323052694],[57.894201694579515,23.64567202273683]]},"properties":{"OBJECTID":82,"Governorate":"Al Batinah South","Wilayat":"Barka","Latitude":23.64544145,"Longitude":57.89468342,"Shape_Length":290.99848829260117,"Street_ID":"ST_082"}},{"type":"Feature","id":83,"geometry":{"type":"LineString","coordinates":[[57.89414306939645,23.64546029328686],[57.89411381301165,23.64532142140711],[57.89419952149481,23.64527936934443],[57.89415940882838,23.645115966069483],[57.894104675769114,23.644944854313685],[57.894028307779,23.644701573711988],[57.89393150994985,23.64442551104207],[57.893860889575336,23.64419821536289],[57.89377637465193,23.64393160504979],[57.89368357802484,23.643621753145318]]},"properties":{"OBJECTID":83,"Governorate":"Al Batinah South","Wilayat":"Barka","Latitude":23.64455706,"Longitude":57.89396682,"Shape_Length":216.54542982465944,"Street_ID":"ST_083"}},{"type":"Feature","id":84,"geometry":{"type":"LineString","coordinates":[[57.89991690075901,23.64238614964113],[57.90011926096539,23.642430429347012],[57.90014749791865,23.642435328675234],[57.90017615372722,23.64243574530704],[57.9002045211794,23.64243166896016],[57.90023190017998,23.642423200236887],[57.90029710658105,23.642188111229828],[57.90031998779512,23.64212538878006],[57.90034869781217,23.64206511116744],[57.90038297931588,23.642007818635935],[57.90042252505492,23.641954024675442],[57.90061158563706,23.641900167601914],[57.900654406210684,23.641887857110234],[57.900695466487484,23.641870559613277],[57.9007341879673,23.641848518816285],[57.900770025101416,23.641822045253065],[57.90080247297879,23.641791511910874],[57.900823966154746,23.641741201222505],[57.90084017277281,23.64168894734698],[57.90085092106136,23.641635304115628],[57.90085609710084,23.64158084008537],[57.90089346319014,23.641354705162236],[57.90094016272555,23.640990530452807],[57.90094489523064,23.640969059306045],[57.90094605952218,23.64094710364224],[57.9009436243692,23.640925252400223],[57.90093765509226,23.640904091717797],[57.90092831181126,23.64088418920921],[57.90091584515043,23.640866078739435],[57.90066991526225,23.64084066790111]]},"properties":{"OBJECTID":84,"Governorate":"Al Batinah South","Wilayat":"Barka","Latitude":23.64169459,"Longitude":57.90061035,"Shape_Length":262.10263185084005,"Street_ID":"ST_084"}},{"type":"Feature","id":85,"geometry":{"type":"LineString","coordinates":[[57.90089563174528,23.641337791988036],[57.900813195901755,23.641319998330676],[57.90076251700812,23.641308478336555],[57.90071096640232,23.6413018756426],[57.90065902006698,23.64130025121352],[57.900607157638596,23.641303620048166],[57.90055585797892,23.64131195104105],[57.900505594753504,23.64132516726955]]},"properties":{"OBJECTID":85,"Governorate":"Al Batinah South","Wilayat":"Barka","Latitude":23.6413127,"Longitude":57.90070075,"Shape_Length":40.53442008939295,"Street_ID":"ST_085"}},{"type":"Feature","id":86,"geometry":{"type":"LineString","coordinates":[[57.90023190017998,23.642423200236887],[57.900232549277646,23.642456325608574],[57.9002386718118,23.642488886722695],[57.90025009891174,23.642519985484157],[57.90026651539714,23.642548764132215],[57.90028746847131,23.642574428899117],[57.90031238021013,23.64259627190363],[57.90035326882404,23.642620416015713],[57.900396545023774,23.64263996051449],[57.90044169334873,23.642654672606437],[57.900488176039524,23.64266437705658],[57.900535439443196,23.64266895827571],[57.9007588370976,23.64271069530082],[57.90118737008583,23.642776602605185],[57.90123405647862,23.642783973463622],[57.90128129368958,23.642785584279416],[57.901328373747106,23.64278141091034],[57.901340618646394,23.642774742930385],[57.901351563393035,23.64276610510449],[57.90136089435565,23.64275574495719],[57.901368344147244,23.64274395936766],[57.90137369928746,23.642731086062394],[57.90137680632003,23.642717493937322],[57.90138367195401,23.642642777693315],[57.90139411144491,23.64256847647476],[57.90142730460451,23.642406380525145],[57.90146294858069,23.642190591673327],[57.901518441888555,23.641922739291196],[57.901558187377326,23.641688311731023],[57.9015887722486,23.641488568598987],[57.90162115229334,23.641345092162915],[57.9016529668037,23.641187765811043],[57.90167170593428,23.641042203714775],[57.90169243014893,23.640912214693145]]},"properties":{"OBJECTID":86,"Governorate":"Al Batinah South","Wilayat":"Barka","Latitude":23.64216619,"Longitude":57.90122227,"Shape_Length":339.7204766247752,"Street_ID":"ST_086"}},{"type":"Feature","id":87,"geometry":{"type":"LineString","coordinates":[[57.90009137574914,23.642424327549616],[57.900023102233305,23.642704442267025],[57.89995887768207,23.643063145697848],[57.89992674548718,23.64324591023645],[57.89989632714706,23.64341536618493],[57.899866248513774,23.6435906385332],[57.89984188700845,23.643722380755804],[57.8998118025593,23.643896821281928],[57.89979083587907,23.644041287868074],[57.89979434093777,23.644056099099675],[57.89979999312537,23.644070231006594],[57.89980766869963,23.644083374201713],[57.89981719962066,23.64409524094357],[57.89982837722983,23.644105571435873],[57.8998409568179,23.644114139515125],[57.89986277538105,23.644124303846866],[57.89988583729559,23.644131196700837],[57.89990965500284,23.644134672353204],[57.8999337249657,23.64413465732418],[57.900219305787104,23.64407260124902],[57.900226891100736,23.644071419852],[57.90023419616965,23.644069060053294],[57.90024103912938,23.64406558060163],[57.90024724961997,23.644061068120237],[57.90025267302721,23.644055634950288],[57.90025717433183,23.6440494163541],[57.90026064147089,23.644042567147686],[57.900262988127714,23.64403525784652],[57.90026415588074,23.64402767042043],[57.900264115658,23.644019993763354],[57.90030089425023,23.643600411731846],[57.90031181746417,23.64347994978948],[57.90031338317197,23.643472148692883],[57.900316064314765,23.643464657363076],[57.90031980413664,23.643457634380706],[57.90032452347095,23.643451228412186],[57.90033012241619,23.643445575062636],[57.900336482450776,23.643440794005308],[57.900368297465505,23.64343410209364],[57.90040078785103,23.64343293947064],[57.90071053813787,23.643475192096787],[57.90095102928781,23.64350454878414],[57.90119071631525,23.64354803843656]]},"properties":{"OBJECTID":87,"Governorate":"Al Batinah South","Wilayat":"Barka","Latitude":23.64349735,"Longitude":57.90019144,"Shape_Length":392.9825508210817,"Street_ID":"ST_087"}},{"type":"Feature","id":88,"geometry":{"type":"LineString","coordinates":[[57.900228869819884,23.64407060476065],[57.900612838186234,23.644014586323685],[57.901160509488285,23.643897770023372]]},"properties":{"OBJECTID":88,"Governorate":"Al Batinah South","Wilayat":"Barka","Latitude":23.64399151,"Longitude":57.90069624,"Shape_Length":96.99268388932703,"Street_ID":"ST_088"}},{"type":"Feature","id":89,"geometry":{"type":"LineString","coordinates":[[57.89703708301753,23.637758992889722],[57.898131806284844,23.63753553286059]]},"properties":{"OBJECTID":89,"Governorate":"Al Batinah South","Wilayat":"Barka","Latitude":23.63764726,"Longitude":57.89758445,"Shape_Length":114.37469143181998,"Street_ID":"ST_089"}},{"type":"Feature","id":90,"geometry":{"type":"LineString","coordinates":[[57.89811597073562,23.638559830976924],[57.89814187727208,23.638293449674112],[57.898135617564385,23.637791966811854],[57.89812892150222,23.63734146550557],[57.89812762479315,23.636815148479688],[57.89810878273061,23.636239259965574],[57.898078662320046,23.63590385745535]]},"properties":{"OBJECTID":90,"Governorate":"Al Batinah South","Wilayat":"Barka","Latitude":23.63723177,"Longitude":57.89812444,"Shape_Length":294.3523801256032,"Street_ID":"ST_090"}},{"type":"Feature","id":91,"geometry":{"type":"LineString","coordinates":[[57.90138279381111,23.63782044283547],[57.9013880531365,23.63778425768991],[57.90138704150301,23.637747706330693],[57.90137978876652,23.637711867481993],[57.901366508973865,23.637677798839963],[57.90134759404572,23.63764650585743],[57.901323602210006,23.63761891207041],[57.90129524152722,23.637595831842187],[57.90126334899371,23.63757794632937],[57.90115572391292,23.637563358364755],[57.901047543351815,23.63755371819224],[57.90093903465168,23.637549046070628],[57.9008278837591,23.63754696372931],[57.900716927385304,23.637540068790642],[57.90060637380757,23.637528374197178],[57.9004964305471,23.63751190190095],[57.90038730397946,23.637490682822268],[57.90030205548739,23.637474377441208],[57.900215758015534,23.63746510828781],[57.90012899132197,23.637462937633497],[57.8993395424055,23.637456743072672],[57.898407255583656,23.637451371947392],[57.89833124613261,23.637452581737453]]},"properties":{"OBJECTID":91,"Governorate":"Al Batinah South","Wilayat":"Barka","Latitude":23.63750265,"Longitude":57.89994799,"Shape_Length":331.7419748631386,"Street_ID":"ST_091"}},{"type":"Feature","id":92,"geometry":{"type":"LineString","coordinates":[[57.89766027008055,23.635898144345045],[57.89776840519774,23.63589467915143],[57.89787659276324,23.635893865636824],[57.897954358889784,23.635893244236836],[57.89803197044844,23.635898184129278],[57.8981090302435,23.635908660033074],[57.89820814754886,23.635926194226517],[57.89830615495966,23.635949134051895],[57.89840275789594,23.63597741055918],[57.898497665999116,23.636010938757927],[57.898652319231765,23.636062515398187],[57.89880582499333,23.636117413060738],[57.89894158938351,23.636156975622878],[57.89902370594241,23.6361745033835],[57.89910700360147,23.63618507937676],[57.899190894910305,23.63618862901626],[57.899346062842696,23.636194942125258],[57.89950130287157,23.636199122558367],[57.89982023028527,23.636214078417087],[57.90009140560431,23.636232206381994],[57.90053482319569,23.636264110198585],[57.90101837648428,23.6363016910049],[57.90133989865719,23.636333315182323],[57.9020380687238,23.636405107602926]]},"properties":{"OBJECTID":92,"Governorate":"Al Batinah South","Wilayat":"Barka","Latitude":23.63618402,"Longitude":57.89983833,"Shape_Length":452.57568302627527,"Street_ID":"ST_092"}},{"type":"Feature","id":93,"geometry":{"type":"LineString","coordinates":[[57.900023244201094,23.637462108008116],[57.899992328623924,23.637549625473124],[57.899972921903164,23.63767203973709],[57.89997433175838,23.637878258999297],[57.8999769157636,23.638142215413346],[57.8999747690052,23.638155840065856],[57.899970485303555,23.638168950734336],[57.89996417343357,23.638181214503124],[57.89995599367084,23.63819231996166],[57.89994615372186,23.63820198511204],[57.899934903449804,23.63820996452971],[57.899922528529785,23.63821605559548],[57.89988749625316,23.63822175099147],[57.89985200437206,23.638221595051505],[57.89981702349449,23.638215592040122],[57.89962456328902,23.63819447186327],[57.89956718460931,23.638195531530425],[57.899510201393674,23.63820233953424],[57.89945418806639,23.63821482724604],[57.89940756674793,23.638232380254625]]},"properties":{"OBJECTID":93,"Governorate":"Al Batinah South","Wilayat":"Barka","Latitude":23.6379845,"Longitude":57.8998576,"Shape_Length":139.73582996737812,"Street_ID":"ST_093"}},{"type":"Feature","id":94,"geometry":{"type":"LineString","coordinates":[[57.89835933671349,23.637849377927314],[57.898721851279994,23.637850239293787],[57.8992339992853,23.637846149878882],[57.89930761877912,23.637848524732764],[57.899316735960774,23.637849736967357],[57.8993255798619,23.637852262423117],[57.89933396237803,23.637856047385114],[57.89934170521806,23.63786101134947],[57.89934864369644,23.637867048735647],[57.89935463023588,23.63787403113205],[57.89937837761742,23.6379019259035],[57.89940568049636,23.637926351488563],[57.89943603684602,23.637946858766277],[57.899446890122064,23.63795587868398],[57.89945618732725,23.637966495392135],[57.899463696391685,23.63797844388441],[57.8994692298797,23.637991425911473],[57.89948226364667,23.638031992074584],[57.89948972565254,23.638073942177552],[57.899483116978296,23.638164189830974],[57.89948140273869,23.63820801286632]]},"properties":{"OBJECTID":94,"Governorate":"Al Batinah South","Wilayat":"Barka","Latitude":23.63790129,"Longitude":57.89903378,"Shape_Length":144.50269556377796,"Street_ID":"ST_094"}},{"type":"Feature","id":95,"geometry":{"type":"LineString","coordinates":[[57.89842060479566,23.637451449067683],[57.89839850857559,23.637474336571028],[57.898380118910204,23.63750029617345],[57.89836585691724,23.637528733407976],[57.89835604919198,23.63755899707061],[57.898353000458854,23.637696509068846],[57.89835824361566,23.637807576247933],[57.89836706654903,23.638145104344126],[57.89836795257566,23.63815999502282],[57.89837111309658,23.638174573378787],[57.89837647324708,23.638188494087885],[57.898383906058854,23.63820142740395],[57.898393235467495,23.638213066969644],[57.898404240483075,23.638223137073286],[57.89841666042478,23.63823139917975]]},"properties":{"OBJECTID":95,"Governorate":"Al Batinah South","Wilayat":"Barka","Latitude":23.63784117,"Longitude":57.89836609,"Shape_Length":90.02882602233542,"Street_ID":"ST_095"}},{"type":"Feature","id":96,"geometry":{"type":"LineString","coordinates":[[57.90216573000286,23.636129989846026],[57.90209337806085,23.636122922541364],[57.90202203327011,23.636108970081278],[57.90201202424719,23.63609521422754],[57.90200428338547,23.636080065527548],[57.9019990001803,23.636063894819625],[57.901996303963884,23.63604709796073],[57.90199626073928,23.63603008613592],[57.90199887156462,23.636013275792596],[57.90200541365842,23.635902839322604],[57.90130823774647,23.635889519177418],[57.90073770608168,23.63589395431538],[57.90057407482891,23.635893223631356],[57.90056028358304,23.635893998262613],[57.90055513800651,23.63576778131484],[57.90044145371082,23.635766289016193],[57.90043712096632,23.635645088203347],[57.90004086297965,23.635651692711367],[57.90003670947741,23.634787870031793],[57.900030367058534,23.634483048560895],[57.900028795219285,23.634430940592633],[57.89923146139319,23.634446772757034],[57.898763277802516,23.634466567475823]]},"properties":{"OBJECTID":96,"Governorate":"Al Batinah South","Wilayat":"Barka","Latitude":23.63530647,"Longitude":57.90042176,"Shape_Length":529.5237714099374,"Street_ID":"ST_096"}},{"type":"Feature","id":97,"geometry":{"type":"LineString","coordinates":[[57.900028795219285,23.634430940592633],[57.900150737337945,23.634484276589774],[57.90043630006984,23.634557660233828],[57.900587779125544,23.63455736789136],[57.90092093712292,23.63455268026564],[57.901226100626694,23.634546603793268],[57.901501726074265,23.634547513004854],[57.90163797052346,23.634546362533168],[57.90163736106234,23.634400392569976]]},"properties":{"OBJECTID":97,"Governorate":"Al Batinah South","Wilayat":"Barka","Latitude":23.63453228,"Longitude":57.90089582,"Shape_Length":182.7634876178699,"Street_ID":"ST_097"}},{"type":"Feature","id":98,"geometry":{"type":"LineString","coordinates":[[57.901550243507586,23.634547103666755],[57.901541704908674,23.634637472815733],[57.901540393126275,23.634642483204317],[57.90153836587687,23.634647249232707],[57.90153566635879,23.63465166934232],[57.90153235209568,23.634655649345692],[57.90152849371068,23.63465910443353],[57.90152417342153,23.634661960981884],[57.90151891634157,23.634663787189293],[57.901513442068655,23.6346647893166],[57.901507878972566,23.63466494386427],[57.90150235750596,23.634664247208217],[57.90149700714531,23.63466271568478],[57.90149195335471,23.634660385207653],[57.90145624276571,23.634638263054203],[57.90144618108289,23.634637974556746],[57.901436205274756,23.63463931766663],[57.90142657817598,23.634642256996663],[57.90141755343368,23.634646715103717],[57.90132186636327,23.63469119534144],[57.90126140510213,23.634719352905634],[57.90120381449791,23.634752994172324],[57.90118412231008,23.634776655153736],[57.90116683880516,23.63480212876284],[57.90116979690424,23.634812267653196],[57.90117109969763,23.634822748596722],[57.901170713817194,23.634833303147595],[57.9011686491464,23.6348436609747],[57.90116495856716,23.634853556785565],[57.901160507519926,23.634858619788943],[57.90115694276339,23.634864341531294],[57.9011543599507,23.634870568481052],[57.90115282838648,23.63487713355041],[57.901152389167216,23.634883860578814],[57.90115305407848,23.63489056905984],[57.9011548052787,23.63489707898476],[57.9011575957779,23.6349032156727],[57.9011613506986,23.634908814457855],[57.901166283484564,23.63492006086233],[57.90116956206699,23.63493189576361],[57.901171119429904,23.634944077250044],[57.90117092373999,23.6349563563256],[57.9011634923724,23.634966246773384],[57.90115781069302,23.63497723607278],[57.901154037179715,23.634989017701656],[57.90115227708625,23.635001263037612],[57.90115257950653,23.635013630524167],[57.90115493600522,23.635025775197715],[57.90115928085301,23.635037358309532],[57.90116549286001,23.63504805677441],[57.90117515822198,23.63505925608823],[57.90118652775577,23.635068720630137],[57.90119929423194,23.63507619464769],[57.90121311267262,23.63508147617674],[57.90122760967361,23.63508442249892],[57.90123830618598,23.635085380789622],[57.90124868272558,23.635088148663183],[57.90125843546713,23.63509264507622],[57.9012672788502,23.635098738373678],[57.901274953940366,23.6351062501437],[57.90128123601086,23.63511496044153],[57.90128777338362,23.635130057540152],[57.901292473971374,23.635145823456053],[57.90129527141255,23.635162035610513],[57.901296185233974,23.63518098000289],[57.90129978603397,23.63519960147736],[57.90130600049898,23.635217520894116],[57.90131470210029,23.63523437340748],[57.90135082260007,23.63526194892584],[57.90138898445649,23.63528662224002],[57.901428955014936,23.635308242928613],[57.90147484146582,23.635296036344226],[57.901518772717154,23.635278019345755],[57.90153136726867,23.635270174205946],[57.901542600865724,23.635260480123033],[57.90155220457893,23.635249169170855],[57.90155994849787,23.635236512130685],[57.90156447683429,23.635224336715332],[57.90157096716875,23.635213084065498],[57.901579238693884,23.635203067656878],[57.901589060982005,23.63519456652602],[57.90159355283942,23.635189459986535],[57.90159715729358,23.635183692713454],[57.90159977895621,23.6351774173319],[57.90160134844762,23.635170799913574],[57.90160182423279,23.63516401558184],[57.90160119372055,23.635157243877263],[57.90159947359677,23.635150664006233],[57.90159751335188,23.63508273164296],[57.901596114717826,23.6350768459556],[57.90159573445105,23.635070808332713],[57.901596383567124,23.635064793672186],[57.901598043262446,23.635058976206725],[57.90160066545896,23.635053524456698],[57.90160417419686,23.635048596348415],[57.901608467835025,23.63504433463934],[57.90161342199532,23.635040862782674],[57.901637521736674,23.635017022487936],[57.90165842099808,23.634990332076566],[57.90166309921548,23.634979040957017],[57.90166576809071,23.634967114004194],[57.901666348263475,23.63495490587173],[57.901664822482076,23.63494277957428],[57.90165737418282,23.634929620662206],[57.901651892512625,23.634915528628255],[57.90164849107682,23.63490079552392],[57.901647240368725,23.6348857266866],[57.901634309761214,23.63483540247877],[57.90162437198597,23.634784402801053],[57.901625858592524,23.634768928432987],[57.90162484938558,23.63475341561353],[57.90162137038419,23.634738264289645],[57.90161551128296,23.634723865088315],[57.901607423139524,23.634710589245522],[57.90152417342153,23.634661960981884]]},"properties":{"OBJECTID":98,"Governorate":"Al Batinah South","Wilayat":"Barka","Latitude":23.63493975,"Longitude":57.90142348,"Shape_Length":217.16091303622082,"Street_ID":"ST_098"}},{"type":"Feature","id":99,"geometry":{"type":"LineString","coordinates":[[57.90162577082795,23.63477236140062],[57.90169291483572,23.634782181748076],[57.9017592121419,23.634796653244088],[57.90182434095958,23.634815705648425],[57.90206726340297,23.634873112769235],[57.90239559102865,23.634952259321402]]},"properties":{"OBJECTID":99,"Governorate":"Al Batinah South","Wilayat":"Barka","Latitude":23.63485982,"Longitude":57.9020112,"Shape_Length":81.06120886891878,"Street_ID":"ST_099"}},{"type":"Feature","id":100,"geometry":{"type":"LineString","coordinates":[[57.90043630006984,23.634557660233828],[57.90065990914849,23.634747265893097],[57.90068314169268,23.63476450304972],[57.90069325416682,23.63455588387969]]},"properties":{"OBJECTID":100,"Governorate":"Al Batinah South","Wilayat":"Barka","Latitude":23.63466109,"Longitude":57.90061134,"Shape_Length":57.16408553722388,"Street_ID":"ST_100"}},{"type":"Feature","id":101,"geometry":{"type":"LineString","coordinates":[[57.90068314169268,23.63476450304972],[57.90069140204716,23.63561626487892]]},"properties":{"OBJECTID":101,"Governorate":"Al Batinah South","Wilayat":"Barka","Latitude":23.63519038,"Longitude":57.90068727,"Shape_Length":94.31102659606782,"Street_ID":"ST_101"}},{"type":"Feature","id":102,"geometry":{"type":"LineString","coordinates":[[57.90068673698431,23.635135275460385],[57.90109995472386,23.63514161385682]]},"properties":{"OBJECTID":102,"Governorate":"Al Batinah South","Wilayat":"Barka","Latitude":23.63513844,"Longitude":57.90089335,"Shape_Length":42.15670356711632,"Street_ID":"ST_102"}},{"type":"Feature","id":103,"geometry":{"type":"LineString","coordinates":[[57.89880305559639,23.634464885552447],[57.8988009294791,23.63417512649816],[57.898793135092326,23.633590253060135],[57.898784521741675,23.63329439615208]]},"properties":{"OBJECTID":103,"Governorate":"Al Batinah South","Wilayat":"Barka","Latitude":23.6338796,"Longitude":57.89879619,"Shape_Length":129.61416807990864,"Street_ID":"ST_103"}},{"type":"Feature","id":104,"geometry":{"type":"LineString","coordinates":[[57.90118264775072,23.635065924368455],[57.90115250380406,23.635088235802534],[57.90112483975192,23.635113556897096],[57.90109995472386,23.63514161385682],[57.901100499602784,23.635160345556415],[57.90110417779376,23.635178720658427],[57.9011108851349,23.63519621880226],[57.90112043168242,23.63521234446172],[57.90113254708971,23.6352266409777],[57.90115577433675,23.63524227307585],[57.90118100922272,23.635254400236583],[57.90120772651572,23.63526277004854],[57.9012666017321,23.635255315728767],[57.901324506075376,23.63524231784373]]},"properties":{"OBJECTID":104,"Governorate":"Al Batinah South","Wilayat":"Barka","Latitude":23.63519425,"Longitude":57.90117427,"Shape_Length":43.060732001821336,"Street_ID":"ST_104"}},{"type":"Feature","id":105,"geometry":{"type":"LineString","coordinates":[[57.90120772651572,23.63526277004854],[57.901185912066055,23.635471773322802],[57.90118619735637,23.635485906784524],[57.90118892554573,23.635499777368995],[57.90119401421814,23.635512966058997],[57.90120130964961,23.635525074436693],[57.90122887687823,23.635544144851437],[57.90125882630971,23.63555920022811],[57.901290577006506,23.63556994853334],[57.90131080172316,23.635572107954115],[57.90133110405225,23.635570876006334],[57.901350919270946,23.63556628695744],[57.90136969620573,23.635558468454896],[57.90138691256362,23.63554763797556],[57.9013937323723,23.635536413725845],[57.901398864362996,23.635524324216203],[57.901402201506556,23.635511621576917],[57.90140367420585,23.635498570725268],[57.90140325174731,23.63548544384061],[57.90140677029104,23.635415345806177],[57.90141290049142,23.63534542774539],[57.901428955014936,23.635308242928613]]},"properties":{"OBJECTID":105,"Governorate":"Al Batinah South","Wilayat":"Barka","Latitude":23.6354505,"Longitude":57.9012959,"Shape_Length":77.58773970733031,"Street_ID":"ST_105"}}]}